HIERARCHY
ROOT Hips
{
	OFFSET 0.00000 0.00000 0.00000
	CHANNELS 6 Xposition Yposition Zposition Zrotation Yrotation Xrotation 
	JOINT LHipJoint
	{
		OFFSET 0 0 0
		CHANNELS 3 Zrotation Yrotation Xrotation
		JOINT LeftUpLeg
		{
			OFFSET 1.57314 -1.85774 0.63783
			CHANNELS 3 Zrotation Yrotation Xrotation
			JOINT LeftLeg
			{
				OFFSET 2.57982 -7.08799 0.00000
				CHANNELS 3 Zrotation Yrotation Xrotation
				JOINT LeftFoot
				{
					OFFSET 2.63993 -7.25315 0.00000
					CHANNELS 3 Zrotation Yrotation Xrotation
					JOINT LeftToeBase
					{
						OFFSET 0.16864 -0.46332 2.12791
						CHANNELS 3 Zrotation Yrotation Xrotation
						End Site
						{
							OFFSET 0.00000 -0.00000 1.09718
						}
					}
				}
			}
		}
	}
	JOINT RHipJoint
	{
		OFFSET 0 0 0
		CHANNELS 3 Zrotation Yrotation Xrotation
		JOINT RightUpLeg
		{
			OFFSET -1.56006 -1.85774 0.63784
			CHANNELS 3 Zrotation Yrotation Xrotation
			JOINT RightLeg
			{
				OFFSET -2.54246 -6.98536 0.00000
				CHANNELS 3 Zrotation Yrotation Xrotation
				JOINT RightFoot
				{
					OFFSET -2.65791 -7.30256 0.00000
					CHANNELS 3 Zrotation Yrotation Xrotation
					JOINT RightToeBase
					{
						OFFSET -0.18435 -0.50650 2.16316
						CHANNELS 3 Zrotation Yrotation Xrotation
						End Site
						{
							OFFSET -0.00000 -0.00000 1.11780
						}
					}
				}
			}
		}
	}
	JOINT LowerBack
	{
		OFFSET 0 0 0
		CHANNELS 3 Zrotation Yrotation Xrotation
		JOINT Spine
		{
			OFFSET -0.00136 1.92812 -0.29638
			CHANNELS 3 Zrotation Yrotation Xrotation
			JOINT Spine1
			{
				OFFSET -0.00528 1.96223 -0.02928
				CHANNELS 3 Zrotation Yrotation Xrotation
				JOINT Neck
				{
					OFFSET 0 0 0
					CHANNELS 3 Zrotation Yrotation Xrotation
					JOINT Neck1
					{
						OFFSET -0.01015 1.75586 0.07797
						CHANNELS 3 Zrotation Yrotation Xrotation
						JOINT Head
						{
							OFFSET 0.05540 1.72452 0.04558
							CHANNELS 3 Zrotation Yrotation Xrotation
							End Site
							{
								OFFSET 0.02170 1.79958 0.00864
							}
						}
					}
				}
				JOINT LeftShoulder
				{
					OFFSET 0 0 0
					CHANNELS 3 Zrotation Yrotation Xrotation
					JOINT LeftArm
					{
						OFFSET 3.16292 1.29277 -0.65728
						CHANNELS 3 Zrotation Yrotation Xrotation
						JOINT LeftForeArm
						{
							OFFSET 5.52302 -0.00000 -0.00000
							CHANNELS 3 Zrotation Yrotation Xrotation
							JOINT LeftHand
							{
								OFFSET 3.58675 -0.00000 -0.00000
								CHANNELS 3 Zrotation Yrotation Xrotation
								JOINT LeftFingerBase
								{
									OFFSET 0 0 0
									CHANNELS 3 Zrotation Yrotation Xrotation
									JOINT LeftHandIndex1
									{
										OFFSET 0.53641 -0.00000 -0.00000
										CHANNELS 3 Zrotation Yrotation Xrotation
										End Site
										{
											OFFSET 0.43247 -0.00000 -0.00000
										}
									}
								}
								JOINT LThumb
								{
									OFFSET 0 0 0
									CHANNELS 3 Zrotation Yrotation Xrotation
									End Site
									{
										OFFSET 0.43907 -0.00000 0.43907
									}
								}
							}
						}
					}
				}
				JOINT RightShoulder
				{
					OFFSET 0 0 0
					CHANNELS 3 Zrotation Yrotation Xrotation
					JOINT RightArm
					{
						OFFSET -3.08296 1.43376 -0.52927
						CHANNELS 3 Zrotation Yrotation Xrotation
						JOINT RightForeArm
						{
							OFFSET -5.84780 -0.00000 0.00000
							CHANNELS 3 Zrotation Yrotation Xrotation
							JOINT RightHand
							{
								OFFSET -3.62717 -0.00000 -0.00000
								CHANNELS 3 Zrotation Yrotation Xrotation
								JOINT RightFingerBase
								{
									OFFSET 0 0 0
									CHANNELS 3 Zrotation Yrotation Xrotation
									JOINT RightHandIndex1
									{
										OFFSET -0.65052 -0.00000 -0.00000
										CHANNELS 3 Zrotation Yrotation Xrotation
										End Site
										{
											OFFSET -0.52446 -0.00000 -0.00000
										}
									}
								}
								JOINT RThumb
								{
									OFFSET 0 0 0
									CHANNELS 3 Zrotation Yrotation Xrotation
									End Site
									{
										OFFSET -0.53247 -0.00000 0.53247
									}
								}
							}
						}
					}
				}
			}
		}
	}
}
MOTION
Frames: 100
Frame Time: 0.0166667
-0.3071 17.6356 -28.2214 0.0000 0.0000 0.0000 0.0000 0.0000 0.0000 -21.0000 0.0000 0.0000 0.0000 0.0000 0.0000 0.0000 0.0000 0.0000 0.0000 0.0000 0.0000 0.0000 0.0000 0.0000 21.0000 0.0000 0.0000 0.0000 0.0000 0.0000 0.0000 0.0000 0.0000 0.0000 0.0000 0.0000 0.0000 0.0000 0.0000 0.0000 0.0000 0.0000 0.0000 0.0000 0.0000 0.0000 0.0000 -16.0000 0.0000 0.0000 21.0000 0.0000 0.0000 11.0000 0.0000 0.0000 0.0000 -8.0000 0.0000 0.0000 0.0000 0.0000 0.0000 0.0000 0.0000 0.0000 0.0000 0.0000 0.0000 0.0000 0.0000 0.0000 0.0000 0.0000 0.0000 0.0000 0.0000 0.0000 8.0000 0.0000 0.0000 0.0000 0.0000 0.0000 0.0000 0.0000 0.0000 0.0000 0.0000 0.0000 0.0000 0.0000 0.0000 0.0000 0.0000 0.0000
-0.3071 17.6356 -28.2214 -4.5460 1.4421 2.3608 0.0000 0.0000 0.0000 -18.1100 -11.0719 -25.4028 4.0793 12.2651 36.6764 -0.0334 -7.8904 -4.7895 0.1003 2.0419 5.6215 0.0000 0.0000 0.0000 25.7511 -3.0912 3.4552 -17.3738 -19.8338 82.3010 -1.5108 -17.4928 23.5872 -1.1476 -6.8022 19.1308 1.6527 -0.1825 15.4094 -0.1101 0.0318 1.5458 -1.0607 -0.0336 -6.9977 -1.3463 -0.6770 -3.2416 1.0810 -0.8183 -9.2820 0.5781 -0.3887 -2.3551 -0.0000 0.0000 0.0000 -82.8546 15.8805 40.0112 123.1448 -55.4120 -88.2620 -0.0000 0.0000 -30.7395 40.2999 10.3853 8.6919 -7.1250 0.0000 -0.0000 12.1057 43.1617 -0.5579 -0.0000 0.0000 0.0000 77.4155 -10.2888 47.2452 -69.1517 58.2922 -42.0484 0.0000 0.0000 2.4690 -40.6255 25.7937 -20.4700 7.1250 -0.0000 -0.0000 -6.3591 2.3296 -6.6528
-0.3037 17.5624 -27.7253 -4.3387 1.7707 2.0255 0.0000 0.0000 0.0000 -18.6759 -11.4461 -24.2784 4.5927 12.9098 39.0319 0.1684 -7.0803 -8.2387 0.0006 0.1642 0.4511 0.0000 0.0000 0.0000 24.5509 -3.4256 0.6324 -18.9406 -19.9731 86.9013 -1.3480 -17.8155 22.6704 -1.3791 -7.4312 20.9994 1.3519 -0.3806 16.0608 -0.0540 -0.2670 1.6867 -0.7660 -0.1696 -7.2142 -1.5591 -0.4937 -2.8886 1.1590 -0.5680 -9.8863 0.6425 -0.2583 -2.6230 -0.0000 -0.0000 0.0000 -83.1907 13.0758 40.5097 123.6840 -55.2456 -88.7055 -0.0000 0.0000 -30.2025 39.6288 9.5391 7.8143 -7.1250 0.0000 -0.0000 11.3929 42.0087 -0.8530 -0.0000 -0.0000 0.0000 77.7412 -10.8749 46.1155 -64.9338 57.4874 -38.4751 0.0000 0.0000 5.3335 -42.4435 25.1790 -21.2600 7.1250 -0.0000 -0.0000 -7.5464 2.2701 -7.9072
-0.2951 17.4133 -26.7480 -2.9478 2.0493 1.4823 0.0000 0.0000 0.0000 -20.9762 -11.3344 -21.1323 5.1050 13.5011 41.2744 0.4275 -7.3381 -11.9686 0.0424 -1.3290 -3.6545 0.0000 0.0000 0.0000 21.0825 -3.3095 -5.4187 -21.8839 -19.9147 95.5157 -1.2647 -16.2476 21.6254 -1.4587 -7.6336 21.6065 -0.1358 -0.5703 17.6241 -0.3682 -0.8084 1.6233 -0.1230 -0.3900 -8.1424 -1.9460 0.0012 -1.1528 1.6261 0.1159 -11.5008 0.8670 0.0805 -3.5109 0.0000 0.0000 0.0000 -83.2603 7.5832 41.9421 124.4973 -54.9873 -89.3727 -0.0000 0.0000 -29.1819 39.5448 9.0143 7.3711 -7.1250 0.0000 -0.0000 11.2619 41.3393 -1.0315 0.0000 0.0000 0.0000 78.8900 -12.8161 43.0154 -59.6412 56.2136 -34.0427 0.0000 0.0000 7.9646 -44.0159 25.7978 -22.8067 7.1250 -0.0000 -0.0000 -8.2888 3.6122 -8.8857
-0.3219 17.2953 -25.8061 0.1048 1.7511 2.0087 0.0000 0.0000 0.0000 -24.8371 -10.6694 -18.4506 5.2778 13.6900 42.0096 0.7287 -6.7494 -15.2555 0.1746 -2.6917 -7.4215 0.0000 0.0000 0.0000 15.8100 -2.0325 -12.8523 -24.3866 -19.5323 102.9224 -0.9879 -12.3432 18.5226 -0.7017 -5.3544 14.9223 -3.5679 -0.2802 17.7186 -1.2047 -1.1567 2.0348 1.0090 -0.4658 -7.6991 -2.2398 0.5812 -1.5576 2.2604 0.9800 -12.7602 1.1129 0.5025 -3.9083 0.0000 -0.0000 0.0000 -82.7931 0.4039 43.0930 124.8320 -54.8785 -89.6467 -0.0000 0.0000 -27.8677 38.2790 10.6372 8.2880 -7.1250 0.0000 -0.0000 10.2426 43.2000 -0.4601 0.0000 -0.0000 0.0000 80.4492 -13.6231 39.3168 -56.4241 55.2792 -31.3833 0.0000 0.0000 7.1627 -42.7531 25.8585 -21.9601 7.1250 -0.0000 -0.0000 -7.5586 3.1894 -8.0361
-0.3172 17.2292 -24.8591 -0.1114 1.8252 2.6543 0.0000 0.0000 0.0000 -25.0822 -9.5221 -15.5365 5.2482 13.6580 41.8842 0.9079 -7.5548 -17.0477 0.2203 -3.0218 -8.3393 0.0000 0.0000 0.0000 15.1584 -0.4436 -20.2847 -25.8946 -19.1457 107.4740 -0.5468 -9.7346 13.8874 -0.1028 -2.0673 5.6916 -3.1995 -0.6007 17.7252 -1.1149 -1.4997 2.0360 0.9781 -0.6410 -7.6937 -2.2979 1.1492 -1.2695 2.2484 1.7595 -13.9594 1.1016 0.8911 -4.4212 0.0000 0.0000 0.0000 -82.4894 -5.0241 44.3709 125.0236 -54.8155 -89.8033 -0.0000 0.0000 -25.1596 38.3837 9.5376 7.4774 -7.1250 0.0000 -0.0000 10.2531 41.8537 -0.8052 0.0000 0.0000 0.0000 81.6477 -14.8496 36.0901 -53.6274 54.3577 -29.0972 0.0000 0.0000 6.8682 -42.1484 25.6465 -21.3926 7.1250 -0.0000 -0.0000 -7.2656 2.7113 -7.6619
-0.3038 17.2134 -23.8716 0.3216 1.9214 3.1650 0.0000 0.0000 0.0000 -26.0885 -7.3659 -11.8833 4.8928 13.2621 40.3575 0.9509 -7.7340 -17.4514 0.3472 -3.7860 -10.4753 0.0000 0.0000 0.0000 14.0342 1.3016 -26.7856 -26.5187 -18.9491 109.3860 -0.5498 -8.8343 13.6936 -0.3608 -3.8589 10.6800 -3.1626 -0.9981 17.4311 -1.3501 -2.0114 2.3332 0.8156 -0.9034 -7.2015 -1.5179 1.4902 -3.0204 1.5213 2.1711 -13.4937 0.7135 1.0947 -3.9004 0.0000 0.0000 0.0000 -81.7998 -9.7081 44.8769 125.6945 -54.5910 -90.3509 -0.0000 0.0000 -21.8946 38.0744 10.2282 7.9193 -7.1250 0.0000 -0.0000 10.0226 42.6689 -0.5828 0.0000 0.0000 0.0000 82.8173 -15.8021 33.4525 -51.9847 53.7653 -27.7672 0.0000 0.0000 7.0966 -42.1713 23.6891 -19.9985 7.1250 -0.0000 -0.0000 -7.7386 0.3991 -7.8642
-0.3002 17.3584 -22.8246 0.7967 2.1492 3.4701 0.0000 0.0000 0.0000 -26.8313 -5.1493 -7.3260 4.2816 12.5260 37.6190 0.8063 -7.7740 -16.1135 0.6848 -5.2906 -14.7393 0.0000 0.0000 0.0000 13.2032 2.8424 -32.1127 -26.1733 -19.0606 108.3254 -0.6257 -8.1387 14.3571 -0.6758 -5.2567 14.6423 -3.5661 -1.6863 17.1448 -1.1955 -2.9761 2.0777 1.4233 -1.3534 -7.2570 -1.4975 2.0007 -2.2766 0.7510 2.7604 -13.1063 0.4338 1.4108 -3.8980 0.0000 -0.0000 0.0000 -81.5992 -11.4596 44.6028 127.3221 -54.0200 -91.6728 -0.0000 0.0000 -19.3343 38.6023 7.9520 6.3026 -7.1250 0.0000 -0.0000 10.3116 39.9062 -1.3108 0.0000 -0.0000 0.0000 82.5430 -17.9895 32.8156 -52.4454 53.9354 -28.1392 0.0000 0.0000 6.6767 -41.9581 25.0136 -20.8149 7.1250 -0.0000 -0.0000 -7.3071 1.8953 -7.6061
-0.3093 17.4746 -21.7827 1.6840 2.7879 3.9556 0.0000 0.0000 0.0000 -27.5709 -3.0355 -2.8554 3.6316 11.6534 34.5165 0.4708 -7.7280 -12.5683 1.5100 -7.7606 -21.9892 0.0000 0.0000 0.0000 12.0333 4.1500 -36.8662 -25.2919 -19.3149 105.6441 -0.5157 -6.5109 12.8973 -0.4074 -4.0973 11.3506 -4.4278 -2.3528 17.2707 -1.0224 -4.0238 1.6542 2.3460 -1.8142 -7.6626 -1.2890 2.4367 -2.9004 -0.0640 3.2677 -11.9812 0.1333 1.6804 -3.3682 0.0000 0.0000 0.0000 -81.1449 -12.5918 44.8637 129.2628 -53.2885 -93.2360 -0.0000 0.0000 -18.5438 39.0575 6.2218 5.0258 -7.1250 0.0000 -0.0000 10.5377 37.7782 -1.8987 0.0000 0.0000 0.0000 82.0495 -20.2540 32.5473 -53.7773 54.4098 -29.2191 0.0000 0.0000 5.7163 -42.0206 25.4629 -21.1758 7.1250 -0.0000 -0.0000 -7.2365 2.4480 -7.5989
-0.3367 17.6546 -20.6999 2.3675 3.9177 4.4975 0.0000 0.0000 0.0000 -27.4965 -1.4949 1.4155 2.9625 10.6341 31.0555 0.0522 -8.5184 -6.9434 1.3916 -7.4633 -21.0955 0.0000 0.0000 0.0000 11.4757 4.7653 -40.6759 -23.7324 -19.6627 100.9720 -0.3150 -4.7590 10.0327 -0.0682 -1.6847 4.6352 -5.1434 -3.2982 17.3667 -0.6830 -5.4144 0.9786 3.4554 -2.4211 -8.2562 -1.1054 2.7317 -2.1763 -0.8945 3.5720 -11.9573 -0.1853 1.8501 -3.4749 -0.0000 -0.0000 0.0000 -80.4557 -12.5988 44.5455 131.3121 -52.4524 -94.8700 -0.0000 0.0000 -19.5304 39.5639 3.3095 2.7308 -7.1250 0.0000 -0.0000 10.6291 34.1197 -2.8792 -0.0000 -0.0000 0.0000 80.9943 -23.0007 33.1936 -55.6750 55.0428 -30.7685 0.0000 0.0000 5.0562 -42.6423 25.7568 -21.8105 7.1250 -0.0000 -0.0000 -7.5203 3.0274 -7.9746
-0.3575 17.8454 -19.5835 2.0710 4.2254 5.0952 0.0000 0.0000 0.0000 -26.1739 0.3386 5.2487 2.2479 9.3644 26.9420 -0.1621 -7.2975 0.9633 1.2709 -7.1452 -20.1462 0.0000 0.0000 0.0000 12.0977 6.7432 -43.3108 -21.5455 -19.9426 94.5228 -0.2125 -4.5591 8.3169 -0.0778 -1.7988 4.9499 -5.1969 -4.0982 16.0952 0.1123 -6.3408 0.9624 4.4192 -2.8956 -7.3853 -1.7134 3.2871 -2.3745 -1.2732 4.2768 -11.9161 -0.2170 2.2370 -3.4316 -0.0000 -0.0000 0.0000 -79.9200 -13.1638 44.0521 133.2603 -51.5929 -96.4057 -0.0000 0.0000 -21.5212 39.0655 3.4928 2.8310 -7.1250 0.0000 -0.0000 10.2413 34.3333 -2.7173 -0.0000 -0.0000 0.0000 79.4768 -24.3171 34.0429 -56.8244 55.4026 -31.7126 0.0000 0.0000 3.9329 -44.4001 24.2437 -21.9055 7.1250 -0.0000 -0.0000 -8.8927 1.9009 -9.2940
-0.3634 18.0331 -18.4479 2.2237 4.0192 5.5332 0.0000 0.0000 0.0000 -25.3739 2.2237 9.4570 1.5354 7.8226 22.1766 0.1655 -3.7722 10.0213 1.0717 -6.5809 -18.4795 0.0000 0.0000 0.0000 11.9647 8.8237 -44.7975 -18.9176 -19.9719 86.8338 -0.1455 -4.4807 7.0136 -0.0160 -0.8165 2.2441 -4.9443 -4.2995 15.6059 0.0842 -6.5557 0.5732 4.2684 -2.9969 -7.5446 -0.7041 3.2461 -2.6442 -1.7038 4.1973 -11.2747 -0.5089 2.1645 -3.1232 -0.0000 0.0000 0.0000 -78.3884 -13.0356 45.0257 135.2928 -50.6242 -97.9878 -0.0000 0.0000 -24.1718 37.9691 6.3928 4.9663 -7.1250 0.0000 -0.0000 9.6155 37.9070 -1.6980 -0.0000 0.0000 0.0000 79.9768 -27.1449 33.0346 -59.2248 56.0998 -33.6968 0.0000 0.0000 3.2772 -44.5274 24.3395 -22.0676 7.1250 -0.0000 -0.0000 -8.9418 2.0671 -9.3718
-0.3602 18.2017 -17.2941 1.9283 3.5601 5.7623 0.0000 0.0000 0.0000 -24.4179 3.1901 14.3026 0.8623 5.9213 16.5561 1.1003 4.1328 18.8807 0.8181 -5.7715 -16.1230 0.0000 0.0000 0.0000 12.3720 10.7315 -45.2607 -15.9345 -19.5990 78.0365 -0.0621 -4.0757 4.9173 -0.0052 -0.4657 1.2797 -4.6992 -4.7194 15.2691 0.7992 -7.0134 0.1146 4.9772 -3.2011 -7.7441 -1.4701 3.4314 -3.2269 -1.7538 4.4651 -9.9685 -0.3663 2.3159 -2.5904 -0.0000 0.0000 0.0000 -78.0015 -11.8330 45.0771 136.7857 -49.8631 -99.1356 -0.0000 0.0000 -25.9268 38.8262 5.4913 4.4038 -7.1250 0.0000 -0.0000 10.2622 36.8420 -2.0863 -0.0000 0.0000 0.0000 78.5327 -29.1937 33.2153 -60.0540 56.3243 -34.3860 0.0000 0.0000 2.6376 -45.6546 24.8447 -23.2616 7.1250 -0.0000 -0.0000 -9.4556 3.1373 -10.0943
-0.3479 18.3478 -16.1453 2.1328 2.1568 6.0283 0.0000 0.0000 0.0000 -24.4230 4.8456 19.6596 0.3029 3.5384 9.7815 2.5702 14.0829 29.0965 0.0173 -0.8481 -2.3309 0.0000 0.0000 0.0000 12.0117 12.9334 -44.8719 -12.7681 -18.6968 68.4037 -0.0224 -3.9492 3.6267 -0.0006 0.1570 -0.4313 -4.8944 -4.4905 14.2660 0.8953 -6.6930 0.0295 5.0256 -3.0613 -7.2758 -1.0680 3.5339 -3.5633 -1.9054 4.6041 -9.2332 -0.4626 2.3677 -2.2716 0.0000 -0.0000 0.0000 -76.8722 -11.0421 45.9578 138.0823 -49.1659 -100.1218 -0.0000 0.0000 -26.5919 38.1569 4.9567 3.8837 -7.1250 0.0000 -0.0000 9.6409 36.1292 -2.1270 0.0000 -0.0000 0.0000 78.5695 -31.3249 32.2647 -61.7127 56.7493 -35.7698 0.0000 0.0000 2.1481 -46.2016 24.8647 -23.6771 7.1250 -0.0000 -0.0000 -9.7590 3.3923 -10.4687
-0.3228 18.5199 -14.9781 2.5405 1.0729 6.3268 0.0000 0.0000 0.0000 -24.1185 6.6432 26.8875 0.0000 -0.0000 -0.0000 4.1377 19.3993 37.4613 0.0023 -0.3115 -0.8560 0.0000 0.0000 0.0000 11.5464 14.6255 -43.5193 -9.5064 -17.1228 57.8254 -0.0132 -3.2980 2.9242 -0.0437 1.3497 -3.7115 -4.8282 -4.2662 13.4012 0.7176 -6.3566 0.0324 4.6539 -2.9243 -6.8539 -0.3182 3.4070 -4.1924 -2.0634 4.4268 -8.5763 -0.6095 2.2516 -1.9265 -0.0000 -0.0000 0.0000 -75.6300 -10.4406 46.9915 138.5870 -48.8851 -100.5028 -0.0000 0.0000 -26.1214 37.7347 3.9663 3.0640 -7.1250 0.0000 -0.0000 9.1918 34.8716 -2.3107 -0.0000 -0.0000 0.0000 79.2291 -32.9628 30.8669 -63.7573 57.2308 -37.4844 0.0000 0.0000 2.2756 -46.5367 24.3312 -23.4959 7.1250 -0.0000 -0.0000 -10.0851 2.8829 -10.7441
-0.2969 18.6362 -13.8473 3.3973 0.8324 6.6274 0.0000 0.0000 0.0000 -25.2870 6.1480 29.4545 0.0000 0.0000 0.0000 3.4905 17.9918 34.2993 0.5369 -4.6951 -13.0410 0.0000 0.0000 0.0000 10.6207 15.3542 -41.6821 -6.5796 -14.9674 47.2658 -0.0039 -3.5447 2.6602 -0.0360 1.2243 -3.3663 -5.0311 -4.3864 13.1326 0.5682 -6.5599 -0.3543 4.6398 -3.0022 -7.0930 0.0095 3.3983 -3.9862 -2.1224 4.4057 -8.3822 -0.6832 2.2320 -1.8906 0.0000 0.0000 0.0000 -74.9982 -8.7617 47.8527 139.0963 -48.5963 -100.8857 -0.0000 0.0000 -24.4513 37.0024 4.6093 3.4657 -7.1250 0.0000 -0.0000 8.6393 35.6331 -2.0072 0.0000 0.0000 0.0000 79.3786 -34.4347 30.0664 -65.2707 57.5582 -38.7594 0.0000 0.0000 2.8366 -47.1199 24.3481 -23.9399 7.1250 -0.0000 -0.0000 -10.4097 3.1554 -11.1485
-0.2836 18.7025 -12.7427 4.7002 0.5955 6.6713 0.0000 0.0000 0.0000 -28.2319 4.3993 27.5040 0.2740 3.3672 9.3029 1.4200 13.0261 21.8717 4.4385 -12.7222 -38.3371 0.0000 0.0000 0.0000 9.2441 16.3510 -39.1174 -4.2548 -12.4920 37.4955 0.0476 -5.8271 2.5178 -0.0381 1.2604 -3.4657 -5.8041 -4.3553 12.3484 0.1815 -6.5892 0.2277 4.5453 -3.0595 -5.9879 0.1591 3.3644 -4.6107 -1.9790 4.3580 -8.9142 -0.6585 2.2000 -1.9564 -0.0000 0.0000 0.0000 -74.4565 -8.1959 48.2777 139.0368 -48.6303 -100.8411 -0.0000 0.0000 -22.0792 36.1310 5.9424 4.3222 -7.1250 0.0000 -0.0000 8.0018 37.2168 -1.5445 -0.0000 0.0000 0.0000 80.2345 -33.8018 28.7052 -66.5634 57.8193 -39.8519 0.0000 0.0000 3.2246 -48.0742 23.6701 -24.0866 7.1250 -0.0000 -0.0000 -11.1235 2.7352 -11.8632
-0.2748 18.6992 -11.6375 5.8759 0.2392 6.5564 0.0000 0.0000 0.0000 -30.7335 2.8822 26.1600 1.0218 6.4307 18.0392 2.1190 13.7004 26.4613 0.5176 -4.6111 -12.8025 0.0000 0.0000 0.0000 7.9432 18.0025 -36.2390 -2.7173 -10.2227 29.7011 0.2438 -9.3639 0.2253 -0.1050 2.0892 -5.7521 -6.2868 -4.2365 12.7898 -0.1957 -6.5707 -0.0529 4.4734 -3.0082 -6.5305 0.2839 3.2030 -4.5100 -2.0003 4.1328 -9.1581 -0.6916 2.0848 -2.0527 -0.0000 0.0000 0.0000 -74.4648 -5.7698 49.1928 138.7394 -48.7993 -100.6175 -0.0000 0.0000 -21.2523 36.2100 4.2514 3.1068 -7.1250 0.0000 -0.0000 7.9489 35.1534 -1.9378 -0.0000 0.0000 0.0000 80.9128 -34.1504 27.7457 -67.8385 58.0604 -40.9326 0.0000 0.0000 3.4320 -52.2044 12.4998 -15.5929 7.1250 -0.0000 -0.0000 -16.3687 -10.6952 -13.6296
-0.2515 18.6538 -10.5451 7.2047 0.2723 6.3565 0.0000 0.0000 0.0000 -32.9073 1.6312 23.7129 2.4417 9.7311 28.1102 2.2307 12.0741 26.9503 0.6899 -5.3099 -14.7947 0.0000 0.0000 0.0000 7.0073 18.2672 -33.6029 -1.8269 -8.4958 24.2304 0.4143 -11.4623 -2.3006 -0.1903 2.8092 -7.7481 -7.1414 -4.2948 12.5045 -0.3534 -6.7365 0.3809 4.7453 -3.1109 -5.8108 -0.1087 3.1418 -4.5522 -2.1680 4.0309 -10.2071 -0.6956 2.0538 -2.3973 -0.0000 -0.0000 0.0000 -75.3607 -3.9314 49.4235 137.5518 -49.4553 -99.7195 -0.0000 0.0000 -22.1959 36.3298 4.4799 3.2874 -7.1250 0.0000 -0.0000 8.0661 35.4392 -1.9102 -0.0000 -0.0000 0.0000 80.7459 -32.5122 27.5379 -67.7005 58.0351 -40.8155 0.0000 0.0000 3.0940 -48.8675 22.5180 -23.6779 7.1250 -0.0000 -0.0000 -11.8713 1.6361 -12.4733
-0.2469 18.5763 -9.4616 5.6972 -0.8447 6.2430 0.0000 0.0000 0.0000 -31.5904 2.0185 19.6435 4.5753 12.8890 38.9544 2.7991 10.8271 30.1615 0.1886 -2.7973 -7.7148 0.0000 0.0000 0.0000 9.9818 18.9767 -31.0739 -1.3275 -7.2964 20.5964 0.6008 -13.7438 -2.8203 -0.2855 3.4366 -9.4967 -5.8090 -3.9878 12.1654 0.2906 -6.0674 0.6315 4.5451 -2.8325 -5.5017 -0.8319 3.1203 -4.4856 -1.8811 4.0288 -10.7622 -0.4947 2.0752 -2.6163 0.0000 0.0000 0.0000 -76.5510 -1.5145 49.5078 135.3499 -50.5959 -98.0319 -0.0000 0.0000 -22.7097 37.2656 4.9803 3.7790 -7.1250 0.0000 -0.0000 8.8918 36.1063 -1.9633 0.0000 0.0000 0.0000 80.2225 -30.7181 27.8840 -67.7355 58.0415 -40.8452 0.0000 0.0000 2.5097 -47.5373 23.9114 -23.8891 7.1250 -0.0000 -0.0000 -10.7582 2.7979 -11.4707
-0.2216 18.4550 -8.3711 4.7300 -1.5378 5.5051 0.0000 0.0000 0.0000 -30.5288 2.7043 16.2909 7.3544 15.6232 50.2024 3.1360 10.8343 31.9839 0.0000 0.0250 0.0688 0.0000 0.0000 0.0000 13.6332 16.3487 -28.1023 -1.0622 -6.5526 18.3964 0.4551 -12.6494 0.0607 -0.2857 3.4372 -9.4985 -4.5694 -3.9178 12.5089 0.6936 -5.7910 0.8061 4.2633 -2.7219 -5.6176 -1.7524 3.1183 -3.9505 -1.4815 4.0629 -10.8450 -0.2261 2.1191 -2.7699 -0.0000 -0.0000 0.0000 -78.0291 1.7917 48.8457 132.4268 -51.9686 -95.7509 -0.0000 0.0000 -23.5044 37.5522 5.3217 4.0784 -7.1250 0.0000 -0.0000 9.1638 36.5467 -1.9250 -0.0000 -0.0000 0.0000 78.9791 -29.0679 29.4141 -68.6209 58.2005 -41.5970 0.0000 0.0000 1.7948 -46.3329 24.5550 -23.5266 7.1250 -0.0000 -0.0000 -9.9126 3.0702 -10.5856
-0.2148 18.2799 -7.2991 3.3772 -1.9010 4.6980 0.0000 0.0000 0.0000 -28.0745 3.6483 12.3450 10.6406 17.7547 61.6087 3.4038 11.0780 33.3731 0.2570 -3.2616 -9.0079 0.0000 0.0000 0.0000 17.6331 13.3017 -25.7616 -1.1235 -6.7330 18.9266 0.0757 -7.7502 3.5953 -0.0002 0.0959 -0.2634 -3.1185 -3.7083 13.2822 1.1442 -5.2980 1.0604 3.9062 -2.5036 -5.9137 -2.0657 2.8669 -4.3874 -1.2667 3.7663 -10.2338 -0.0865 1.9711 -2.4974 0.0000 -0.0000 0.0000 -78.9954 3.8845 48.4644 128.1405 -53.7185 -92.3337 -0.0000 0.0000 -24.4365 38.3786 9.6399 7.5546 -7.1250 0.0000 -0.0000 10.2569 41.9798 -0.7732 0.0000 -0.0000 0.0000 78.3260 -27.0523 30.3937 -70.4653 58.5078 -43.1672 0.0000 0.0000 2.0517 -46.2808 24.7412 -23.6372 7.1250 -0.0000 -0.0000 -9.8354 3.2755 -10.5341
-0.2137 18.1511 -6.2148 1.8851 -2.6449 3.6356 0.0000 0.0000 0.0000 -24.3395 5.7192 7.9209 14.3084 19.2049 73.1441 3.1826 9.5158 32.2568 0.6065 -4.9850 -13.8658 0.0000 0.0000 0.0000 21.2470 10.9589 -23.7112 -1.6187 -8.0220 22.7810 -0.0042 -1.2596 1.3534 -0.1498 -2.4938 6.8724 -1.6172 -3.4066 14.4332 1.5707 -4.6565 1.1129 3.4948 -2.2028 -6.6336 -2.3947 2.8093 -3.6446 -1.1355 3.6956 -9.6488 0.0050 1.9420 -2.4432 -0.0000 0.0000 0.0000 -80.1575 6.9336 47.4004 123.2393 -55.3831 -88.3399 -0.0000 0.0000 -24.7400 39.7277 8.5674 7.0574 -7.1250 0.0000 -0.0000 11.3797 40.7979 -1.1967 -0.0000 0.0000 0.0000 77.6096 -24.7199 31.7089 -74.5006 59.0725 -46.6189 0.0000 0.0000 0.7987 -45.1241 25.3368 -23.2579 7.1250 -0.0000 -0.0000 -9.0308 3.5116 -9.6851
-0.2619 17.8655 -5.2202 0.3431 -3.6877 2.9996 0.0000 0.0000 0.0000 -19.9441 7.5731 3.0062 18.2422 19.9258 84.8544 2.8630 9.5790 30.5232 0.0062 -0.5105 -1.4027 0.0000 0.0000 0.0000 23.9042 13.1829 -21.8768 -2.5862 -9.9930 28.9542 -0.0417 -2.2593 -5.3612 -0.4426 -4.2686 11.8336 -0.2419 -2.4342 15.4344 1.3339 -3.1591 1.3041 2.2286 -1.5065 -7.1700 -0.4699 2.2101 -2.9057 -1.4450 2.8440 -9.6206 -0.4160 1.4634 -2.5213 0.0000 -0.0000 0.0000 -79.2865 9.4429 48.3066 118.4179 -56.7170 -84.3394 -0.0000 0.0000 -25.5799 39.0157 8.1565 6.5576 -7.1250 0.0000 -0.0000 10.6990 40.2043 -1.2817 0.0000 -0.0000 0.0000 79.4755 -21.7903 31.2201 -77.9540 59.4445 -49.5873 0.0000 0.0000 1.4578 -46.5846 25.4595 -24.4339 7.1250 -0.0000 -0.0000 -9.8191 4.2808 -10.6778
-0.2876 17.6568 -4.2350 -0.2624 -4.5319 2.2051 0.0000 0.0000 0.0000 -16.6276 8.8424 -2.1322 21.7993 19.9222 95.2674 2.3596 6.8532 27.7359 0.1017 -2.0561 -5.6607 0.0000 0.0000 0.0000 25.3932 15.1695 -20.3259 -3.8345 -11.9368 35.5088 -0.1558 -4.4093 -10.3887 -0.4108 -4.1146 11.3994 0.1321 -1.9724 16.8742 1.3914 -2.4691 1.8356 1.9795 -1.1796 -7.4307 0.0510 2.2879 -4.0020 -1.7721 2.9285 -9.3526 -0.5877 1.4913 -2.2255 0.0000 -0.0000 0.0000 -80.1947 11.6072 46.5832 113.8348 -57.7407 -80.4850 -0.0000 0.0000 -24.6281 39.3150 8.8185 7.1558 -7.1250 0.0000 -0.0000 11.0336 41.0669 -1.0851 0.0000 -0.0000 0.0000 79.4715 -17.0751 32.6304 -81.8311 59.7463 -52.9316 0.0000 0.0000 2.2604 -47.5681 24.4463 -24.3566 7.1250 -0.0000 -0.0000 -10.6358 3.4742 -11.4551
-0.2946 17.4202 -3.2672 -2.6337 -5.1467 2.1119 0.0000 0.0000 0.0000 -11.4536 9.2530 -8.2065 24.9423 19.4040 104.5895 2.1606 1.6328 27.3695 0.1545 -2.5329 -6.9809 0.0000 0.0000 0.0000 28.8673 15.4980 -18.1033 -4.6820 -13.0164 39.4300 -0.4029 -4.7322 -14.6688 -0.2117 -2.9622 8.1735 2.3530 -1.8909 17.4039 2.0139 -1.8959 2.3494 1.2632 -0.9583 -7.2348 0.4429 2.5050 -3.5489 -2.4487 3.1416 -10.8566 -0.9010 1.6084 -2.7905 -0.0000 0.0000 0.0000 -81.5004 14.1912 44.2320 110.3623 -58.3739 -77.5380 -0.0000 0.0000 -24.5526 39.2922 8.2960 6.7334 -7.1250 0.0000 -0.0000 10.9601 40.4086 -1.2580 -0.0000 0.0000 0.0000 79.0487 -11.8123 34.3464 -85.5177 59.9239 -56.1192 0.0000 0.0000 2.0017 -47.6141 24.4675 -24.4088 7.1250 -0.0000 -0.0000 -10.6561 3.5209 -11.4860
-0.2939 17.3156 -2.2929 -4.4235 -5.1355 2.6968 0.0000 0.0000 0.0000 -7.6139 8.6821 -14.5567 27.1172 18.7394 111.2389 1.7721 -2.3799 26.1023 0.0096 -0.6311 -1.7341 0.0000 0.0000 0.0000 31.1641 13.9113 -15.3323 -4.9082 -13.2796 40.4244 -0.7027 -4.0104 -17.7922 -0.0505 -1.4500 3.9878 4.2556 -1.9815 17.3324 2.3895 -1.6407 2.5203 0.5244 -0.8782 -7.0536 0.7655 2.6220 -2.8510 -2.7647 3.2464 -12.4060 -1.1020 1.6664 -3.4407 -0.0000 -0.0000 0.0000 -82.7358 17.0395 42.0304 107.6299 -58.7924 -75.2060 -0.0000 0.0000 -26.0894 41.0617 9.7827 8.4199 -7.1250 0.0000 -0.0000 12.7423 42.5022 -0.7994 -0.0000 -0.0000 0.0000 78.9235 -6.1574 36.0432 -87.2975 59.9724 -57.6598 0.0000 0.0000 2.3850 -48.1894 24.8584 -25.1731 7.1250 -0.0000 -0.0000 -10.8740 4.2641 -11.8614
-0.3114 17.2552 -1.3319 -4.3753 -3.9821 3.0073 0.0000 0.0000 0.0000 -6.8861 6.0761 -21.9303 28.5508 18.1480 115.7681 1.4297 -4.5356 24.6211 0.0022 -0.3015 -0.8284 0.0000 0.0000 0.0000 31.5771 11.7508 -12.6047 -4.8448 -13.2069 40.1479 -0.8375 -4.6408 -19.5741 -0.0000 0.0321 -0.0882 4.3332 -2.0803 17.4116 2.4300 -1.7368 2.3283 0.5549 -0.9292 -7.3081 0.6674 2.5095 -2.0330 -2.7424 3.0937 -12.8563 -1.1000 1.6014 -3.7579 -0.0000 0.0000 0.0000 -83.7021 19.8030 40.9405 105.0267 -59.1294 -72.9755 -0.0000 0.0000 -28.6364 44.2812 14.7018 13.9013 -7.1250 0.0000 -0.0000 16.7097 49.3611 1.8433 -0.0000 0.0000 0.0000 78.8287 -2.0920 37.2020 -90.5110 59.9990 -60.4425 0.0000 0.0000 2.8292 -48.9480 25.2713 -26.1140 7.1250 -0.0000 -0.0000 -11.1834 5.1292 -12.3673
-0.3283 17.2550 -0.3197 -4.9594 -3.0536 3.0830 0.0000 0.0000 0.0000 -5.8100 3.7007 -28.5352 29.1609 17.8554 117.7421 1.2150 -5.7610 23.6366 0.0014 -0.2429 -0.6673 0.0000 0.0000 0.0000 32.7917 9.6615 -8.7700 -4.5881 -12.9044 39.0115 -0.9536 -5.0085 -20.9096 -0.0730 1.7433 -4.7968 4.8157 -1.8061 17.4986 2.6885 -1.2496 2.1788 0.4518 -0.7068 -7.5102 0.8382 2.0251 -2.3525 -2.8986 2.4431 -12.0559 -1.1459 1.2733 -3.4251 -0.0000 0.0000 0.0000 -83.9898 21.9029 41.1484 104.2151 -59.2225 -72.2785 -0.0000 0.0000 -32.6542 42.0089 9.1576 8.1575 -7.1250 0.0000 -0.0000 13.5298 41.8259 -1.0813 -0.0000 0.0000 0.0000 78.6430 0.6454 37.4056 -95.4469 59.8876 -64.7153 0.0000 0.0000 3.3140 -48.5106 25.8423 -26.2374 7.1250 -0.0000 -0.0000 -10.7857 5.6236 -11.9961
-0.3119 17.3180 0.7079 -4.7272 -2.5251 3.3145 0.0000 0.0000 0.0000 -6.9021 0.7342 -33.9944 28.9500 17.9595 117.0561 0.6769 -6.2573 19.0603 0.3663 -3.8878 -10.7612 0.0000 0.0000 0.0000 32.6367 7.0769 -4.7188 -4.1351 -12.3380 36.9384 -1.0260 -3.5832 -20.7425 -0.4899 4.4880 -12.4538 5.0770 -1.3227 17.2507 2.4689 -0.5900 2.0021 -0.0908 -0.4016 -7.5506 1.2134 1.4168 -3.4332 -3.1211 1.6371 -10.3635 -1.2272 0.8509 -2.6611 0.0000 -0.0000 0.0000 -83.5994 23.6508 42.1753 104.8391 -59.1514 -72.8144 -0.0000 0.0000 -35.8683 39.9735 4.7668 3.9850 -7.1250 0.0000 -0.0000 11.1495 35.9971 -2.5062 0.0000 -0.0000 0.0000 78.4530 2.8210 37.5794 -100.1050 59.6106 -68.7397 0.0000 0.0000 3.2861 -49.4916 26.3646 -27.4654 7.1250 -0.0000 -0.0000 -11.1789 6.7374 -12.6433
-0.3383 17.4430 1.7564 -5.5433 -5.6218 3.9375 0.0000 0.0000 0.0000 -6.2095 2.2004 -38.4993 28.0493 18.3697 114.1676 0.4256 -6.9259 16.7748 0.2125 -2.9681 -8.1899 0.0000 0.0000 0.0000 33.3281 7.4543 0.5660 -3.5252 -11.5003 33.9863 -0.7138 -2.2680 -16.9376 -0.6478 5.1485 -14.3326 4.9248 0.5573 17.3271 2.3628 1.8944 1.1684 -0.7023 0.7690 -8.3951 1.2285 0.7566 -3.0747 -2.5018 0.8382 -8.4300 -1.0034 0.4333 -2.1023 -0.0000 -0.0000 0.0000 -82.6463 26.2400 43.2463 106.1895 -58.9861 -73.9728 -0.0000 0.0000 -36.9520 41.2636 7.3269 6.3846 -7.1250 0.0000 -0.0000 12.5964 39.3816 -1.7769 -0.0000 -0.0000 0.0000 78.4085 3.1507 38.0478 -106.0256 59.0070 -73.8323 0.0000 0.0000 2.6249 -48.1698 25.3557 -25.5687 7.1250 -0.0000 -0.0000 -10.7295 4.8675 -11.8026
-0.3166 17.6001 2.8762 -5.9496 -6.0283 4.1591 0.0000 0.0000 0.0000 -6.6656 0.1522 -41.5813 26.5531 18.9376 109.4921 0.2563 -6.6749 14.2717 0.3216 -3.6453 -10.0809 0.0000 0.0000 0.0000 33.1973 5.6304 5.6048 -2.8104 -10.3816 30.2215 -0.3406 -1.5355 -11.6927 -0.8117 5.7495 -16.0593 5.8570 1.2186 16.5232 2.0138 2.8662 0.9477 -1.8092 1.2013 -8.0791 0.7891 0.2683 -3.2778 -1.4015 0.2700 -7.3123 -0.5687 0.1378 -1.7135 0.0000 0.0000 0.0000 -81.7990 28.1274 43.7297 108.1350 -58.7201 -75.6379 -0.0000 0.0000 -36.3393 42.5460 11.1388 10.0546 -7.1250 0.0000 -0.0000 14.3357 44.4558 -0.1968 0.0000 0.0000 0.0000 78.6993 3.2137 38.2418 -110.8684 58.2888 -77.9687 0.0000 0.0000 1.8405 -48.2330 25.1227 -25.4261 7.1250 -0.0000 -0.0000 -10.8275 4.6102 -11.8695
-0.2721 17.7619 4.0221 -5.7292 -5.4103 4.5110 0.0000 0.0000 0.0000 -7.6104 -3.3939 -43.9771 24.5312 19.5005 103.3550 0.0227 -6.7551 10.1721 0.6195 -5.0371 -14.0144 0.0000 0.0000 0.0000 31.9463 3.1412 9.8414 -2.1365 -9.1448 26.2493 -0.0588 -0.9940 -5.0599 -0.7148 5.4030 -15.0617 6.4843 1.4265 15.2021 1.6045 3.1177 0.8800 -2.6043 1.3202 -7.3406 0.0259 -0.0261 -4.3726 -0.3254 -0.0487 -6.1885 -0.1039 -0.0216 -1.1730 0.0000 0.0000 0.0000 -81.7354 29.4697 43.1571 109.5830 -58.5002 -76.8740 -0.0000 0.0000 -34.4402 41.8882 11.5031 10.1405 -7.1250 0.0000 -0.0000 13.7560 44.8169 -0.0634 0.0000 0.0000 0.0000 78.6087 3.4726 38.9415 -114.7567 57.5525 -81.2638 0.0000 0.0000 1.0716 -48.3593 25.1361 -25.5360 7.1250 -0.0000 -0.0000 -10.8940 4.6853 -11.9581
-0.2530 17.9239 5.1549 -5.3983 -4.0433 4.4462 0.0000 0.0000 0.0000 -8.3031 -7.1751 -44.6498 22.0740 19.8966 96.0740 0.0714 -5.6957 9.9371 0.3687 -3.9001 -10.7959 0.0000 0.0000 0.0000 30.8524 0.6774 14.4621 -1.4113 -7.5137 21.2464 -0.0677 -2.9845 4.7667 -0.0576 1.5488 -4.2602 6.7961 1.2851 14.4916 1.2655 2.8993 0.8713 -3.0688 1.2155 -6.9388 -0.5996 -0.3123 -5.5116 0.4149 -0.3748 -5.1021 0.2187 -0.1783 -0.6499 -0.0000 -0.0000 0.0000 -82.2528 31.0821 41.7255 111.4441 -58.1891 -78.4582 -0.0000 0.0000 -31.7826 42.4110 11.0483 9.9294 -7.1250 0.0000 -0.0000 14.1921 44.3179 -0.2440 -0.0000 -0.0000 0.0000 78.0422 3.8681 40.3179 -117.3260 56.9814 -83.4252 0.0000 0.0000 0.5336 -46.5141 24.7092 -23.7836 7.1250 -0.0000 -0.0000 -9.9751 3.3363 -10.6983
-0.2697 18.0930 6.3240 -5.3451 -2.4158 3.9469 0.0000 0.0000 0.0000 -8.3325 -10.6021 -44.6923 18.9846 19.9753 87.0301 0.0113 -6.2590 9.2225 0.3887 -4.0037 -11.0871 0.0000 0.0000 0.0000 30.6054 -1.1524 20.7617 -0.6403 -5.1194 14.2493 -0.6342 -9.6859 14.7609 -0.0389 -1.2734 3.5015 6.9246 1.0177 14.0110 1.1370 2.5128 0.9565 -3.1851 1.0376 -6.6055 -1.0813 -0.5647 -6.2405 0.8300 -0.6718 -4.2069 0.4161 -0.3192 -0.2566 0.0000 -0.0000 0.0000 -82.8957 32.7063 40.2034 113.0239 -57.8991 -79.7986 -0.0000 0.0000 -30.4199 41.1925 9.8212 8.4908 -7.1250 0.0000 -0.0000 12.8687 42.5688 -0.7861 0.0000 -0.0000 0.0000 77.4352 3.6937 41.6368 -118.9094 56.5936 -84.7500 0.0000 0.0000 0.0630 -50.4722 28.4307 -29.9840 7.1250 -0.0000 -0.0000 -11.1095 9.7387 -13.0553
-0.2596 18.2412 7.5498 -4.9965 -2.1579 3.7269 0.0000 0.0000 0.0000 -9.0005 -12.3301 -43.4320 15.6154 19.5327 77.0837 -0.0982 -7.4097 7.9337 0.4989 -4.5284 -12.5681 0.0000 0.0000 0.0000 29.4103 -2.0713 29.1412 -0.0494 -1.4346 3.9454 -1.9494 -16.5180 25.9711 -0.5775 -4.8663 13.5277 6.9921 1.2299 12.6112 0.6790 2.6501 1.0498 -3.6778 1.1368 -5.6845 -1.3739 -0.8242 -6.0244 1.2197 -0.9970 -4.0099 0.5789 -0.4776 -0.2239 -0.0000 -0.0000 0.0000 -83.3178 34.2583 38.8681 114.5306 -57.5995 -81.0729 -0.0000 0.0000 -29.2813 40.9124 8.3932 7.2093 -7.1250 0.0000 -0.0000 12.4263 40.7113 -1.3376 -0.0000 -0.0000 0.0000 77.0852 2.5646 43.0566 -120.5824 56.1527 -86.1431 0.0000 0.0000 1.0612 -49.6621 27.8861 -28.8448 7.1250 -0.0000 -0.0000 -10.8355 8.6672 -12.5547
-0.2642 18.3664 8.7174 -5.1478 -0.9842 4.1487 0.0000 0.0000 0.0000 -8.6855 -14.8210 -42.3503 12.1664 18.4601 66.5154 -0.1253 -7.8714 7.9550 0.4264 -4.1907 -11.6137 0.0000 0.0000 0.0000 29.5054 -2.4054 33.1889 0.0000 0.0000 -0.0000 -3.6091 -17.0338 34.7350 -0.6510 -5.1610 14.3682 7.4910 1.1882 11.4620 0.2912 2.5657 0.5717 -4.3201 1.0750 -5.5211 -0.9422 -0.9472 -5.3162 1.3534 -1.1927 -3.5460 0.5472 -0.5825 -0.1963 -0.0000 -0.0000 0.0000 -83.0239 35.7619 38.1651 116.2973 -57.2185 -82.5615 -0.0000 0.0000 -29.5096 41.4167 9.1446 7.9806 -7.1250 0.0000 -0.0000 12.9847 41.7334 -1.0662 -0.0000 -0.0000 0.0000 77.0806 0.9901 44.5637 -122.3298 55.6565 -87.5901 0.0000 0.0000 1.0675 -47.4449 25.8283 -25.3861 7.1250 -0.0000 -0.0000 -10.2000 5.1123 -11.2412
-0.2832 18.4837 9.8684 -5.1670 -0.8978 4.7809 0.0000 0.0000 0.0000 -8.4025 -15.9424 -41.3753 8.7930 16.6727 55.3715 -0.0457 -7.2095 9.1490 0.5911 -4.9222 -13.6869 0.0000 0.0000 0.0000 30.3676 -0.9377 34.4973 -0.0095 -0.6280 1.7258 -4.2482 -14.8965 37.5252 -2.0602 -8.9904 25.7652 7.2307 1.3685 11.0109 0.0934 2.7405 0.1796 -4.3995 1.1497 -5.6645 -0.9551 -1.0895 -5.8066 1.2984 -1.3825 -3.0748 0.5263 -0.6751 0.0285 -0.0000 0.0000 0.0000 -83.5174 36.4299 37.1114 118.3830 -56.7256 -84.3102 -0.0000 0.0000 -30.3005 40.5419 8.3816 7.1069 -7.1250 0.0000 -0.0000 12.0912 40.6543 -1.3175 -0.0000 0.0000 0.0000 76.8544 0.3024 45.9695 -122.0874 55.7276 -87.3899 0.0000 0.0000 1.5194 -47.5729 26.7168 -26.1920 7.1250 -0.0000 -0.0000 -10.0293 6.2463 -11.2260
-0.3102 18.4951 10.9656 -5.7687 -0.7474 4.5063 0.0000 0.0000 0.0000 -7.8068 -16.3759 -38.9307 5.9155 14.3460 44.6418 0.0526 -6.0681 9.9630 0.8115 -5.7485 -16.0564 0.0000 0.0000 0.0000 33.4455 1.5819 31.0652 -0.6904 -5.3121 14.8008 -3.1777 -11.1530 32.2039 -1.6356 -8.0619 22.9022 7.4431 1.4265 11.5823 0.1188 2.8962 0.1597 -4.5415 1.2058 -5.9790 -0.9470 -1.0509 -6.5504 1.2981 -1.3284 -2.6929 0.5226 -0.6450 0.2669 -0.0000 -0.0000 0.0000 -83.8798 36.0186 36.3625 119.9120 -56.3333 -85.5857 -0.0000 0.0000 -31.1905 43.9546 11.9262 11.2683 -7.1250 0.0000 -0.0000 15.8435 45.7114 0.2854 -0.0000 -0.0000 0.0000 76.8499 -0.5883 47.0378 -121.4792 55.9027 -86.8868 0.0000 0.0000 2.1153 -47.7959 27.0884 -26.6624 7.1250 -0.0000 -0.0000 -10.0490 6.7973 -11.3341
-0.3426 18.5004 12.0540 -6.9277 -3.0560 4.7147 0.0000 0.0000 0.0000 -6.5610 -14.9321 -36.3943 3.7650 11.8409 35.1715 0.1467 -3.6110 9.4877 0.5784 -4.8702 -13.5387 0.0000 0.0000 0.0000 35.3537 4.6801 30.0346 -1.6829 -8.1718 23.2372 -2.7646 -9.8377 29.9697 -1.4882 -7.7070 21.8277 7.3734 2.2563 12.0577 0.4055 4.0454 0.1720 -4.3982 1.7682 -6.1079 -1.0300 -1.0395 -6.7314 1.1174 -1.2987 -3.7216 0.4823 -0.6303 -0.0214 0.0000 0.0000 0.0000 -84.6534 34.5287 35.6915 120.5921 -56.1501 -86.1511 -0.0000 0.0000 -31.7482 46.4051 12.5998 12.9043 -7.1250 0.0000 -0.0000 18.4582 47.0619 0.9711 0.0000 0.0000 0.0000 76.7940 -1.4859 48.0873 -119.8844 56.3407 -85.5627 0.0000 0.0000 2.3144 -48.3802 26.2308 -26.4492 7.1250 -0.0000 -0.0000 -10.6070 6.0360 -11.8591
-0.3379 18.3972 13.1684 -6.5024 0.9213 3.9805 0.0000 0.0000 0.0000 -8.0799 -17.3859 -33.3138 2.4764 9.7948 28.3149 0.1496 -2.7920 8.8888 1.0982 -6.6591 -18.7094 0.0000 0.0000 0.0000 35.6605 1.2499 26.9434 -3.0445 -10.7668 31.4972 -2.6018 -9.7584 29.0445 -0.9490 -6.2041 17.3778 7.6695 0.8216 11.1756 0.3148 2.0586 0.9817 -4.3022 0.8559 -4.9843 -1.3747 -0.9292 -6.8702 1.5197 -1.1116 -4.8208 0.6684 -0.5301 -0.3316 -0.0000 0.0000 0.0000 -85.3993 32.0116 34.9964 120.3694 -56.2107 -85.9661 -0.0000 0.0000 -31.7629 45.6510 13.5371 13.4662 -7.1250 0.0000 -0.0000 17.9045 48.1425 1.4309 -0.0000 0.0000 0.0000 76.7726 -1.8043 48.6945 -116.7616 57.1129 -82.9516 0.0000 0.0000 2.0269 -50.4479 27.2279 -28.9865 7.1250 -0.0000 -0.0000 -11.4510 8.2750 -13.2284
-0.3818 18.3259 14.2400 -6.3838 1.2680 3.9413 0.0000 0.0000 0.0000 -9.4113 -15.7415 -31.4155 1.8012 8.4391 24.0559 0.1533 -1.3915 8.0425 1.2120 -6.9837 -19.6671 0.0000 0.0000 0.0000 35.4435 0.8877 23.3540 -4.9434 -13.3198 40.5778 -2.5792 -10.9694 28.9273 -0.9019 -6.0522 16.9359 6.7692 0.7333 11.1487 0.3094 1.8200 1.1545 -3.7631 0.7668 -4.8442 -1.1541 -0.8830 -5.5766 1.4211 -1.0617 -6.8515 0.6199 -0.5141 -1.1699 0.0000 0.0000 0.0000 -85.4851 29.6462 35.1438 120.5631 -56.1580 -86.1270 -0.0000 0.0000 -31.3895 42.5388 10.4485 9.4477 -7.1250 0.0000 -0.0000 14.2208 43.5652 -0.5146 0.0000 0.0000 0.0000 77.1572 -3.1377 48.8050 -113.1124 57.8821 -79.8736 0.0000 0.0000 0.8357 -47.7221 24.2425 -24.3036 7.1250 -0.0000 -0.0000 -10.7758 3.2907 -11.5785
-0.3899 18.2071 15.3157 -5.8131 0.4543 3.4032 0.0000 0.0000 0.0000 -11.7531 -12.8729 -28.8738 1.4360 7.5766 21.4352 0.1938 0.1060 8.2767 1.3473 -7.3485 -20.7521 0.0000 0.0000 0.0000 33.8442 0.9001 19.7484 -7.4852 -15.7273 50.6866 -2.7042 -12.5353 29.7018 -0.8625 -5.9219 16.5580 5.7787 0.9503 11.9805 -0.0132 2.0251 1.1133 -3.6030 0.8664 -5.3498 -1.1053 -0.7522 -5.2187 1.7705 -0.8778 -6.8258 0.7234 -0.4281 -1.2228 0.0000 0.0000 0.0000 -85.0918 27.2026 35.7852 120.4453 -56.1901 -86.0292 -0.0000 0.0000 -31.5584 41.8826 10.3568 9.1576 -7.1250 0.0000 -0.0000 13.5875 43.3504 -0.5642 0.0000 0.0000 0.0000 77.6115 -4.7955 48.3101 -107.3181 58.8359 -74.9393 0.0000 0.0000 0.7637 -47.2722 25.0420 -24.6201 7.1250 -0.0000 -0.0000 -10.3134 4.0752 -11.1979
-0.4011 18.0132 16.3890 -4.4799 0.6861 2.6639 0.0000 0.0000 0.0000 -15.1598 -9.9198 -27.3422 1.4910 7.7139 21.8483 0.1348 -3.9748 9.5485 0.6769 -5.2610 -14.6544 0.0000 0.0000 0.0000 31.0997 -0.3270 15.5901 -10.4245 -17.6418 60.8981 -2.5141 -14.1183 28.7894 -1.3362 -7.3194 20.6652 4.0751 0.7975 12.7095 -0.4236 1.6040 1.1692 -3.0270 0.6832 -5.7736 -0.8408 -0.5698 -4.5728 1.6905 -0.6496 -7.0337 0.6603 -0.3229 -1.4000 -0.0000 0.0000 0.0000 -84.5140 24.4536 36.7884 121.1043 -56.0084 -86.5761 -0.0000 0.0000 -32.4602 41.7363 11.2075 9.8368 -7.1250 0.0000 -0.0000 13.5685 44.4159 -0.1994 -0.0000 0.0000 0.0000 77.9671 -6.4222 47.7468 -100.7552 59.5584 -69.3005 0.0000 -0.0000 -0.0518 -47.4609 25.5757 -25.1959 7.1250 -0.0000 -0.0000 -10.2768 4.8121 -11.2791
-0.4170 17.8117 17.4673 -3.9396 1.4832 1.6834 0.0000 0.0000 0.0000 -17.0624 -8.2868 -25.9969 2.1755 9.2224 26.4935 -0.2507 -8.9525 4.8202 0.1285 -2.3103 -6.3640 0.0000 0.0000 0.0000 28.8910 -2.3110 11.3803 -13.4439 -18.9366 70.4986 -1.9255 -17.2353 26.0009 -1.3994 -7.4834 21.1556 2.9985 0.3863 13.4705 -0.4844 0.9257 1.3523 -2.3776 0.3726 -6.0728 -0.9939 -0.4124 -4.6999 2.1087 -0.4290 -6.1045 0.8104 -0.2107 -1.0900 0.0000 0.0000 0.0000 -84.0546 21.0158 38.1033 122.1536 -55.7082 -87.4446 -0.0000 0.0000 -33.7237 41.7185 11.8693 10.3910 -7.1250 0.0000 -0.0000 13.6423 45.2555 0.0877 0.0000 0.0000 0.0000 78.1565 -7.6618 47.2049 -93.4624 59.9547 -62.9981 0.0000 -0.0000 -0.4234 -48.6780 26.5672 -26.9623 7.1250 -0.0000 -0.0000 -10.6772 6.5874 -12.0314
-0.4063 17.6398 18.5295 -3.3770 2.6334 1.2727 0.0000 0.0000 0.0000 -18.4130 -9.1576 -24.8219 3.2985 11.1633 32.8327 -0.2570 -9.9638 -1.0352 0.0015 0.2505 0.6882 0.0000 0.0000 0.0000 26.1270 -4.2331 6.2286 -16.4528 -19.6956 79.5780 -1.3175 -19.2560 22.9853 -1.2451 -7.0751 19.9381 2.3682 -0.1941 13.7707 -0.6045 0.0620 1.6035 -1.9898 -0.0321 -6.0262 -1.4045 -0.3342 -5.2196 2.7153 -0.2924 -5.5976 1.0657 -0.1336 -0.8494 0.0000 0.0000 0.0000 -83.6032 16.5211 39.6580 123.5916 -55.2743 -88.6296 -0.0000 0.0000 -34.6040 38.7821 9.3252 7.4181 -7.1250 0.0000 -0.0000 10.5983 41.6376 -0.8901 0.0000 0.0000 0.0000 78.8959 -8.9316 45.7233 -86.8620 59.9628 -57.2827 0.0000 0.0000 1.0736 -48.9845 25.2926 -26.1610 7.1250 -0.0000 -0.0000 -11.1978 5.1730 -12.3916
-0.4023 17.5024 19.5203 -1.4598 2.8031 0.2974 0.0000 0.0000 0.0000 -21.1550 -9.7278 -21.9796 4.1900 12.4090 37.1946 0.0200 -8.9562 -6.6451 0.0351 -1.2099 -3.3266 0.0000 0.0000 0.0000 22.0300 -4.8526 1.7299 -19.4095 -19.9916 88.2732 -1.0298 -20.3000 21.6118 -1.5599 -7.8820 22.3561 0.1995 -0.2959 15.4186 -1.1471 -0.4347 2.1200 -1.2403 -0.2281 -6.4006 -1.8961 -0.3729 -5.5268 3.4175 -0.2845 -6.1059 1.3742 -0.1242 -0.9577 0.0000 0.0000 0.0000 -83.0541 10.8122 41.2791 124.7065 -54.9194 -89.5440 -0.0000 0.0000 -34.5358 40.7798 10.3192 8.7835 -7.1250 0.0000 -0.0000 12.5471 43.1451 -0.5842 0.0000 0.0000 0.0000 80.1903 -10.3182 43.2877 -81.6588 59.7355 -52.7828 0.0000 0.0000 2.7138 -49.1247 25.2416 -26.2304 7.1250 -0.0000 -0.0000 -11.2893 5.1769 -12.4975
-0.4344 17.4079 20.4582 1.8322 1.4783 0.8815 0.0000 0.0000 0.0000 -24.9657 -9.0842 -19.8842 4.6094 12.9299 39.1068 0.3084 -8.9941 -10.9432 0.1029 -2.0683 -5.6946 0.0000 0.0000 0.0000 16.7873 -2.2556 -5.6069 -22.2895 -19.8739 96.7075 -1.2950 -19.0504 22.7708 -1.7679 -8.3649 23.8280 -3.8046 0.5210 15.9461 -2.0257 -0.1143 2.1242 0.0240 0.0167 -6.6734 -2.3812 -0.6593 -4.6574 4.2485 -0.5655 -8.2914 1.7498 -0.2818 -1.7928 0.0000 -0.0000 0.0000 -82.1127 4.4905 43.0911 125.3255 -54.7152 -90.0499 -0.0000 0.0000 -34.2644 41.2621 11.1402 9.6210 -7.1250 0.0000 -0.0000 13.1059 44.2569 -0.2447 0.0000 -0.0000 0.0000 81.5671 -12.4518 40.1554 -77.6882 59.4194 -49.3584 0.0000 0.0000 4.4883 -49.7939 25.3651 -26.8766 7.1250 -0.0000 -0.0000 -11.6240 5.6552 -12.9711
-0.4141 17.3683 21.4163 1.0262 1.0344 1.4726 0.0000 0.0000 0.0000 -24.4565 -8.6283 -17.0168 4.7325 13.0760 39.6537 0.5413 -9.0590 -13.6559 0.1804 -2.7356 -7.5435 0.0000 0.0000 0.0000 17.0467 -0.1367 -12.6567 -24.0996 -19.5922 102.0651 -1.3050 -17.8306 22.4020 -2.6963 -10.1864 29.5824 -2.8273 0.3788 15.9628 -1.8154 -0.1225 2.0313 -0.3035 -0.0081 -6.7834 -2.5574 -0.6879 -4.2665 4.0031 -0.5902 -9.4750 1.7192 -0.2938 -2.2469 0.0000 0.0000 0.0000 -81.5320 -1.4973 44.7791 125.1409 -54.7767 -89.8992 -0.0000 0.0000 -32.3873 40.8474 11.5746 9.8418 -7.1250 0.0000 -0.0000 12.7626 44.7424 -0.0825 0.0000 0.0000 0.0000 82.5325 -14.7532 37.6575 -74.3877 59.0587 -46.5220 0.0000 0.0000 5.1258 -50.5250 24.2644 -26.5175 7.1250 -0.0000 -0.0000 -12.3311 4.6386 -13.5958
-0.4025 17.3827 22.3705 0.7336 0.4056 1.9758 0.0000 0.0000 0.0000 -24.6165 -7.3836 -13.8486 4.6478 12.9758 39.2780 0.6675 -8.7016 -14.8852 0.3030 -3.5392 -9.7836 0.0000 0.0000 0.0000 16.8354 2.1055 -19.0730 -25.0954 -19.3658 105.0510 -1.1803 -16.3788 21.0980 -2.0686 -9.0074 25.8186 -2.4190 0.1529 15.6661 -1.8364 -0.3393 2.0744 -0.5091 -0.1265 -6.5731 -2.2759 -0.2481 -3.7388 3.6917 -0.0119 -10.4674 1.5801 -0.0172 -2.6902 -0.0000 -0.0000 0.0000 -81.1638 -6.6884 45.1720 125.6662 -54.6006 -90.3278 -0.0000 0.0000 -30.8809 40.3241 9.2841 7.7973 -7.1250 0.0000 -0.0000 12.0019 41.7738 -0.9706 -0.0000 -0.0000 0.0000 83.2677 -16.6247 36.3004 -73.5095 58.9471 -45.7693 0.0000 0.0000 2.7862 -51.5894 24.6525 -27.7473 7.1250 -0.0000 -0.0000 -12.8085 5.6725 -14.3595
-0.3846 17.4510 23.3565 0.9337 -0.7649 2.0299 0.0000 0.0000 0.0000 -25.4448 -5.2868 -9.5278 4.2841 12.5291 37.6305 0.6496 -8.6349 -14.6919 0.7920 -5.6809 -15.8612 0.0000 0.0000 0.0000 16.3138 5.0879 -24.1330 -25.3742 -19.2930 105.8931 -1.0349 -14.7723 19.5601 -1.1076 -6.6866 18.7902 -2.5131 -0.0458 15.7447 -1.9449 -0.6283 2.1197 -0.5103 -0.2668 -6.5658 -2.2511 0.0589 -4.6573 3.5608 0.3835 -9.7402 1.5168 0.1918 -2.2966 0.0000 -0.0000 0.0000 -80.9634 -10.1874 44.4951 127.4682 -53.9669 -91.7910 -0.0000 0.0000 -28.8683 38.9572 11.0088 8.7772 -7.1250 0.0000 -0.0000 10.9074 43.7532 -0.3399 0.0000 -0.0000 0.0000 83.3333 -18.2320 36.2132 -74.2141 59.0372 -46.3732 0.0000 -0.0000 -0.5501 -51.8345 24.8063 -28.0940 7.1250 -0.0000 -0.0000 -12.8991 5.9961 -14.5319
-0.3877 17.5973 24.3575 2.1182 -0.2726 2.7575 0.0000 0.0000 0.0000 -27.1493 -4.8602 -5.1653 3.6919 11.7388 34.8140 0.4301 -7.8645 -12.1154 1.1130 -6.7023 -18.8365 0.0000 0.0000 0.0000 14.3884 6.2869 -29.8935 -24.9567 -19.4005 104.6328 -0.7203 -12.2045 16.2531 -0.7401 -5.4958 15.3282 -3.6813 -0.8111 15.4989 -2.0920 -1.8478 1.7588 0.2466 -0.8261 -6.7731 -2.0602 0.6863 -5.5525 3.0249 1.1681 -8.5360 1.2985 0.5978 -1.7654 -0.0000 0.0000 0.0000 -81.0145 -12.3797 43.6222 129.8224 -53.0669 -93.6839 -0.0000 0.0000 -27.8587 37.9021 8.8115 6.8010 -7.1250 0.0000 -0.0000 9.7587 40.8996 -0.9975 -0.0000 0.0000 0.0000 82.8472 -20.0446 36.8384 -75.4542 59.1852 -47.4374 0.0000 -0.0000 -2.5038 -52.1511 24.5497 -28.1332 7.1250 -0.0000 -0.0000 -13.1447 5.8384 -14.7906
-0.3918 17.7956 25.3903 2.6004 0.9980 2.8968 0.0000 0.0000 0.0000 -27.7759 -4.0226 0.1204 2.9907 10.6800 31.2080 0.1639 -6.7200 -8.0300 1.7235 -8.2648 -23.5213 0.0000 0.0000 0.0000 13.5896 6.5975 -33.8551 -23.7274 -19.6636 100.9572 -0.7261 -10.9278 15.9429 -0.6468 -5.1446 14.3215 -3.9795 -1.7608 15.8099 -1.8979 -3.1746 1.2867 0.9153 -1.4403 -7.3856 -1.8841 1.1500 -5.4870 2.2978 1.7230 -7.6014 1.0344 0.8809 -1.4802 -0.0000 -0.0000 0.0000 -81.2680 -13.5064 43.4332 132.2500 -52.0467 -95.6115 -0.0000 0.0000 -26.3793 37.9851 7.0705 5.4903 -7.1250 0.0000 -0.0000 9.6893 38.7507 -1.5083 -0.0000 -0.0000 0.0000 82.0720 -22.5501 37.2091 -76.9583 59.3475 -48.7303 0.0000 -0.0000 -2.5920 -52.4129 25.0314 -28.7967 7.1250 -0.0000 -0.0000 -13.1501 6.5911 -14.9511
-0.4144 18.0045 26.4525 2.6481 1.5634 3.2707 0.0000 0.0000 0.0000 -27.5851 -3.0391 4.2878 2.4006 9.6548 27.8659 -0.0666 -5.9601 -1.8990 1.7262 -8.2708 -23.5397 0.0000 0.0000 0.0000 13.4971 7.4701 -36.7828 -21.9753 -19.9062 95.7840 -0.5098 -9.5935 13.4596 -0.7723 -5.6114 15.6611 -4.4985 -2.5851 15.3122 -1.3560 -4.2958 0.9874 1.9992 -1.9574 -7.3034 -1.6062 1.5489 -4.7869 1.2304 2.1806 -7.7912 0.6484 1.1116 -1.6490 0.0000 0.0000 0.0000 -81.5674 -14.2698 43.0285 134.9124 -50.8113 -97.6933 -0.0000 0.0000 -25.2273 39.3363 6.7733 5.5210 -7.1250 0.0000 -0.0000 10.8383 38.4963 -1.7606 0.0000 0.0000 0.0000 80.5429 -24.2486 38.4006 -77.9724 59.4463 -49.6031 0.0000 -0.0000 -2.4624 -52.6171 25.1170 -29.0532 7.1250 -0.0000 -0.0000 -13.2364 6.8109 -15.0992
-0.4573 18.2230 27.5400 2.5151 1.7536 3.7670 0.0000 0.0000 0.0000 -26.9650 -2.0010 7.9424 1.8625 8.5735 24.4700 0.0135 -3.9884 6.2254 1.4062 -7.5009 -21.2081 0.0000 0.0000 0.0000 13.7793 8.9658 -39.1554 -19.7445 -19.9984 89.2531 -0.2820 -8.6633 10.4850 -0.7164 -5.4088 15.0784 -4.9219 -3.0778 14.7258 -0.8393 -4.9644 0.5630 2.8935 -2.2544 -7.3091 -1.6912 1.8385 -4.6239 0.8407 2.5441 -7.4209 0.5401 1.2992 -1.5588 -0.0000 0.0000 0.0000 -81.6058 -14.8226 42.9519 136.8602 -49.8239 -99.1925 -0.0000 0.0000 -26.0319 39.1698 4.4680 3.6315 -7.1250 0.0000 -0.0000 10.4397 35.5720 -2.4520 -0.0000 0.0000 0.0000 79.4998 -26.5974 38.8562 -79.7838 59.6019 -51.1644 0.0000 -0.0000 -2.1192 -52.3602 25.0590 -28.7757 7.1250 -0.0000 -0.0000 -13.1136 6.5975 -14.9086
-0.4726 18.4247 28.6397 2.0256 1.4990 4.1258 0.0000 0.0000 0.0000 -26.2067 -1.2370 11.8869 1.3100 7.2500 20.4581 0.5780 0.3134 14.2601 1.2579 -7.1099 -20.0413 0.0000 0.0000 0.0000 14.3003 10.6221 -40.5042 -17.0764 -19.7938 81.4238 -0.1349 -8.9176 8.5158 -0.5928 -4.9294 13.7073 -4.5571 -3.4011 14.1939 -0.4061 -5.2833 0.2568 3.1843 -2.4121 -7.3058 -1.5684 2.0316 -4.7363 0.5055 2.7811 -7.0716 0.4180 1.4175 -1.4242 -0.0000 -0.0000 0.0000 -81.5018 -15.1901 43.6346 139.0288 -48.6349 -100.8350 -0.0000 0.0000 -27.0626 39.8187 4.5648 3.7962 -7.1250 0.0000 -0.0000 10.9945 35.7305 -2.5430 -0.0000 -0.0000 0.0000 78.8727 -28.6109 38.6628 -80.7889 59.6770 -52.0316 0.0000 -0.0000 -2.1272 -51.3350 24.7969 -27.6615 7.1250 -0.0000 -0.0000 -12.6285 5.7228 -14.1579
-0.4846 18.6023 29.7478 1.5707 0.4668 4.7278 0.0000 0.0000 0.0000 -25.6130 0.0781 15.5038 0.8016 5.7142 15.9573 1.4435 5.8937 21.5509 0.6193 -5.0363 -14.0123 0.0000 0.0000 0.0000 14.5422 12.8392 -41.4632 -14.1743 -19.1661 72.7362 -0.0139 -9.5306 6.9217 -0.6282 -5.0715 14.1125 -4.3544 -3.3351 13.0642 0.0099 -5.0900 -0.0908 3.4055 -2.3262 -7.0384 -1.4275 2.1287 -4.3795 0.0126 2.8782 -6.6551 0.2411 1.4668 -1.3423 0.0000 0.0000 0.0000 -81.3831 -15.0967 44.8901 141.2540 -47.3092 -102.4881 -0.0000 0.0000 -27.6881 40.5795 7.0448 5.9966 -7.1250 0.0000 -0.0000 11.9568 38.9533 -1.8117 0.0000 0.0000 0.0000 78.6353 -30.8408 38.0394 -81.8908 59.7501 -52.9831 0.0000 -0.0000 -2.1975 -50.7712 24.9244 -27.3021 7.1250 -0.0000 -0.0000 -12.2836 5.5940 -13.7282
-0.4764 18.7465 30.8441 1.4439 -0.5994 5.1752 0.0000 0.0000 0.0000 -25.4051 1.7295 19.9258 0.3535 3.8200 10.5707 2.5868 11.5113 28.9902 0.0907 -1.9422 -5.3458 0.0000 0.0000 0.0000 14.3190 14.7083 -41.6015 -11.1692 -18.0169 63.3299 0.0107 -9.2852 6.3146 -0.4235 -4.1767 11.5743 -4.0312 -3.2505 12.6840 0.1859 -4.9124 -0.4810 3.3704 -2.2359 -7.2683 -1.1835 2.2817 -5.2226 -0.4353 3.0747 -5.2688 0.0845 1.5569 -0.7620 -0.0000 -0.0000 0.0000 -81.0010 -14.9931 46.1886 142.7980 -46.3220 -103.6140 -0.0000 0.0000 -26.9896 41.0633 8.8856 7.6643 -7.1250 0.0000 -0.0000 12.6271 41.3580 -1.1549 -0.0000 -0.0000 0.0000 78.4813 -32.9620 37.4546 -84.0037 59.8637 -54.8094 0.0000 -0.0000 -3.0638 -50.6581 24.5845 -26.9095 7.1250 -0.0000 -0.0000 -12.3161 5.1093 -13.6715
-0.4690 18.8941 31.9655 1.7301 -1.6268 5.5137 0.0000 0.0000 0.0000 -25.5026 3.4099 24.6962 0.0722 1.7333 4.7690 3.6608 14.5304 34.7524 0.0438 -1.3507 -3.7143 0.0000 0.0000 0.0000 13.6843 16.2737 -40.6415 -8.2414 -16.2940 53.4277 0.0010 -8.6717 6.0580 -0.1871 -2.7861 7.6837 -3.8676 -3.1040 12.6352 0.0647 -4.7225 -1.1376 3.1445 -2.1201 -7.9872 -0.9871 2.2861 -5.5568 -0.5577 3.0824 -3.8841 0.0309 1.5505 -0.2834 -0.0000 0.0000 0.0000 -80.3415 -14.1152 47.7583 144.1845 -45.3857 -104.6090 -0.0000 0.0000 -25.3842 39.4506 9.4440 7.6897 -7.1250 0.0000 -0.0000 11.2200 41.8671 -0.8794 -0.0000 0.0000 0.0000 78.7107 -35.5150 36.7051 -84.7604 59.8960 -55.4639 0.0000 -0.0000 -3.9603 -50.5783 25.3994 -27.5546 7.1250 -0.0000 -0.0000 -12.0448 6.0903 -13.5432
-0.4591 18.9954 33.0736 2.0540 -2.4963 5.4865 0.0000 0.0000 0.0000 -25.7299 4.9964 29.4710 0.0000 -0.0000 -0.0000 4.4462 13.5888 38.3795 0.0385 -1.2659 -3.4807 0.0000 0.0000 0.0000 13.0561 17.6216 -38.7104 -5.6051 -14.0345 43.3756 -0.0323 -8.7836 6.7528 -0.0175 -0.8543 2.3479 -3.5429 -2.9771 13.1422 -0.1475 -4.5712 -1.9674 2.7814 -2.0164 -9.2362 -1.0233 2.4190 -4.7582 -0.3695 3.2599 -3.3185 0.0894 1.6387 -0.2441 0.0000 -0.0000 0.0000 -79.9561 -11.7828 49.1324 145.2203 -44.6542 -105.3417 -0.0000 0.0000 -23.0609 39.2233 8.7916 7.1113 -7.1250 0.0000 -0.0000 10.9481 41.0226 -1.0886 0.0000 -0.0000 0.0000 79.0487 -38.2967 36.1965 -86.1980 59.9453 -56.7080 0.0000 -0.0000 -4.7266 -51.2066 25.5218 -28.1913 7.1250 -0.0000 -0.0000 -12.3534 6.5665 -13.9973
-0.4611 19.0280 34.1702 2.7858 -3.0487 5.3743 0.0000 0.0000 0.0000 -27.3860 5.1065 30.3344 0.0428 1.3358 3.6732 4.0362 10.2539 36.5157 0.2066 -2.9265 -8.0743 0.0000 0.0000 0.0000 11.7245 19.3749 -36.4445 -3.5802 -11.5798 34.2613 -0.0327 -10.2017 7.6758 -0.0148 0.7845 -2.1562 -3.8591 -2.9090 12.2621 -0.4136 -4.4963 -1.4666 2.5801 -2.0128 -8.1879 -1.3585 2.4748 -5.5899 -0.0182 3.3647 -3.4838 0.2611 1.6952 -0.1725 0.0000 -0.0000 0.0000 -79.6614 -11.1540 50.0002 145.5137 -44.4418 -105.5475 -0.0000 0.0000 -20.3950 39.4967 6.0257 4.9451 -7.1250 0.0000 -0.0000 10.8941 37.5647 -2.0227 0.0000 -0.0000 0.0000 79.5093 -38.3117 35.6207 -87.1106 59.9684 -57.4980 0.0000 -0.0000 -5.0850 -51.5158 25.1858 -28.1601 7.1250 -0.0000 -0.0000 -12.6175 6.3072 -14.2602
-0.4550 19.0201 35.2510 4.2746 -3.6517 5.0140 0.0000 0.0000 0.0000 -30.5488 4.3584 28.3306 0.5213 4.6274 12.8489 3.2442 8.0643 32.6675 0.3845 -3.9822 -11.0266 0.0000 0.0000 0.0000 9.5932 21.3277 -34.0345 -2.2799 -9.4262 27.1379 0.2139 -12.9445 5.9931 -0.0017 0.2667 -0.7329 -4.8373 -2.7466 12.0249 -0.9257 -4.4467 -1.2750 2.5509 -1.9720 -7.8198 -1.6260 2.4495 -5.6250 0.1582 3.3467 -3.8441 0.3550 1.6912 -0.2832 0.0000 -0.0000 0.0000 -79.2792 -10.0920 50.4556 145.1026 -44.7388 -105.2589 -0.0000 0.0000 -17.5519 40.1283 3.2290 2.7183 -7.1250 0.0000 -0.0000 11.0816 34.0376 -3.0281 0.0000 -0.0000 0.0000 79.9971 -38.4877 35.2630 -89.2496 59.9979 -59.3502 0.0000 -0.0000 -5.9164 -51.5773 24.7007 -27.7804 7.1250 -0.0000 -0.0000 -12.7883 5.7273 -14.3469
-0.4437 18.9711 36.3182 4.7291 -4.3448 4.6629 0.0000 0.0000 0.0000 -32.5255 3.4704 25.7453 1.6216 8.0289 22.8018 2.8584 6.6947 30.6846 0.5200 -4.6216 -12.8323 0.0000 0.0000 0.0000 10.3104 19.7355 -32.4912 -1.5206 -7.7867 22.0681 0.3914 -13.9467 4.0412 -0.0001 0.0622 -0.1709 -4.1939 -2.5655 11.4303 -1.5581 -4.1181 -1.0463 1.4270 -1.8721 -7.3502 -1.8820 2.4005 -4.2653 0.6917 3.2810 -5.2457 0.5319 1.6655 -0.9461 -0.0000 -0.0000 0.0000 -78.6976 -7.6887 50.8798 144.4824 -45.1782 -104.8207 -0.0000 0.0000 -15.4488 39.4554 1.7285 1.4221 -7.1250 0.0000 -0.0000 10.3444 32.1034 -3.3122 -0.0000 -0.0000 0.0000 81.0655 -38.3993 34.9322 -91.2225 59.9944 -61.0587 0.0000 -0.0000 -6.2847 -51.3954 23.3509 -26.4012 7.1250 -0.0000 -0.0000 -13.0635 3.9101 -14.2899
-0.4230 18.8851 37.3854 4.2262 -4.6528 4.0247 0.0000 0.0000 0.0000 -32.5405 3.8829 22.5707 3.4421 11.3784 33.5671 2.8402 6.1249 30.6469 0.2901 -3.4639 -9.5732 0.0000 0.0000 0.0000 12.6259 17.6429 -30.2636 -1.1168 -6.7135 18.8692 0.6533 -16.5339 3.0751 -0.0023 -0.3117 0.8564 -3.7494 -2.4754 10.8869 -1.0353 -3.8282 0.0543 1.6190 -1.7866 -5.8750 -2.2752 2.3469 -6.3764 0.1669 3.2551 -4.9392 0.4641 1.6604 -0.5060 -0.0000 -0.0000 0.0000 -79.5749 -6.6380 50.6980 143.0322 -46.1672 -103.7832 -0.0000 0.0000 -14.8866 39.2490 3.1463 2.5676 -7.1250 0.0000 -0.0000 10.3513 33.9009 -2.8576 -0.0000 -0.0000 0.0000 80.3707 -35.8631 35.0824 -91.6111 59.9902 -61.3952 0.0000 -0.0000 -6.4153 -51.7054 23.8036 -27.0738 7.1250 -0.0000 -0.0000 -13.1096 4.6506 -14.5010
-0.4215 18.7431 38.4392 3.7814 -5.6128 3.5322 0.0000 0.0000 0.0000 -32.0400 5.0258 18.3087 5.9843 14.4131 44.9186 3.0200 6.3274 31.6275 0.0935 -1.9725 -5.4296 0.0000 0.0000 0.0000 15.2323 15.9367 -27.5475 -0.8453 -5.8643 16.3911 0.6671 -17.1746 3.8810 -0.1124 2.1620 -5.9535 -3.1746 -2.1709 10.8092 -0.8983 -3.3352 0.2055 1.3593 -1.5642 -5.7201 -2.4612 2.2809 -4.8801 -0.1443 3.1201 -6.1943 0.3717 1.6078 -1.1324 0.0000 -0.0000 0.0000 -80.0375 -3.3285 50.0411 141.1592 -47.3679 -102.4185 -0.0000 0.0000 -15.2388 38.7343 1.7833 1.4299 -7.1250 0.0000 -0.0000 9.7737 32.1629 -3.1104 0.0000 -0.0000 0.0000 79.7421 -34.4943 36.0162 -92.8596 59.9691 -62.4762 0.0000 -0.0000 -6.8124 -51.5463 24.4118 -27.4944 7.1250 -0.0000 -0.0000 -12.8525 5.3446 -14.3447
-0.4246 18.5488 39.4982 2.3476 -6.9888 2.6289 0.0000 0.0000 0.0000 -30.0513 7.0574 14.3337 9.1096 16.8777 56.4684 2.9712 7.4190 31.2438 0.2332 -3.1079 -8.5793 0.0000 0.0000 0.0000 18.8392 14.2267 -23.8100 -0.6972 -5.3373 14.8732 0.1672 -15.1223 8.6655 -0.2474 3.2004 -8.8371 -1.6867 -1.7242 10.7014 -0.6051 -2.5262 0.8158 0.6931 -1.2145 -5.1016 -2.4687 2.3352 -4.1784 -0.2821 3.1630 -6.8334 0.3184 1.6369 -1.4489 -0.0000 0.0000 0.0000 -80.3368 -0.8303 48.9913 138.5199 -48.9228 -100.4522 -0.0000 0.0000 -16.4218 38.5929 2.6602 2.1214 -7.1250 0.0000 -0.0000 9.7601 33.2662 -2.8423 -0.0000 0.0000 0.0000 79.1063 -32.1054 37.0986 -94.1675 59.9343 -63.6083 0.0000 -0.0000 -7.0354 -51.5859 23.8548 -27.0213 7.1250 -0.0000 -0.0000 -13.0295 4.6546 -14.4086
-0.4329 18.2946 40.5402 1.8687 -7.2835 1.4497 0.0000 0.0000 0.0000 -28.2228 8.5920 10.7290 12.6558 18.6543 68.0530 2.7124 10.1864 29.6734 0.2312 -3.0945 -8.5419 0.0000 0.0000 0.0000 20.8049 11.3826 -21.4135 -0.8705 -5.9489 16.6362 -0.4302 -9.4361 12.5407 -0.1344 -2.3633 6.5107 -1.0553 -1.5901 11.1744 -0.5385 -2.2721 1.1480 0.3795 -1.1039 -5.0442 -2.3763 2.2977 -3.7184 -0.1794 3.1059 -6.6006 0.3311 1.6038 -1.4522 -0.0000 -0.0000 0.0000 -80.7867 2.2828 47.6289 135.4008 -50.5706 -98.0712 -0.0000 0.0000 -18.1322 38.8230 4.8511 3.8929 -7.1250 0.0000 -0.0000 10.1912 36.0360 -2.2750 -0.0000 -0.0000 0.0000 78.4890 -29.8115 38.3065 -95.8634 59.8697 -65.0756 0.0000 -0.0000 -7.0288 -51.4182 24.7945 -27.7296 7.1250 -0.0000 -0.0000 -12.6748 5.7630 -14.2204
-0.4631 18.0429 41.5765 1.3172 -6.9264 0.3025 0.0000 0.0000 0.0000 -25.2503 9.8073 6.9621 16.4086 19.6879 79.4468 2.2296 12.1037 26.9466 0.1884 -2.7952 -7.7090 0.0000 0.0000 0.0000 22.4160 9.2390 -19.7575 -1.4764 -7.6776 21.7392 -0.0867 0.1292 5.6093 -0.6217 -5.0459 14.0395 -0.5386 -1.6007 12.3156 -0.4136 -2.2229 1.3421 0.2437 -1.0859 -5.4902 -2.3932 2.2215 -4.3002 0.3354 3.0478 -5.4837 0.5053 1.5621 -1.0134 0.0000 0.0000 0.0000 -81.0750 5.4399 46.2695 131.7892 -52.2479 -95.2477 -0.0000 0.0000 -20.2669 38.9607 5.0653 4.0838 -7.1250 0.0000 -0.0000 10.3305 36.3142 -2.2358 0.0000 0.0000 0.0000 78.0181 -26.9512 39.2592 -98.2721 59.7399 -67.1576 0.0000 -0.0000 -6.9688 -50.5361 24.4779 -26.7153 7.1250 -0.0000 -0.0000 -12.2784 4.9137 -13.5893
-0.5063 17.7787 42.5673 0.4533 -6.5615 -0.5318 0.0000 0.0000 0.0000 -21.7277 10.3343 2.5214 20.0836 19.9998 90.2446 1.8464 13.0750 24.7012 0.0499 -1.4410 -3.9630 0.0000 0.0000 0.0000 23.9648 9.8670 -17.7829 -2.3510 -9.5618 27.5689 -0.0237 -0.3247 -3.0443 -0.4192 -4.1556 11.5147 0.0991 -1.4915 13.2672 -0.1665 -1.9762 1.3340 0.1288 -0.9736 -6.0414 -2.5481 1.9725 -3.3830 0.7980 2.7148 -5.2447 0.6658 1.3928 -1.0969 -0.0000 -0.0000 0.0000 -81.3773 8.5935 44.9874 127.4263 -53.9822 -91.7571 -0.0000 0.0000 -21.3963 38.6615 4.9042 3.9127 -7.1250 0.0000 -0.0000 10.0609 36.0934 -2.2309 -0.0000 -0.0000 0.0000 78.0549 -24.1508 39.6343 -101.6932 59.4770 -70.1088 0.0000 -0.0000 -6.1514 -49.9425 23.6398 -25.4966 7.1250 -0.0000 -0.0000 -12.1781 3.5626 -13.2056
-0.5474 17.5711 43.5617 -0.5694 -6.2621 -1.5360 0.0000 0.0000 0.0000 -18.0297 10.5757 -1.6373 23.2992 19.7370 99.6870 1.7916 10.5970 24.0723 0.0375 -1.2496 -3.4359 0.0000 0.0000 0.0000 25.9233 9.2907 -15.1697 -3.0799 -10.8233 31.6864 -0.2111 -1.4291 -9.3233 -0.3099 -3.5786 9.8941 0.8037 -1.3949 14.7664 0.2152 -1.7040 1.4621 0.1194 -0.8514 -6.7457 -1.6406 2.2180 -3.2346 -0.2463 2.9817 -5.3367 0.1919 1.5204 -1.1199 0.0000 -0.0000 0.0000 -82.0834 11.4755 43.3030 122.8259 -55.5087 -87.9994 -0.0000 0.0000 -22.5192 38.7169 7.1117 5.6678 -7.1250 0.0000 -0.0000 10.3326 38.8669 -1.5810 0.0000 -0.0000 0.0000 78.1402 -20.3339 39.8828 -103.7373 59.2748 -71.8679 0.0000 -0.0000 -5.1249 -50.1094 24.0943 -26.0315 7.1250 -0.0000 -0.0000 -12.1477 4.2189 -13.3018
-0.5800 17.3690 44.3975 -6.6257 -6.7038 -0.1984 0.0000 0.0000 0.0000 -7.5312 10.4013 -9.6523 26.4825 18.9611 109.2747 1.9774 5.5740 25.4122 0.0354 -1.2149 -3.3403 0.0000 0.0000 0.0000 33.0158 10.1563 -13.7450 -3.5735 -11.5701 34.2277 -0.3842 -2.3951 -12.8327 -0.0902 -1.9365 5.3302 6.2257 -1.4545 15.5953 2.1042 -0.7020 1.5973 -1.1249 -0.4949 -7.0978 -1.3773 2.3488 -4.0547 -1.0307 3.1241 -6.3472 -0.0885 1.5999 -1.2822 -0.0000 0.0000 0.0000 -83.0933 12.6725 41.3339 117.2064 -57.0095 -83.3249 -0.0000 0.0000 -24.0001 38.8607 8.4370 6.7424 -7.1250 0.0000 -0.0000 10.5875 40.5387 -1.1797 -0.0000 0.0000 0.0000 78.0876 -14.6430 39.8720 -106.0887 58.9990 -73.8864 0.0000 -0.0000 -5.1872 -49.7268 23.9447 -25.5955 7.1250 -0.0000 -0.0000 -11.9757 3.8450 -13.0319
-0.5722 17.2791 45.3661 -6.7082 -6.1018 0.0023 0.0000 0.0000 0.0000 -6.9970 8.8357 -15.3870 28.0723 18.3599 114.2406 1.8180 2.1987 24.9046 0.0810 -1.8355 -5.0513 0.0000 0.0000 0.0000 32.8636 8.4434 -11.6934 -3.9423 -12.0832 36.0271 -0.6642 -1.2647 -15.9041 -0.0033 0.3700 -1.0166 6.3399 -1.4717 15.4770 2.2572 -0.6946 1.4474 -1.0265 -0.4968 -7.1935 -1.1967 2.4682 -3.1563 -1.4695 3.2250 -7.7580 -0.2809 1.6661 -1.8750 0.0000 0.0000 0.0000 -84.2311 15.5914 39.1246 112.2988 -58.0352 -79.1839 -0.0000 0.0000 -26.7498 38.6298 8.8228 6.9879 -7.1250 0.0000 -0.0000 10.4153 40.9944 -1.0416 0.0000 0.0000 0.0000 77.9078 -10.4635 40.4233 -108.3613 58.6870 -75.8312 0.0000 -0.0000 -5.5806 -49.0520 24.0655 -25.1715 7.1250 -0.0000 -0.0000 -11.5672 3.6773 -12.5368
-0.6061 17.2215 46.2064 -6.4940 -5.2682 0.2521 0.0000 0.0000 0.0000 -6.7598 6.2235 -22.8666 29.1526 17.8596 117.7151 1.6256 -1.1087 24.5276 0.1917 -2.8195 -7.7765 0.0000 0.0000 0.0000 32.7671 8.0766 -9.7235 -4.2184 -12.4455 37.3268 -0.8012 -1.2415 -17.4022 -0.0808 1.8338 -5.0467 5.7589 -1.0735 15.5189 2.4198 -0.2426 1.2870 -0.6212 -0.2632 -7.3568 -1.3196 1.7319 -1.4531 -1.9149 2.1615 -8.9059 -0.4225 1.1674 -2.5521 -0.0000 0.0000 0.0000 -85.1195 17.9106 38.1687 108.8407 -58.6153 -76.2406 -0.0000 0.0000 -30.4309 38.8811 9.5755 7.6398 -7.1250 0.0000 -0.0000 10.7113 41.9614 -0.8132 -0.0000 0.0000 0.0000 78.1810 -6.5706 39.5016 -111.0980 58.2494 -78.1640 0.0000 -0.0000 -5.5903 -48.3818 24.1714 -24.7449 7.1250 -0.0000 -0.0000 -11.1643 3.4999 -12.0505
-0.5997 17.2337 47.1677 -5.8684 -5.0105 0.5093 0.0000 0.0000 0.0000 -8.5025 3.3950 -28.1146 29.2463 17.8124 118.0210 1.3324 -2.9163 23.0281 0.2051 -2.9158 -8.0444 0.0000 0.0000 0.0000 32.0272 7.2312 -6.4423 -4.2561 -12.4936 37.5013 -0.8450 -0.7014 -17.6367 -0.2390 3.1465 -8.6868 4.9185 -0.5339 14.4533 2.3942 0.2320 1.5956 -0.2879 0.0136 -6.4098 -1.2705 1.4546 -1.2063 -2.0215 1.7664 -9.5429 -0.4664 0.9804 -2.8113 0.0000 0.0000 0.0000 -85.8224 19.5874 37.5790 106.8482 -58.8998 -74.5371 -0.0000 0.0000 -33.7265 39.4315 5.8564 4.7963 -7.1250 0.0000 -0.0000 10.8189 37.3455 -2.0673 0.0000 0.0000 0.0000 78.1421 -2.7393 39.0367 -114.9961 57.5022 -81.4657 0.0000 -0.0000 -4.9535 -47.5068 23.8392 -23.8062 7.1250 -0.0000 -0.0000 -10.7597 2.6949 -11.4538
-0.5948 17.3074 48.0459 -7.1929 -5.6348 1.0705 0.0000 0.0000 0.0000 -6.7560 1.6671 -34.5212 28.9586 17.9553 117.0841 1.1155 -4.8921 22.2779 0.6041 -4.9753 -13.8382 0.0000 0.0000 0.0000 33.6111 7.3746 -3.0146 -4.0223 -12.1900 36.4075 -0.6678 -0.7611 -15.7324 -0.3966 4.0433 -11.1984 5.9573 0.1460 15.0175 2.5663 1.3349 1.8748 -0.9104 0.5305 -6.3577 -0.6188 1.2713 -3.9979 -1.9739 1.5893 -8.4581 -0.5215 0.8470 -1.9501 -0.0000 -0.0000 0.0000 -85.7180 20.1118 37.4173 106.1336 -58.9933 -73.9248 -0.0000 0.0000 -34.1830 39.7286 3.9934 3.3124 -7.1250 0.0000 -0.0000 10.8491 34.9976 -2.7052 -0.0000 -0.0000 0.0000 78.9172 1.2329 38.1360 -119.0413 56.5600 -84.8600 0.0000 -0.0000 -3.8534 -47.1542 23.7398 -23.4635 7.1250 -0.0000 -0.0000 -10.5862 2.4181 -11.2134
-0.5842 17.4566 49.0777 -7.6051 -5.6649 0.6695 0.0000 0.0000 0.0000 -7.1227 -0.9624 -36.9562 27.8012 18.4734 113.3826 0.7964 -6.7078 20.5919 0.1453 -2.4561 -6.7679 0.0000 0.0000 0.0000 33.9391 5.6008 2.0331 -3.5336 -11.5125 34.0284 -0.4029 -0.8467 -12.3273 -0.6355 5.1005 -14.1953 6.6430 0.7225 15.1376 2.4776 2.2273 1.6477 -1.5702 0.9358 -6.5860 -0.6026 0.8747 -3.9686 -1.2635 1.1087 -8.0444 -0.2974 0.5920 -1.8275 -0.0000 0.0000 0.0000 -85.1235 22.0931 38.2748 106.8754 -58.8961 -74.5603 -0.0000 0.0000 -34.4109 54.1978 33.0879 37.1215 -7.1250 0.0000 -0.0000 44.4362 74.1679 32.1086 -0.0000 0.0000 0.0000 79.3334 2.4256 37.2459 -123.7793 55.2157 -88.7838 0.0000 -0.0000 -3.0244 -47.4324 24.2010 -24.0518 7.1250 -0.0000 -0.0000 -10.6238 3.1108 -11.3778
-0.5842 17.4566 49.0777 -7.6051 -5.6649 0.6695 0.0000 0.0000 0.0000 -7.1227 -0.9624 -36.9562 27.8012 18.4734 113.3826 0.7964 -6.7078 20.5919 0.1453 -2.4561 -6.7679 0.0000 0.0000 0.0000 33.9391 5.6008 2.0331 -3.5336 -11.5125 34.0284 -0.4029 -0.8467 -12.3273 -0.6355 5.1005 -14.1953 6.6430 0.7225 15.1376 2.4776 2.2273 1.6477 -1.5702 0.9358 -6.5860 -0.6026 0.8747 -3.9686 -1.2635 1.1087 -8.0444 -0.2974 0.5920 -1.8275 -0.0000 0.0000 0.0000 -85.1235 22.0931 38.2748 106.8754 -58.8961 -74.5603 -0.0000 0.0000 -34.4109 54.1978 33.0879 37.1215 -7.1250 0.0000 -0.0000 44.4362 74.1679 32.1086 -0.0000 0.0000 0.0000 79.3334 2.4256 37.2459 -123.7793 55.2157 -88.7838 0.0000 -0.0000 -3.0244 -47.4324 24.2010 -24.0518 7.1250 -0.0000 -0.0000 -10.6238 3.1108 -11.3778
-0.5842 17.4566 49.0777 -7.6051 -5.6649 0.6695 0.0000 0.0000 0.0000 -7.1227 -0.9624 -36.9562 27.8012 18.4734 113.3826 0.7964 -6.7078 20.5919 0.1453 -2.4561 -6.7679 0.0000 0.0000 0.0000 33.9391 5.6008 2.0331 -3.5336 -11.5125 34.0284 -0.4029 -0.8467 -12.3273 -0.6355 5.1005 -14.1953 6.6430 0.7225 15.1376 2.4776 2.2273 1.6477 -1.5702 0.9358 -6.5860 -0.6026 0.8747 -3.9686 -1.2635 1.1087 -8.0444 -0.2974 0.5920 -1.8275 -0.0000 0.0000 0.0000 -85.1235 22.0931 38.2748 106.8754 -58.8961 -74.5603 -0.0000 0.0000 -34.4109 54.1978 33.0879 37.1215 -7.1250 0.0000 -0.0000 44.4362 74.1679 32.1086 -0.0000 0.0000 0.0000 79.3334 2.4256 37.2459 -123.7793 55.2157 -88.7838 0.0000 -0.0000 -3.0244 -47.4324 24.2010 -24.0518 7.1250 -0.0000 -0.0000 -10.6238 3.1108 -11.3778
-0.5842 17.4566 49.0777 -7.6051 -5.6649 0.6695 0.0000 0.0000 0.0000 -7.1227 -0.9624 -36.9562 27.8012 18.4734 113.3826 0.7964 -6.7078 20.5919 0.1453 -2.4561 -6.7679 0.0000 0.0000 0.0000 33.9391 5.6008 2.0331 -3.5336 -11.5125 34.0284 -0.4029 -0.8467 -12.3273 -0.6355 5.1005 -14.1953 6.6430 0.7225 15.1376 2.4776 2.2273 1.6477 -1.5702 0.9358 -6.5860 -0.6026 0.8747 -3.9686 -1.2635 1.1087 -8.0444 -0.2974 0.5920 -1.8275 -0.0000 0.0000 0.0000 -85.1235 22.0931 38.2748 106.8754 -58.8961 -74.5603 -0.0000 0.0000 -34.4109 54.1978 33.0879 37.1215 -7.1250 0.0000 -0.0000 44.4362 74.1679 32.1086 -0.0000 0.0000 0.0000 79.3334 2.4256 37.2459 -123.7793 55.2157 -88.7838 0.0000 -0.0000 -3.0244 -47.4324 24.2010 -24.0518 7.1250 -0.0000 -0.0000 -10.6238 3.1108 -11.3778
-0.5842 17.4566 49.0777 -7.6051 -5.6649 0.6695 0.0000 0.0000 0.0000 -7.1227 -0.9624 -36.9562 27.8012 18.4734 113.3826 0.7964 -6.7078 20.5919 0.1453 -2.4561 -6.7679 0.0000 0.0000 0.0000 33.9391 5.6008 2.0331 -3.5336 -11.5125 34.0284 -0.4029 -0.8467 -12.3273 -0.6355 5.1005 -14.1953 6.6430 0.7225 15.1376 2.4776 2.2273 1.6477 -1.5702 0.9358 -6.5860 -0.6026 0.8747 -3.9686 -1.2635 1.1087 -8.0444 -0.2974 0.5920 -1.8275 -0.0000 0.0000 0.0000 -85.1235 22.0931 38.2748 106.8754 -58.8961 -74.5603 -0.0000 0.0000 -34.4109 54.1978 33.0879 37.1215 -7.1250 0.0000 -0.0000 44.4362 74.1679 32.1086 -0.0000 0.0000 0.0000 79.3334 2.4256 37.2459 -123.7793 55.2157 -88.7838 0.0000 -0.0000 -3.0244 -47.4324 24.2010 -24.0518 7.1250 -0.0000 -0.0000 -10.6238 3.1108 -11.3778
-0.5842 17.4566 49.0777 -7.6051 -5.6649 0.6695 0.0000 0.0000 0.0000 -7.1227 -0.9624 -36.9562 27.8012 18.4734 113.3826 0.7964 -6.7078 20.5919 0.1453 -2.4561 -6.7679 0.0000 0.0000 0.0000 33.9391 5.6008 2.0331 -3.5336 -11.5125 34.0284 -0.4029 -0.8467 -12.3273 -0.6355 5.1005 -14.1953 6.6430 0.7225 15.1376 2.4776 2.2273 1.6477 -1.5702 0.9358 -6.5860 -0.6026 0.8747 -3.9686 -1.2635 1.1087 -8.0444 -0.2974 0.5920 -1.8275 -0.0000 0.0000 0.0000 -85.1235 22.0931 38.2748 106.8754 -58.8961 -74.5603 -0.0000 0.0000 -34.4109 54.1978 33.0879 37.1215 -7.1250 0.0000 -0.0000 44.4362 74.1679 32.1086 -0.0000 0.0000 0.0000 79.3334 2.4256 37.2459 -123.7793 55.2157 -88.7838 0.0000 -0.0000 -3.0244 -47.4324 24.2010 -24.0518 7.1250 -0.0000 -0.0000 -10.6238 3.1108 -11.3778
-0.5842 17.4566 49.0777 -7.6051 -5.6649 0.6695 0.0000 0.0000 0.0000 -7.1227 -0.9624 -36.9562 27.8012 18.4734 113.3826 0.7964 -6.7078 20.5919 0.1453 -2.4561 -6.7679 0.0000 0.0000 0.0000 33.9391 5.6008 2.0331 -3.5336 -11.5125 34.0284 -0.4029 -0.8467 -12.3273 -0.6355 5.1005 -14.1953 6.6430 0.7225 15.1376 2.4776 2.2273 1.6477 -1.5702 0.9358 -6.5860 -0.6026 0.8747 -3.9686 -1.2635 1.1087 -8.0444 -0.2974 0.5920 -1.8275 -0.0000 0.0000 0.0000 -85.1235 22.0931 38.2748 106.8754 -58.8961 -74.5603 -0.0000 0.0000 -34.4109 54.1978 33.0879 37.1215 -7.1250 0.0000 -0.0000 44.4362 74.1679 32.1086 -0.0000 0.0000 0.0000 79.3334 2.4256 37.2459 -123.7793 55.2157 -88.7838 0.0000 -0.0000 -3.0244 -47.4324 24.2010 -24.0518 7.1250 -0.0000 -0.0000 -10.6238 3.1108 -11.3778
-0.5842 17.4566 49.0777 -7.6051 -5.6649 0.6695 0.0000 0.0000 0.0000 -7.1227 -0.9624 -36.9562 27.8012 18.4734 113.3826 0.7964 -6.7078 20.5919 0.1453 -2.4561 -6.7679 0.0000 0.0000 0.0000 33.9391 5.6008 2.0331 -3.5336 -11.5125 34.0284 -0.4029 -0.8467 -12.3273 -0.6355 5.1005 -14.1953 6.6430 0.7225 15.1376 2.4776 2.2273 1.6477 -1.5702 0.9358 -6.5860 -0.6026 0.8747 -3.9686 -1.2635 1.1087 -8.0444 -0.2974 0.5920 -1.8275 -0.0000 0.0000 0.0000 -85.1235 22.0931 38.2748 106.8754 -58.8961 -74.5603 -0.0000 0.0000 -34.4109 54.1978 33.0879 37.1215 -7.1250 0.0000 -0.0000 44.4362 74.1679 32.1086 -0.0000 0.0000 0.0000 79.3334 2.4256 37.2459 -123.7793 55.2157 -88.7838 0.0000 -0.0000 -3.0244 -47.4324 24.2010 -24.0518 7.1250 -0.0000 -0.0000 -10.6238 3.1108 -11.3778
-0.5842 17.4566 49.0777 -7.6051 -5.6649 0.6695 0.0000 0.0000 0.0000 -7.1227 -0.9624 -36.9562 27.8012 18.4734 113.3826 0.7964 -6.7078 20.5919 0.1453 -2.4561 -6.7679 0.0000 0.0000 0.0000 33.9391 5.6008 2.0331 -3.5336 -11.5125 34.0284 -0.4029 -0.8467 -12.3273 -0.6355 5.1005 -14.1953 6.6430 0.7225 15.1376 2.4776 2.2273 1.6477 -1.5702 0.9358 -6.5860 -0.6026 0.8747 -3.9686 -1.2635 1.1087 -8.0444 -0.2974 0.5920 -1.8275 -0.0000 0.0000 0.0000 -85.1235 22.0931 38.2748 106.8754 -58.8961 -74.5603 -0.0000 0.0000 -34.4109 54.1978 33.0879 37.1215 -7.1250 0.0000 -0.0000 44.4362 74.1679 32.1086 -0.0000 0.0000 0.0000 79.3334 2.4256 37.2459 -123.7793 55.2157 -88.7838 0.0000 -0.0000 -3.0244 -47.4324 24.2010 -24.0518 7.1250 -0.0000 -0.0000 -10.6238 3.1108 -11.3778
-0.5842 17.4566 49.0777 -7.6051 -5.6649 0.6695 0.0000 0.0000 0.0000 -7.1227 -0.9624 -36.9562 27.8012 18.4734 113.3826 0.7964 -6.7078 20.5919 0.1453 -2.4561 -6.7679 0.0000 0.0000 0.0000 33.9391 5.6008 2.0331 -3.5336 -11.5125 34.0284 -0.4029 -0.8467 -12.3273 -0.6355 5.1005 -14.1953 6.6430 0.7225 15.1376 2.4776 2.2273 1.6477 -1.5702 0.9358 -6.5860 -0.6026 0.8747 -3.9686 -1.2635 1.1087 -8.0444 -0.2974 0.5920 -1.8275 -0.0000 0.0000 0.0000 -85.1235 22.0931 38.2748 106.8754 -58.8961 -74.5603 -0.0000 0.0000 -34.4109 54.1978 33.0879 37.1215 -7.1250 0.0000 -0.0000 44.4362 74.1679 32.1086 -0.0000 0.0000 0.0000 79.3334 2.4256 37.2459 -123.7793 55.2157 -88.7838 0.0000 -0.0000 -3.0244 -47.4324 24.2010 -24.0518 7.1250 -0.0000 -0.0000 -10.6238 3.1108 -11.3778
-0.5842 17.4566 49.0777 -7.6051 -5.6649 0.6695 0.0000 0.0000 0.0000 -7.1227 -0.9624 -36.9562 27.8012 18.4734 113.3826 0.7964 -6.7078 20.5919 0.1453 -2.4561 -6.7679 0.0000 0.0000 0.0000 33.9391 5.6008 2.0331 -3.5336 -11.5125 34.0284 -0.4029 -0.8467 -12.3273 -0.6355 5.1005 -14.1953 6.6430 0.7225 15.1376 2.4776 2.2273 1.6477 -1.5702 0.9358 -6.5860 -0.6026 0.8747 -3.9686 -1.2635 1.1087 -8.0444 -0.2974 0.5920 -1.8275 -0.0000 0.0000 0.0000 -85.1235 22.0931 38.2748 106.8754 -58.8961 -74.5603 -0.0000 0.0000 -34.4109 54.1978 33.0879 37.1215 -7.1250 0.0000 -0.0000 44.4362 74.1679 32.1086 -0.0000 0.0000 0.0000 79.3334 2.4256 37.2459 -123.7793 55.2157 -88.7838 0.0000 -0.0000 -3.0244 -47.4324 24.2010 -24.0518 7.1250 -0.0000 -0.0000 -10.6238 3.1108 -11.3778
-0.5842 17.4566 49.0777 -7.6051 -5.6649 0.6695 0.0000 0.0000 0.0000 -7.1227 -0.9624 -36.9562 27.8012 18.4734 113.3826 0.7964 -6.7078 20.5919 0.1453 -2.4561 -6.7679 0.0000 0.0000 0.0000 33.9391 5.6008 2.0331 -3.5336 -11.5125 34.0284 -0.4029 -0.8467 -12.3273 -0.6355 5.1005 -14.1953 6.6430 0.7225 15.1376 2.4776 2.2273 1.6477 -1.5702 0.9358 -6.5860 -0.6026 0.8747 -3.9686 -1.2635 1.1087 -8.0444 -0.2974 0.5920 -1.8275 -0.0000 0.0000 0.0000 -85.1235 22.0931 38.2748 106.8754 -58.8961 -74.5603 -0.0000 0.0000 -34.4109 54.1978 33.0879 37.1215 -7.1250 0.0000 -0.0000 44.4362 74.1679 32.1086 -0.0000 0.0000 0.0000 79.3334 2.4256 37.2459 -123.7793 55.2157 -88.7838 0.0000 -0.0000 -3.0244 -47.4324 24.2010 -24.0518 7.1250 -0.0000 -0.0000 -10.6238 3.1108 -11.3778
-0.5842 17.4566 49.0777 -7.6051 -5.6649 0.6695 0.0000 0.0000 0.0000 -7.1227 -0.9624 -36.9562 27.8012 18.4734 113.3826 0.7964 -6.7078 20.5919 0.1453 -2.4561 -6.7679 0.0000 0.0000 0.0000 33.9391 5.6008 2.0331 -3.5336 -11.5125 34.0284 -0.4029 -0.8467 -12.3273 -0.6355 5.1005 -14.1953 6.6430 0.7225 15.1376 2.4776 2.2273 1.6477 -1.5702 0.9358 -6.5860 -0.6026 0.8747 -3.9686 -1.2635 1.1087 -8.0444 -0.2974 0.5920 -1.8275 -0.0000 0.0000 0.0000 -85.1235 22.0931 38.2748 106.8754 -58.8961 -74.5603 -0.0000 0.0000 -34.4109 54.1978 33.0879 37.1215 -7.1250 0.0000 -0.0000 44.4362 74.1679 32.1086 -0.0000 0.0000 0.0000 79.3334 2.4256 37.2459 -123.7793 55.2157 -88.7838 0.0000 -0.0000 -3.0244 -47.4324 24.2010 -24.0518 7.1250 -0.0000 -0.0000 -10.6238 3.1108 -11.3778
-0.5842 17.4566 49.0777 -7.6051 -5.6649 0.6695 0.0000 0.0000 0.0000 -7.1227 -0.9624 -36.9562 27.8012 18.4734 113.3826 0.7964 -6.7078 20.5919 0.1453 -2.4561 -6.7679 0.0000 0.0000 0.0000 33.9391 5.6008 2.0331 -3.5336 -11.5125 34.0284 -0.4029 -0.8467 -12.3273 -0.6355 5.1005 -14.1953 6.6430 0.7225 15.1376 2.4776 2.2273 1.6477 -1.5702 0.9358 -6.5860 -0.6026 0.8747 -3.9686 -1.2635 1.1087 -8.0444 -0.2974 0.5920 -1.8275 -0.0000 0.0000 0.0000 -85.1235 22.0931 38.2748 106.8754 -58.8961 -74.5603 -0.0000 0.0000 -34.4109 54.1978 33.0879 37.1215 -7.1250 0.0000 -0.0000 44.4362 74.1679 32.1086 -0.0000 0.0000 0.0000 79.3334 2.4256 37.2459 -123.7793 55.2157 -88.7838 0.0000 -0.0000 -3.0244 -47.4324 24.2010 -24.0518 7.1250 -0.0000 -0.0000 -10.6238 3.1108 -11.3778
-0.5842 17.4566 49.0777 -7.6051 -5.6649 0.6695 0.0000 0.0000 0.0000 -7.1227 -0.9624 -36.9562 27.8012 18.4734 113.3826 0.7964 -6.7078 20.5919 0.1453 -2.4561 -6.7679 0.0000 0.0000 0.0000 33.9391 5.6008 2.0331 -3.5336 -11.5125 34.0284 -0.4029 -0.8467 -12.3273 -0.6355 5.1005 -14.1953 6.6430 0.7225 15.1376 2.4776 2.2273 1.6477 -1.5702 0.9358 -6.5860 -0.6026 0.8747 -3.9686 -1.2635 1.1087 -8.0444 -0.2974 0.5920 -1.8275 -0.0000 0.0000 0.0000 -85.1235 22.0931 38.2748 106.8754 -58.8961 -74.5603 -0.0000 0.0000 -34.4109 54.1978 33.0879 37.1215 -7.1250 0.0000 -0.0000 44.4362 74.1679 32.1086 -0.0000 0.0000 0.0000 79.3334 2.4256 37.2459 -123.7793 55.2157 -88.7838 0.0000 -0.0000 -3.0244 -47.4324 24.2010 -24.0518 7.1250 -0.0000 -0.0000 -10.6238 3.1108 -11.3778
-0.5842 17.4566 49.0777 -7.6051 -5.6649 0.6695 0.0000 0.0000 0.0000 -7.1227 -0.9624 -36.9562 27.8012 18.4734 113.3826 0.7964 -6.7078 20.5919 0.1453 -2.4561 -6.7679 0.0000 0.0000 0.0000 33.9391 5.6008 2.0331 -3.5336 -11.5125 34.0284 -0.4029 -0.8467 -12.3273 -0.6355 5.1005 -14.1953 6.6430 0.7225 15.1376 2.4776 2.2273 1.6477 -1.5702 0.9358 -6.5860 -0.6026 0.8747 -3.9686 -1.2635 1.1087 -8.0444 -0.2974 0.5920 -1.8275 -0.0000 0.0000 0.0000 -85.1235 22.0931 38.2748 106.8754 -58.8961 -74.5603 -0.0000 0.0000 -34.4109 54.1978 33.0879 37.1215 -7.1250 0.0000 -0.0000 44.4362 74.1679 32.1086 -0.0000 0.0000 0.0000 79.3334 2.4256 37.2459 -123.7793 55.2157 -88.7838 0.0000 -0.0000 -3.0244 -47.4324 24.2010 -24.0518 7.1250 -0.0000 -0.0000 -10.6238 3.1108 -11.3778
-0.5842 17.4566 49.0777 -7.6051 -5.6649 0.6695 0.0000 0.0000 0.0000 -7.1227 -0.9624 -36.9562 27.8012 18.4734 113.3826 0.7964 -6.7078 20.5919 0.1453 -2.4561 -6.7679 0.0000 0.0000 0.0000 33.9391 5.6008 2.0331 -3.5336 -11.5125 34.0284 -0.4029 -0.8467 -12.3273 -0.6355 5.1005 -14.1953 6.6430 0.7225 15.1376 2.4776 2.2273 1.6477 -1.5702 0.9358 -6.5860 -0.6026 0.8747 -3.9686 -1.2635 1.1087 -8.0444 -0.2974 0.5920 -1.8275 -0.0000 0.0000 0.0000 -85.1235 22.0931 38.2748 106.8754 -58.8961 -74.5603 -0.0000 0.0000 -34.4109 54.1978 33.0879 37.1215 -7.1250 0.0000 -0.0000 44.4362 74.1679 32.1086 -0.0000 0.0000 0.0000 79.3334 2.4256 37.2459 -123.7793 55.2157 -88.7838 0.0000 -0.0000 -3.0244 -47.4324 24.2010 -24.0518 7.1250 -0.0000 -0.0000 -10.6238 3.1108 -11.3778
-0.5842 17.4566 49.0777 -7.6051 -5.6649 0.6695 0.0000 0.0000 0.0000 -7.1227 -0.9624 -36.9562 27.8012 18.4734 113.3826 0.7964 -6.7078 20.5919 0.1453 -2.4561 -6.7679 0.0000 0.0000 0.0000 33.9391 5.6008 2.0331 -3.5336 -11.5125 34.0284 -0.4029 -0.8467 -12.3273 -0.6355 5.1005 -14.1953 6.6430 0.7225 15.1376 2.4776 2.2273 1.6477 -1.5702 0.9358 -6.5860 -0.6026 0.8747 -3.9686 -1.2635 1.1087 -8.0444 -0.2974 0.5920 -1.8275 -0.0000 0.0000 0.0000 -85.1235 22.0931 38.2748 106.8754 -58.8961 -74.5603 -0.0000 0.0000 -34.4109 54.1978 33.0879 37.1215 -7.1250 0.0000 -0.0000 44.4362 74.1679 32.1086 -0.0000 0.0000 0.0000 79.3334 2.4256 37.2459 -123.7793 55.2157 -88.7838 0.0000 -0.0000 -3.0244 -47.4324 24.2010 -24.0518 7.1250 -0.0000 -0.0000 -10.6238 3.1108 -11.3778
-0.5842 17.4566 49.0777 -7.6051 -5.6649 0.6695 0.0000 0.0000 0.0000 -7.1227 -0.9624 -36.9562 27.8012 18.4734 113.3826 0.7964 -6.7078 20.5919 0.1453 -2.4561 -6.7679 0.0000 0.0000 0.0000 33.9391 5.6008 2.0331 -3.5336 -11.5125 34.0284 -0.4029 -0.8467 -12.3273 -0.6355 5.1005 -14.1953 6.6430 0.7225 15.1376 2.4776 2.2273 1.6477 -1.5702 0.9358 -6.5860 -0.6026 0.8747 -3.9686 -1.2635 1.1087 -8.0444 -0.2974 0.5920 -1.8275 -0.0000 0.0000 0.0000 -85.1235 22.0931 38.2748 106.8754 -58.8961 -74.5603 -0.0000 0.0000 -34.4109 54.1978 33.0879 37.1215 -7.1250 0.0000 -0.0000 44.4362 74.1679 32.1086 -0.0000 0.0000 0.0000 79.3334 2.4256 37.2459 -123.7793 55.2157 -88.7838 0.0000 -0.0000 -3.0244 -47.4324 24.2010 -24.0518 7.1250 -0.0000 -0.0000 -10.6238 3.1108 -11.3778
-0.5842 17.4566 49.0777 -7.6051 -5.6649 0.6695 0.0000 0.0000 0.0000 -7.1227 -0.9624 -36.9562 27.8012 18.4734 113.3826 0.7964 -6.7078 20.5919 0.1453 -2.4561 -6.7679 0.0000 0.0000 0.0000 33.9391 5.6008 2.0331 -3.5336 -11.5125 34.0284 -0.4029 -0.8467 -12.3273 -0.6355 5.1005 -14.1953 6.6430 0.7225 15.1376 2.4776 2.2273 1.6477 -1.5702 0.9358 -6.5860 -0.6026 0.8747 -3.9686 -1.2635 1.1087 -8.0444 -0.2974 0.5920 -1.8275 -0.0000 0.0000 0.0000 -85.1235 22.0931 38.2748 106.8754 -58.8961 -74.5603 -0.0000 0.0000 -34.4109 54.1978 33.0879 37.1215 -7.1250 0.0000 -0.0000 44.4362 74.1679 32.1086 -0.0000 0.0000 0.0000 79.3334 2.4256 37.2459 -123.7793 55.2157 -88.7838 0.0000 -0.0000 -3.0244 -47.4324 24.2010 -24.0518 7.1250 -0.0000 -0.0000 -10.6238 3.1108 -11.3778
-0.5842 17.4566 49.0777 -7.6051 -5.6649 0.6695 0.0000 0.0000 0.0000 -7.1227 -0.9624 -36.9562 27.8012 18.4734 113.3826 0.7964 -6.7078 20.5919 0.1453 -2.4561 -6.7679 0.0000 0.0000 0.0000 33.9391 5.6008 2.0331 -3.5336 -11.5125 34.0284 -0.4029 -0.8467 -12.3273 -0.6355 5.1005 -14.1953 6.6430 0.7225 15.1376 2.4776 2.2273 1.6477 -1.5702 0.9358 -6.5860 -0.6026 0.8747 -3.9686 -1.2635 1.1087 -8.0444 -0.2974 0.5920 -1.8275 -0.0000 0.0000 0.0000 -85.1235 22.0931 38.2748 106.8754 -58.8961 -74.5603 -0.0000 0.0000 -34.4109 54.1978 33.0879 37.1215 -7.1250 0.0000 -0.0000 44.4362 74.1679 32.1086 -0.0000 0.0000 0.0000 79.3334 2.4256 37.2459 -123.7793 55.2157 -88.7838 0.0000 -0.0000 -3.0244 -47.4324 24.2010 -24.0518 7.1250 -0.0000 -0.0000 -10.6238 3.1108 -11.3778
-0.5842 17.4566 49.0777 -7.6051 -5.6649 0.6695 0.0000 0.0000 0.0000 -7.1227 -0.9624 -36.9562 27.8012 18.4734 113.3826 0.7964 -6.7078 20.5919 0.1453 -2.4561 -6.7679 0.0000 0.0000 0.0000 33.9391 5.6008 2.0331 -3.5336 -11.5125 34.0284 -0.4029 -0.8467 -12.3273 -0.6355 5.1005 -14.1953 6.6430 0.7225 15.1376 2.4776 2.2273 1.6477 -1.5702 0.9358 -6.5860 -0.6026 0.8747 -3.9686 -1.2635 1.1087 -8.0444 -0.2974 0.5920 -1.8275 -0.0000 0.0000 0.0000 -85.1235 22.0931 38.2748 106.8754 -58.8961 -74.5603 -0.0000 0.0000 -34.4109 54.1978 33.0879 37.1215 -7.1250 0.0000 -0.0000 44.4362 74.1679 32.1086 -0.0000 0.0000 0.0000 79.3334 2.4256 37.2459 -123.7793 55.2157 -88.7838 0.0000 -0.0000 -3.0244 -47.4324 24.2010 -24.0518 7.1250 -0.0000 -0.0000 -10.6238 3.1108 -11.3778
-0.5842 17.4566 49.0777 -7.6051 -5.6649 0.6695 0.0000 0.0000 0.0000 -7.1227 -0.9624 -36.9562 27.8012 18.4734 113.3826 0.7964 -6.7078 20.5919 0.1453 -2.4561 -6.7679 0.0000 0.0000 0.0000 33.9391 5.6008 2.0331 -3.5336 -11.5125 34.0284 -0.4029 -0.8467 -12.3273 -0.6355 5.1005 -14.1953 6.6430 0.7225 15.1376 2.4776 2.2273 1.6477 -1.5702 0.9358 -6.5860 -0.6026 0.8747 -3.9686 -1.2635 1.1087 -8.0444 -0.2974 0.5920 -1.8275 -0.0000 0.0000 0.0000 -85.1235 22.0931 38.2748 106.8754 -58.8961 -74.5603 -0.0000 0.0000 -34.4109 54.1978 33.0879 37.1215 -7.1250 0.0000 -0.0000 44.4362 74.1679 32.1086 -0.0000 0.0000 0.0000 79.3334 2.4256 37.2459 -123.7793 55.2157 -88.7838 0.0000 -0.0000 -3.0244 -47.4324 24.2010 -24.0518 7.1250 -0.0000 -0.0000 -10.6238 3.1108 -11.3778
-0.5842 17.4566 49.0777 -7.6051 -5.6649 0.6695 0.0000 0.0000 0.0000 -7.1227 -0.9624 -36.9562 27.8012 18.4734 113.3826 0.7964 -6.7078 20.5919 0.1453 -2.4561 -6.7679 0.0000 0.0000 0.0000 33.9391 5.6008 2.0331 -3.5336 -11.5125 34.0284 -0.4029 -0.8467 -12.3273 -0.6355 5.1005 -14.1953 6.6430 0.7225 15.1376 2.4776 2.2273 1.6477 -1.5702 0.9358 -6.5860 -0.6026 0.8747 -3.9686 -1.2635 1.1087 -8.0444 -0.2974 0.5920 -1.8275 -0.0000 0.0000 0.0000 -85.1235 22.0931 38.2748 106.8754 -58.8961 -74.5603 -0.0000 0.0000 -34.4109 54.1978 33.0879 37.1215 -7.1250 0.0000 -0.0000 44.4362 74.1679 32.1086 -0.0000 0.0000 0.0000 79.3334 2.4256 37.2459 -123.7793 55.2157 -88.7838 0.0000 -0.0000 -3.0244 -47.4324 24.2010 -24.0518 7.1250 -0.0000 -0.0000 -10.6238 3.1108 -11.3778
-0.5842 17.4566 49.0777 -7.6051 -5.6649 0.6695 0.0000 0.0000 0.0000 -7.1227 -0.9624 -36.9562 27.8012 18.4734 113.3826 0.7964 -6.7078 20.5919 0.1453 -2.4561 -6.7679 0.0000 0.0000 0.0000 33.9391 5.6008 2.0331 -3.5336 -11.5125 34.0284 -0.4029 -0.8467 -12.3273 -0.6355 5.1005 -14.1953 6.6430 0.7225 15.1376 2.4776 2.2273 1.6477 -1.5702 0.9358 -6.5860 -0.6026 0.8747 -3.9686 -1.2635 1.1087 -8.0444 -0.2974 0.5920 -1.8275 -0.0000 0.0000 0.0000 -85.1235 22.0931 38.2748 106.8754 -58.8961 -74.5603 -0.0000 0.0000 -34.4109 54.1978 33.0879 37.1215 -7.1250 0.0000 -0.0000 44.4362 74.1679 32.1086 -0.0000 0.0000 0.0000 79.3334 2.4256 37.2459 -123.7793 55.2157 -88.7838 0.0000 -0.0000 -3.0244 -47.4324 24.2010 -24.0518 7.1250 -0.0000 -0.0000 -10.6238 3.1108 -11.3778
