HIERARCHY
ROOT Hips
{
	OFFSET 0.00000 0.00000 0.00000
	CHANNELS 6 Xposition Yposition Zposition Zrotation Yrotation Xrotation 
	JOINT LHipJoint
	{
		OFFSET 0 0 0
		CHANNELS 3 Zrotation Yrotation Xrotation
		JOINT LeftUpLeg
		{
			OFFSET 1.82298 -1.58346 0.87084
			CHANNELS 3 Zrotation Yrotation Xrotation
			JOINT LeftLeg
			{
				OFFSET 2.43790 -6.69809 0.00000
				CHANNELS 3 Zrotation Yrotation Xrotation
				JOINT LeftFoot
				{
					OFFSET 2.59288 -7.12389 0.00000
					CHANNELS 3 Zrotation Yrotation Xrotation
					JOINT LeftToeBase
					{
						OFFSET 0.14552 -0.39981 2.13160
						CHANNELS 3 Zrotation Yrotation Xrotation
						End Site
						{
							OFFSET 0.00000 -0.00000 1.09427
						}
					}
				}
			}
		}
	}
	JOINT RHipJoint
	{
		OFFSET 0 0 0
		CHANNELS 3 Zrotation Yrotation Xrotation
		JOINT RightUpLeg
		{
			OFFSET -1.77229 -1.58346 0.87084
			CHANNELS 3 Zrotation Yrotation Xrotation
			JOINT RightLeg
			{
				OFFSET -2.50703 -6.88801 0.00000
				CHANNELS 3 Zrotation Yrotation Xrotation
				JOINT RightFoot
				{
					OFFSET -2.61620 -7.18796 0.00000
					CHANNELS 3 Zrotation Yrotation Xrotation
					JOINT RightToeBase
					{
						OFFSET -0.15190 -0.41735 2.15974
						CHANNELS 3 Zrotation Yrotation Xrotation
						End Site
						{
							OFFSET -0.00000 -0.00000 1.10919
						}
					}
				}
			}
		}
	}
	JOINT LowerBack
	{
		OFFSET 0 0 0
		CHANNELS 3 Zrotation Yrotation Xrotation
		JOINT Spine
		{
			OFFSET -0.03602 2.12423 -0.30249
			CHANNELS 3 Zrotation Yrotation Xrotation
			JOINT Spine1
			{
				OFFSET 0.02717 2.10043 0.12912
				CHANNELS 3 Zrotation Yrotation Xrotation
				JOINT Neck
				{
					OFFSET 0 0 0
					CHANNELS 3 Zrotation Yrotation Xrotation
					JOINT Neck1
					{
						OFFSET -0.06371 1.88656 0.11602
						CHANNELS 3 Zrotation Yrotation Xrotation
						JOINT Head
						{
							OFFSET 0.08208 1.87759 -0.11505
							CHANNELS 3 Zrotation Yrotation Xrotation
							End Site
							{
								OFFSET 0.03382 1.93090 -0.05483
							}
						}
					}
				}
				JOINT LeftShoulder
				{
					OFFSET 0 0 0
					CHANNELS 3 Zrotation Yrotation Xrotation
					JOINT LeftArm
					{
						OFFSET 3.30903 1.40357 0.20156
						CHANNELS 3 Zrotation Yrotation Xrotation
						JOINT LeftForeArm
						{
							OFFSET 5.43301 -0.00000 0.00000
							CHANNELS 3 Zrotation Yrotation Xrotation
							JOINT LeftHand
							{
								OFFSET 3.15936 -0.00000 0.00000
								CHANNELS 3 Zrotation Yrotation Xrotation
								JOINT LeftFingerBase
								{
									OFFSET 0 0 0
									CHANNELS 3 Zrotation Yrotation Xrotation
									JOINT LeftHandIndex1
									{
										OFFSET 0.71283 -0.00000 0.00000
										CHANNELS 3 Zrotation Yrotation Xrotation
										End Site
										{
											OFFSET 0.57470 -0.00000 0.00000
										}
									}
								}
								JOINT LThumb
								{
									OFFSET 0 0 0
									CHANNELS 3 Zrotation Yrotation Xrotation
									End Site
									{
										OFFSET 0.58347 -0.00000 0.58347
									}
								}
							}
						}
					}
				}
				JOINT RightShoulder
				{
					OFFSET 0 0 0
					CHANNELS 3 Zrotation Yrotation Xrotation
					JOINT RightArm
					{
						OFFSET -3.12947 1.60037 -0.00464
						CHANNELS 3 Zrotation Yrotation Xrotation
						JOINT RightForeArm
						{
							OFFSET -5.34194 -0.00000 0.00000
							CHANNELS 3 Zrotation Yrotation Xrotation
							JOINT RightHand
							{
								OFFSET -3.19351 -0.00000 0.00000
								CHANNELS 3 Zrotation Yrotation Xrotation
								JOINT RightFingerBase
								{
									OFFSET 0 0 0
									CHANNELS 3 Zrotation Yrotation Xrotation
									JOINT RightHandIndex1
									{
										OFFSET -0.74386 -0.00000 0.00000
										CHANNELS 3 Zrotation Yrotation Xrotation
										End Site
										{
											OFFSET -0.59972 -0.00000 0.00000
										}
									}
								}
								JOINT RThumb
								{
									OFFSET 0 0 0
									CHANNELS 3 Zrotation Yrotation Xrotation
									End Site
									{
										OFFSET -0.60888 -0.00000 0.60888
									}
								}
							}
						}
					}
				}
			}
		}
	}
}
MOTION
Frames: 121
Frame Time: 0.0166667
0.0033 13.5836 -30.3725 0.0000 0.0000 0.0000 0.0000 0.0000 0.0000 -21.0000 0.0000 0.0000 0.0000 0.0000 0.0000 0.0000 0.0000 0.0000 0.0000 0.0000 0.0000 0.0000 0.0000 0.0000 21.0000 0.0000 0.0000 0.0000 0.0000 0.0000 0.0000 0.0000 0.0000 0.0000 0.0000 0.0000 0.0000 0.0000 0.0000 0.0000 0.0000 0.0000 0.0000 0.0000 0.0000 0.0000 0.0000 -16.0000 0.0000 0.0000 21.0000 0.0000 0.0000 11.0000 0.0000 0.0000 0.0000 -8.0000 0.0000 0.0000 0.0000 0.0000 0.0000 0.0000 0.0000 0.0000 0.0000 0.0000 0.0000 0.0000 0.0000 0.0000 0.0000 0.0000 0.0000 0.0000 0.0000 0.0000 8.0000 0.0000 0.0000 0.0000 0.0000 0.0000 0.0000 0.0000 0.0000 0.0000 0.0000 0.0000 0.0000 0.0000 0.0000 0.0000 0.0000 0.0000
-0.0874 13.5934 -30.3182 -13.3189 -25.7149 11.4278 0.0000 0.0000 0.0000 1.7633 16.3788 -74.7665 17.5639 19.8571 82.8611 0.4160 -8.2343 -12.0363 0.0374 -1.2490 -3.4341 0.0000 0.0000 0.0000 12.7539 -7.6882 14.9647 -2.4893 -9.8184 28.3905 -0.4448 -23.2949 -35.4177 -2.0496 8.9685 -25.6970 4.0433 0.2421 6.5069 5.0673 0.9371 -2.2119 2.9263 0.3999 -6.0000 -5.6409 -4.0238 -5.0051 4.5262 -5.3846 9.4385 2.0253 -2.6501 3.9107 0.0000 0.0000 0.0000 -68.7474 -27.9383 38.6419 20.7269 -31.5082 -5.9066 -0.0000 -0.0000 28.1533 21.6181 25.2768 9.6043 -7.1250 0.0000 -0.0000 -8.8482 56.6880 -2.5488 0.0000 0.0000 0.0000 62.3781 -36.6623 61.4783 -124.9437 54.8418 -89.7380 0.0000 -0.0000 -47.9966 -4.0480 -15.0735 1.0543 7.1250 -0.0000 -0.0000 21.4421 -43.9746 0.5703
-0.0899 13.5940 -30.3180 -13.3463 -25.6925 11.4391 0.0000 0.0000 0.0000 1.8493 16.3286 -74.7256 17.5618 19.8569 82.8550 0.4170 -8.2521 -12.0529 0.0412 -1.3101 -3.6024 0.0000 0.0000 0.0000 12.7810 -7.7450 14.9195 -2.4919 -9.8231 28.4057 -0.4334 -23.3402 -35.4099 -2.0097 8.8862 -25.4399 4.1243 0.2522 6.4817 5.0676 0.9562 -2.2178 2.8789 0.4063 -5.9912 -5.0830 -3.0866 -5.2260 4.3776 -4.1565 9.7697 1.9527 -2.0291 3.9686 -0.0000 -0.0000 0.0000 -68.7660 -28.0082 38.6647 20.6376 -31.4028 -5.8599 -0.0000 -0.0000 28.2457 21.6014 25.2709 9.5942 -7.1250 0.0000 -0.0000 -8.8633 56.6783 -2.5511 -0.0000 -0.0000 0.0000 62.4791 -36.7325 61.3489 -124.9030 54.8552 -89.7047 0.0000 -0.0000 -47.9698 -3.9866 -15.0687 1.0380 7.1250 -0.0000 -0.0000 21.4936 -43.9634 0.5780
-0.0917 13.5943 -30.3173 -13.4045 -25.7059 11.4770 0.0000 0.0000 0.0000 1.9783 16.2976 -74.6872 17.5607 19.8567 82.8515 0.4202 -8.2417 -12.0888 0.0487 -1.4239 -3.9159 0.0000 0.0000 0.0000 12.8270 -7.7649 14.8615 -2.4929 -9.8249 28.4115 -0.4142 -23.4112 -35.3919 -1.9323 8.7236 -24.9345 4.2614 0.2742 6.4361 5.0667 0.9935 -2.2157 2.7965 0.4196 -5.9617 -4.5651 -2.1471 -5.3064 4.0537 -2.8961 9.6107 2.0347 -1.4185 4.2839 0.0000 -0.0000 0.0000 -68.7976 -28.0992 38.6327 20.5410 -31.2886 -5.8097 -0.0000 -0.0000 28.3616 21.5869 25.2661 9.5856 -7.1250 0.0000 -0.0000 -8.8766 56.6704 -2.5533 0.0000 -0.0000 0.0000 62.5909 -36.8097 61.2104 -124.8713 54.8656 -89.6788 0.0000 -0.0000 -47.9534 -3.9025 -15.0368 1.0139 7.1250 -0.0000 -0.0000 21.5545 -43.9244 0.6017
-0.0932 13.5945 -30.3172 -13.4507 -25.7613 11.5134 0.0000 0.0000 0.0000 2.1122 16.2715 -74.6294 17.5567 19.8563 82.8398 0.4291 -8.1425 -12.1696 0.0594 -1.5729 -4.3268 0.0000 0.0000 0.0000 12.8644 -7.7309 14.8009 -2.4948 -9.8284 28.4230 -0.3848 -23.5308 -35.3775 -1.8172 8.4745 -24.1648 4.3878 0.3130 6.4186 5.0582 1.0540 -2.2097 2.7096 0.4445 -5.9444 -4.0423 -1.2349 -5.2295 3.8971 -1.7010 9.5716 1.9492 -0.8169 4.1785 0.0000 0.0000 0.0000 -68.8411 -28.1889 38.5662 20.4725 -31.2074 -5.7742 -0.0000 -0.0000 28.4588 21.5764 25.2742 9.5833 -7.1250 0.0000 -0.0000 -8.8914 56.6764 -2.5589 0.0000 0.0000 0.0000 62.7182 -36.9085 61.0485 -124.8683 54.8666 -89.6763 0.0000 -0.0000 -47.9580 -3.8062 -15.0060 0.9869 7.1250 -0.0000 -0.0000 21.6265 -43.8851 0.6260
-0.0950 13.5944 -30.3186 -13.4589 -25.8338 11.5412 0.0000 0.0000 0.0000 2.2354 16.2025 -74.5460 17.5515 19.8556 82.8244 0.4497 -7.8491 -12.3450 0.0766 -1.7859 -4.9143 0.0000 0.0000 0.0000 12.8841 -7.6490 14.7124 -2.5058 -9.8485 28.4874 -0.3400 -23.7206 -35.3666 -1.6791 8.1629 -23.2100 4.4668 0.3686 6.4587 5.0424 1.1382 -2.2183 2.6391 0.4824 -5.9762 -3.6021 -0.3902 -5.1176 3.7964 -0.5934 9.4361 1.8887 -0.2588 4.0479 0.0000 -0.0000 0.0000 -68.9072 -28.2478 38.5078 20.4612 -31.1940 -5.7683 -0.0000 -0.0000 28.5078 21.5359 25.2599 9.5589 -7.1250 0.0000 -0.0000 -8.9280 56.6533 -2.5645 0.0000 -0.0000 0.0000 62.8674 -37.0660 60.8412 -124.8955 54.8577 -89.6985 0.0000 -0.0000 -47.9670 -3.6661 -14.9984 0.9500 7.1250 -0.0000 -0.0000 21.7449 -43.8626 0.6425
-0.0966 13.5920 -30.3216 -13.4285 -25.8939 11.5867 0.0000 0.0000 0.0000 2.3541 16.0416 -74.4739 17.5537 19.8559 82.8311 0.4858 -7.2834 -12.6595 0.1100 -2.1385 -5.8886 0.0000 0.0000 0.0000 12.8828 -7.5465 14.5394 -2.5347 -9.9008 28.6560 -0.2838 -23.9644 -35.3639 -1.5475 7.8520 -22.2653 4.5291 0.4194 6.5092 5.0097 1.2153 -2.2342 2.5611 0.5170 -6.0210 -3.2296 0.3497 -4.9892 3.7030 0.3801 9.2318 1.8319 0.2312 3.9036 -0.0000 -0.0000 0.0000 -68.9411 -28.2840 38.4304 20.5152 -31.2581 -5.7963 -0.0000 -0.0000 28.4713 21.4194 25.1773 9.4746 -7.1250 0.0000 -0.0000 -9.0143 56.5441 -2.5657 -0.0000 -0.0000 0.0000 63.0389 -37.2340 60.6160 -124.9226 54.8487 -89.7207 0.0000 -0.0000 -47.9596 -3.4842 -14.9997 0.9028 7.1250 -0.0000 -0.0000 21.9024 -43.8438 0.6584
-0.0972 13.5857 -30.3260 -13.3863 -25.9352 11.6405 0.0000 0.0000 0.0000 2.4988 15.7934 -74.4086 17.5723 19.8581 82.8858 0.5372 -6.4811 -13.1462 0.1725 -2.6755 -7.3767 0.0000 0.0000 0.0000 12.8602 -7.4594 14.3000 -2.5824 -9.9862 28.9319 -0.2557 -24.1380 -35.4301 -1.4503 7.6124 -21.5430 4.6180 0.4581 6.6013 4.9530 1.2801 -2.2379 2.4438 0.5438 -6.0754 -2.8856 0.9629 -4.8774 3.5626 1.1915 8.9888 1.7536 0.6383 3.7618 -0.0000 0.0000 0.0000 -68.8916 -28.3258 38.3538 20.6310 -31.3951 -5.8565 -0.0000 -0.0000 28.3618 21.2578 25.0592 9.3570 -7.1250 0.0000 -0.0000 -9.1323 56.3894 -2.5654 -0.0000 0.0000 0.0000 63.2458 -37.3542 60.3894 -124.9226 54.8487 -89.7207 0.0000 -0.0000 -47.9325 -3.3140 -14.9934 0.8583 7.1250 -0.0000 -0.0000 22.0470 -43.8193 0.6773
-0.0959 13.5753 -30.3304 -13.3581 -25.9867 11.6966 0.0000 0.0000 0.0000 2.6797 15.5146 -74.3443 17.6117 19.8627 83.0018 0.6022 -5.4905 -13.8238 0.2821 -3.4160 -9.4391 0.0000 0.0000 0.0000 12.7991 -7.4078 14.0390 -2.6389 -10.0862 29.2564 -0.2661 -24.1814 -35.5439 -1.4045 7.4965 -21.1948 4.7486 0.4963 6.7740 4.8740 1.3530 -2.2333 2.2783 0.5722 -6.1654 -2.5636 1.4622 -4.8111 3.3936 1.8548 8.7639 1.6627 0.9704 3.6462 -0.0000 0.0000 0.0000 -68.7615 -28.3602 38.3149 20.7999 -31.5940 -5.9447 -0.0000 -0.0000 28.2292 21.1236 24.9775 9.2654 -7.1250 0.0000 -0.0000 -9.2375 56.2779 -2.5703 -0.0000 0.0000 0.0000 63.4585 -37.4295 60.1994 -124.8909 54.8592 -89.6948 0.0000 -0.0000 -47.9189 -3.2084 -14.9979 0.8311 7.1250 -0.0000 -0.0000 22.1398 -43.8119 0.6848
-0.0931 13.5620 -30.3328 -13.3451 -26.0718 11.7391 0.0000 0.0000 0.0000 2.8693 15.2640 -74.2738 17.6700 19.8693 83.1733 0.6700 -4.4222 -14.5983 0.4262 -4.1898 -11.6113 0.0000 0.0000 0.0000 12.6703 -7.4097 13.8061 -2.6900 -10.1755 29.5470 -0.2741 -24.1741 -35.5789 -1.4217 7.5403 -21.3263 4.8793 0.5498 7.0794 4.7890 1.4581 -2.2307 2.1017 0.6149 -6.3333 -2.2744 1.8610 -4.8005 3.2152 2.3865 8.5724 1.5702 1.2363 3.5619 -0.0000 -0.0000 0.0000 -68.6063 -28.3968 38.3361 20.9893 -31.8158 -6.0443 -0.0000 -0.0000 28.1032 21.1099 24.9865 9.2620 -7.1250 0.0000 -0.0000 -9.2559 56.2843 -2.5769 -0.0000 -0.0000 0.0000 63.6372 -37.4954 60.0546 -124.8260 54.8804 -89.6417 0.0000 -0.0000 -47.9372 -3.1861 -15.0412 0.8276 7.1250 -0.0000 -0.0000 22.1752 -43.8495 0.6643
-0.0890 13.5466 -30.3321 -13.3092 -26.1771 11.7420 0.0000 0.0000 0.0000 3.0005 15.0486 -74.2059 17.7417 19.8773 83.3841 0.7274 -3.3910 -15.3213 0.5620 -4.8016 -13.3435 0.0000 0.0000 0.0000 12.4442 -7.4661 13.6527 -2.7251 -10.2361 29.7448 -0.2705 -24.1357 -35.5095 -1.5006 7.7375 -21.9195 4.9439 0.6043 7.5112 4.7121 1.5696 -2.2234 1.9680 0.6624 -6.5699 -2.0753 2.1769 -4.7680 3.0530 2.8124 8.3593 1.4938 1.4473 3.4712 -0.0000 -0.0000 0.0000 -68.4655 -28.4316 38.3408 21.1768 -32.0341 -6.1434 -0.0000 -0.0000 28.0160 21.2115 25.0769 9.3411 -7.1250 0.0000 -0.0000 -9.1891 56.3978 -2.5834 -0.0000 -0.0000 0.0000 63.7311 -37.5418 59.9839 -124.7005 54.9214 -89.5390 0.0000 -0.0000 -47.9726 -3.2563 -15.0995 0.8491 7.1250 -0.0000 -0.0000 22.1366 -43.9113 0.6273
-0.0844 13.5310 -30.3266 -13.2031 -26.3065 11.7129 0.0000 0.0000 0.0000 2.9935 14.8815 -74.1719 17.8192 19.8856 83.6122 0.7693 -2.4043 -15.9300 0.6774 -5.2627 -14.6593 0.0000 0.0000 0.0000 12.1007 -7.5504 13.5682 -2.7419 -10.2651 29.8395 -0.2525 -24.0870 -35.3463 -1.6419 8.0764 -22.9465 4.8907 0.6703 8.0128 4.6233 1.6890 -2.2028 1.8847 0.7179 -6.8345 -1.9541 2.4100 -4.7087 2.9221 3.1308 8.0895 1.4351 1.6038 3.3596 -0.0000 0.0000 0.0000 -68.3395 -28.4908 38.3287 21.3605 -32.2468 -6.2412 -0.0000 -0.0000 27.9558 21.3363 25.2161 9.4482 -7.1250 0.0000 -0.0000 -9.1199 56.5662 -2.6010 -0.0000 0.0000 0.0000 63.7894 -37.5724 59.9360 -124.5094 54.9834 -89.3826 0.0000 -0.0000 -48.0112 -3.3485 -15.1523 0.8762 7.1250 -0.0000 -0.0000 22.0768 -43.9703 0.5915
-0.0803 13.5184 -30.3135 -13.0425 -26.4744 11.7462 0.0000 0.0000 0.0000 2.8379 14.7779 -74.2475 17.9001 19.8939 83.8498 0.7953 -1.3371 -16.4499 0.7942 -5.6887 -15.8838 0.0000 0.0000 0.0000 11.6918 -7.6096 13.4551 -2.7432 -10.2673 29.8468 -0.2089 -24.0786 -35.0904 -1.8370 8.5179 -24.2986 4.7208 0.7648 8.4758 4.5147 1.8284 -2.1836 1.8412 0.7880 -7.0808 -1.8771 2.5762 -4.6752 2.8250 3.3607 7.7833 1.3916 1.7167 3.2433 -0.0000 0.0000 0.0000 -68.2162 -28.5979 38.3188 21.5338 -32.4462 -6.3339 -0.0000 -0.0000 27.8566 21.3681 25.3562 9.5117 -7.1250 0.0000 -0.0000 -9.1499 56.7160 -2.6429 -0.0000 0.0000 0.0000 63.8655 -37.5907 59.8679 -124.2324 55.0724 -89.1557 0.0000 -0.0000 -48.0457 -3.3987 -15.2316 0.8939 7.1250 -0.0000 -0.0000 22.0634 -44.0494 0.5456
-0.0765 13.5102 -30.2905 -12.8984 -26.6513 11.9144 0.0000 0.0000 0.0000 2.6058 14.7256 -74.4694 17.9927 19.9031 84.1220 0.8081 -0.1904 -16.9283 0.9053 -6.0635 -16.9686 0.0000 0.0000 0.0000 11.3267 -7.6296 13.2766 -2.7255 -10.2369 29.7473 -0.1297 -24.1575 -34.7436 -2.0602 8.9904 -25.7652 4.4826 0.8823 8.8665 4.4103 1.9839 -2.1772 1.8371 0.8695 -7.3018 -1.8001 2.6927 -4.7107 2.7345 3.5245 7.4457 1.3486 1.7976 3.1321 0.0000 0.0000 0.0000 -68.1078 -28.7729 38.3031 21.6776 -32.6108 -6.4112 -0.0000 -0.0000 27.6984 21.3646 25.4992 9.5591 -7.1250 0.0000 -0.0000 -9.2193 56.8612 -2.6956 0.0000 0.0000 0.0000 63.9641 -37.5841 59.7685 -123.8638 55.1892 -88.8532 0.0000 -0.0000 -48.1165 -3.3700 -15.4174 0.8969 7.1250 -0.0000 -0.0000 22.1588 -44.2182 0.4508
-0.0722 13.5055 -30.2549 -12.8340 -26.7952 12.1846 0.0000 0.0000 0.0000 2.3829 14.7131 -74.7776 18.1125 19.9144 84.4738 0.8124 0.9899 -17.4142 0.9946 -6.3469 -17.7942 0.0000 0.0000 0.0000 11.0800 -7.6264 13.1513 -2.6777 -10.1542 29.4774 -0.0541 -24.2266 -34.3993 -2.2516 9.3715 -26.9645 4.2384 0.9963 9.2267 4.3391 2.1310 -2.1700 1.8716 0.9483 -7.5068 -1.7192 2.7814 -4.7554 2.6358 3.6517 7.0527 1.3000 1.8603 3.0057 0.0000 -0.0000 0.0000 -68.0389 -28.9813 38.2328 21.7838 -32.7318 -6.4686 -0.0000 -0.0000 27.5483 21.4263 25.6280 9.6332 -7.1250 0.0000 -0.0000 -9.2134 57.0058 -2.7261 0.0000 -0.0000 0.0000 64.0481 -37.5370 59.6803 -123.4003 55.3336 -88.4723 0.0000 -0.0000 -48.3314 -3.3143 -15.7418 0.9001 7.1250 -0.0000 -0.0000 22.3321 -44.5121 0.2836
-0.0671 13.5038 -30.2087 -12.8465 -26.8233 12.5385 0.0000 0.0000 0.0000 2.1860 14.6808 -75.1620 18.2616 19.9274 84.9115 0.7951 2.3563 -17.8551 0.9630 -6.2483 -17.5066 0.0000 0.0000 0.0000 10.9807 -7.6621 13.1333 -2.5924 -10.0040 28.9898 -0.0196 -24.1878 -34.1449 -2.3619 9.5823 -27.6343 3.9942 1.0866 9.5951 4.3064 2.2480 -2.1750 1.9505 1.0133 -7.7325 -1.6175 2.8483 -4.7779 2.5337 3.7484 6.5892 1.2438 1.9082 2.8533 0.0000 -0.0000 0.0000 -68.0273 -29.1993 38.1583 21.8568 -32.8148 -6.5081 -0.0000 -0.0000 27.4857 21.5823 25.8395 9.7822 -7.1250 0.0000 -0.0000 -9.1458 57.2552 -2.7611 0.0000 -0.0000 0.0000 64.1521 -37.4770 59.5684 -122.8431 55.5035 -88.0135 0.0000 -0.0000 -48.7772 -3.2816 -16.1618 0.9144 7.1250 -0.0000 -0.0000 22.5254 -44.8964 0.0608
-0.0604 13.5067 -30.1484 -12.8831 -26.7697 12.9826 0.0000 0.0000 0.0000 1.9670 14.6434 -75.5873 18.4407 19.9416 85.4366 0.7113 4.5756 -18.2430 0.7380 -5.4880 -15.3059 0.0000 0.0000 0.0000 10.9734 -7.6926 13.2110 -2.4693 -9.7818 28.2731 -0.0302 -24.0235 -33.9844 -2.3855 9.6266 -27.7758 3.7185 1.1619 9.9175 4.2918 2.3387 -2.2047 2.0704 1.0676 -7.9611 -1.5257 2.9050 -4.7859 2.4640 3.8296 6.0962 1.1985 1.9490 2.6892 -0.0000 0.0000 0.0000 -68.0652 -29.4237 38.0926 21.8790 -32.8400 -6.5201 -0.0000 -0.0000 27.4900 21.7723 26.1314 9.9770 -7.1250 0.0000 -0.0000 -9.0802 57.5945 -2.8155 -0.0000 0.0000 0.0000 64.2938 -37.4377 59.4162 -122.1725 55.7027 -87.4602 0.0000 -0.0000 -49.4081 -3.0754 -16.5330 0.8759 7.1250 -0.0000 -0.0000 22.8542 -45.2143 -0.1277
-0.0513 13.5172 -30.0670 -12.8716 -26.7358 13.5241 0.0000 0.0000 0.0000 1.6143 14.6842 -76.0287 18.6429 19.9558 86.0294 0.5349 7.7269 -18.7441 0.4196 -4.1579 -11.5212 0.0000 0.0000 0.0000 10.9671 -7.6264 13.3467 -2.3122 -9.4881 27.3345 -0.0339 -23.8761 -33.8064 -2.3536 9.5668 -27.5848 3.3736 1.2545 10.1105 4.2559 2.4333 -2.2662 2.2075 1.1279 -8.1520 -1.4483 2.9440 -4.8034 2.4373 3.8849 5.6258 1.1696 1.9778 2.5352 -0.0000 -0.0000 0.0000 -68.1326 -29.6782 38.0316 21.8315 -32.7860 -6.4943 -0.0000 -0.0000 27.4538 21.9472 26.3900 10.1543 -7.1250 0.0000 -0.0000 -9.0160 57.8970 -2.8612 -0.0000 -0.0000 0.0000 64.4889 -37.4817 59.2138 -121.4219 55.9190 -86.8393 0.0000 -0.0000 -50.0804 -2.6276 -16.7170 0.7563 7.1250 -0.0000 -0.0000 23.3205 -45.3299 -0.2010
-0.0392 13.5386 -29.9614 -12.7358 -26.7810 14.1255 0.0000 0.0000 0.0000 0.9710 14.8532 -76.4855 18.8349 19.9674 86.5917 0.3343 10.7215 -19.5192 0.1759 -2.7017 -7.4492 0.0000 0.0000 0.0000 10.8943 -7.4114 13.5355 -2.1281 -9.1279 26.1963 0.0366 -23.9521 -33.4867 -2.2795 9.4255 -27.1357 2.9002 1.3768 10.1725 4.1704 2.5396 -2.3607 2.3636 1.2004 -8.3072 -1.3976 2.9657 -4.8507 2.4612 3.9155 5.2027 1.1623 1.9952 2.4027 0.0000 -0.0000 0.0000 -68.2051 -29.9585 37.9730 21.7241 -32.6638 -6.4363 -0.0000 -0.0000 27.3099 22.1138 26.5112 10.2805 -7.1250 0.0000 -0.0000 -8.8944 58.0579 -2.8567 0.0000 -0.0000 0.0000 64.7476 -37.6260 58.9764 -120.6179 56.1430 -86.1725 0.0000 -0.0000 -50.6749 -2.1723 -16.7651 0.6269 7.1250 -0.0000 -0.0000 23.7376 -45.3194 -0.1985
-0.0238 13.5731 -29.8321 -12.4416 -26.9053 14.7319 0.0000 0.0000 0.0000 -0.0505 15.1229 -76.9443 18.9815 19.9751 87.0209 0.2145 12.6824 -20.5166 0.0426 -1.3323 -3.6636 0.0000 0.0000 0.0000 10.7324 -7.0413 13.7916 -1.9310 -8.7209 24.9261 0.2341 -24.4013 -32.9087 -2.1918 9.2547 -26.5952 2.2692 1.5261 10.1510 4.0324 2.6533 -2.4806 2.5523 1.2844 -8.4476 -1.3736 2.9685 -4.9340 2.5200 3.9207 4.8148 1.1716 2.0004 2.2887 0.0000 -0.0000 0.0000 -68.2744 -30.2309 37.9710 21.6006 -32.5227 -6.3698 -0.0000 -0.0000 27.1189 22.2176 26.5776 10.3562 -7.1250 0.0000 -0.0000 -8.8141 58.1491 -2.8500 0.0000 -0.0000 0.0000 65.0855 -37.8504 58.7019 -119.7785 56.3687 -85.4745 0.0000 -0.0000 -51.1591 -1.9768 -16.8734 0.5740 7.1250 -0.0000 -0.0000 23.9532 -45.3948 -0.2479
-0.0040 13.6185 -29.6791 -12.0286 -27.0521 15.3062 0.0000 0.0000 0.0000 -1.3348 15.3830 -77.3126 19.0820 19.9798 87.3150 0.1518 14.0898 -21.6397 0.0001 -0.0547 -0.1502 0.0000 0.0000 0.0000 10.5166 -6.5328 14.1084 -1.7459 -8.3154 23.6761 0.5755 -25.2387 -31.9933 -2.1194 9.1106 -26.1418 1.5460 1.6719 10.0604 3.8663 2.7446 -2.6029 2.7683 1.3630 -8.5549 -1.3687 2.9518 -5.0251 2.5830 3.9017 4.4243 1.1849 1.9929 2.1758 -0.0000 -0.0000 0.0000 -68.3432 -30.4618 38.0269 21.4903 -32.3961 -6.3106 -0.0000 -0.0000 26.9856 22.2597 26.7000 10.4209 -7.1250 0.0000 -0.0000 -8.8283 58.2837 -2.8833 -0.0000 -0.0000 0.0000 65.4613 -38.1159 58.4355 -118.9342 56.5873 -84.7706 0.0000 -0.0000 -51.6297 -2.0130 -17.1529 0.5939 7.1250 -0.0000 -0.0000 24.0401 -45.6544 -0.4123
0.0204 13.6709 -29.5055 -11.6344 -27.0690 15.8354 0.0000 0.0000 0.0000 -2.5714 15.4871 -77.4641 19.1460 19.9825 87.5022 0.0911 15.4796 -22.8691 0.0269 1.0586 2.9101 0.0000 0.0000 0.0000 10.4302 -5.8713 14.4980 -1.6014 -7.9811 22.6568 0.9970 -26.2732 -30.8614 -2.0329 8.9343 -25.5901 0.9034 1.7647 9.9479 3.7263 2.7757 -2.7032 2.9782 1.4097 -8.6225 -1.3643 2.9074 -5.0872 2.6138 3.8479 4.0017 1.1857 1.9669 2.0490 0.0000 -0.0000 0.0000 -68.4371 -30.6566 38.1448 21.3896 -32.2803 -6.2567 -0.0000 -0.0000 26.9498 22.3710 26.9527 10.5671 -7.1250 0.0000 -0.0000 -8.8323 58.5669 -2.9448 0.0000 -0.0000 0.0000 65.8535 -38.3832 58.1857 -118.0985 56.7957 -84.0722 0.0000 -0.0000 -52.2589 -2.1617 -17.5806 0.6532 7.1250 -0.0000 -0.0000 24.0940 -46.0628 -0.6709
0.0496 13.7288 -29.3141 -11.3325 -26.8121 16.2903 0.0000 0.0000 0.0000 -3.5862 15.3208 -77.3307 19.1598 19.9831 87.5427 0.0517 16.5721 -23.9780 0.0793 1.8170 5.0003 0.0000 0.0000 0.0000 10.6042 -5.0362 14.9760 -1.5178 -7.7798 22.0471 1.4430 -27.3513 -29.6270 -1.9004 8.6554 -24.7231 0.4560 1.7617 9.8573 3.6534 2.7083 -2.7659 3.1667 1.3999 -8.6518 -1.3637 2.8440 -5.0985 2.6123 3.7706 3.5637 1.1749 1.9277 1.9096 -0.0000 0.0000 0.0000 -68.5960 -30.8307 38.3180 21.2739 -32.1466 -6.1950 -0.0000 -0.0000 26.9874 22.6328 27.3112 10.8297 -7.1250 0.0000 -0.0000 -8.7258 58.9930 -2.9982 -0.0000 0.0000 0.0000 66.2408 -38.6053 57.9458 -117.2216 57.0060 -83.3376 0.0000 -0.0000 -53.1263 -2.2901 -18.0550 0.7101 7.1250 -0.0000 -0.0000 24.1893 -46.5116 -0.9576
0.0828 13.7963 -29.1017 -11.0155 -26.3473 16.5593 0.0000 0.0000 0.0000 -4.5231 14.9397 -76.8231 19.0968 19.9804 87.3583 0.0717 17.0276 -24.7766 0.1075 2.1142 5.8212 0.0000 0.0000 0.0000 10.8828 -4.0409 15.5007 -1.5107 -7.7623 21.9945 1.9272 -28.4690 -28.1488 -1.7460 8.3157 -23.6771 0.1046 1.6934 9.8215 3.6254 2.5690 -2.7779 3.3608 1.3508 -8.6508 -1.3787 2.7715 -5.0659 2.5925 3.6817 3.1864 1.1610 1.8819 1.7830 0.0000 -0.0000 0.0000 -68.8719 -30.9936 38.5719 21.1155 -31.9629 -6.1110 -0.0000 -0.0000 27.0442 22.9441 27.6626 11.1189 -7.1250 0.0000 -0.0000 -8.5621 59.4247 -3.0300 0.0000 -0.0000 0.0000 66.6317 -38.7706 57.6816 -116.1881 57.2430 -82.4696 0.0000 -0.0000 -54.0622 -2.3018 -18.4019 0.7270 7.1250 -0.0000 -0.0000 24.3344 -46.8291 -1.1658
0.1200 13.8773 -28.8668 -10.5517 -25.7736 16.5928 0.0000 0.0000 0.0000 -5.5698 14.4129 -75.9017 18.9421 19.9731 86.9056 0.1317 17.0919 -25.3807 0.0982 2.0210 5.5638 0.0000 0.0000 0.0000 11.0447 -3.0475 15.8217 -1.6076 -7.9959 22.7016 2.4614 -29.6216 -26.2117 -1.5870 7.9470 -22.5532 -0.2928 1.5906 9.8223 3.6099 2.3779 -2.7546 3.6029 1.2788 -8.6305 -1.4405 2.6946 -4.9704 2.5689 3.5877 2.9269 1.1547 1.8326 1.6834 -0.0000 -0.0000 0.0000 -69.3050 -31.1244 38.8864 20.9037 -31.7158 -5.9992 -0.0000 -0.0000 27.1150 23.2467 27.9213 11.3732 -7.1250 0.0000 -0.0000 -8.3596 59.7607 -3.0249 -0.0000 -0.0000 0.0000 67.0188 -38.8757 57.3967 -114.8609 57.5307 -81.3517 0.0000 -0.0000 -54.7350 -2.1181 -18.4843 0.6718 7.1250 -0.0000 -0.0000 24.5341 -46.8801 -1.2092
0.1630 13.9710 -28.6106 -9.9559 -25.1243 16.4973 0.0000 0.0000 0.0000 -6.7366 13.7653 -74.6508 18.7045 19.9597 86.2098 0.2102 17.0550 -25.9882 0.0663 1.6609 4.5694 0.0000 0.0000 0.0000 11.0018 -2.2346 15.5289 -1.8602 -8.5685 24.4547 2.9494 -30.5545 -23.7970 -1.3658 7.3967 -20.8961 -0.7075 1.4661 9.7955 3.5910 2.1547 -2.7277 3.8575 1.1916 -8.5858 -1.5280 2.6104 -4.8940 2.5395 3.4834 2.8163 1.1541 1.7783 1.6356 -0.0000 -0.0000 0.0000 -69.8819 -31.2280 39.2515 20.6511 -31.4188 -5.8670 -0.0000 -0.0000 27.2116 23.5479 28.0519 11.5823 -7.1250 0.0000 -0.0000 -8.0901 59.9665 -2.9664 -0.0000 -0.0000 0.0000 67.4432 -38.9003 57.0506 -113.1195 57.8807 -79.8796 0.0000 -0.0000 -54.9984 -1.7159 -18.2561 0.5377 7.1250 -0.0000 -0.0000 24.7852 -46.6206 -1.0549
0.2124 14.0748 -28.3367 -9.3503 -24.5619 16.4842 0.0000 0.0000 0.0000 -7.9638 13.1577 -73.2779 18.4013 19.9386 85.3211 0.2984 16.9777 -26.6035 0.0291 1.1006 3.0256 0.0000 0.0000 0.0000 10.7476 -1.4548 14.1914 -2.3496 -9.5592 27.5606 3.3306 -31.1299 -20.6644 -1.0601 6.5462 -18.3777 -1.1005 1.3701 9.6071 3.5821 1.9731 -2.7246 4.1049 1.1230 -8.4732 -1.6190 2.5279 -4.8746 2.4731 3.3820 2.7977 1.1453 1.7251 1.6281 0.0000 -0.0000 0.0000 -70.5531 -31.2872 39.6055 20.4129 -31.1366 -5.7433 -0.0000 -0.0000 27.3580 23.4441 28.1119 11.5485 -7.1250 0.0000 -0.0000 -8.2387 60.0029 -3.0285 0.0000 -0.0000 0.0000 67.9313 -38.8036 56.5692 -110.8775 58.2873 -77.9764 0.0000 -0.0000 -55.0106 -0.9156 -17.6617 0.2778 7.1250 -0.0000 -0.0000 25.2195 -45.9807 -0.6520
0.2707 14.1836 -28.0554 -8.6513 -24.0500 16.6563 0.0000 0.0000 0.0000 -9.3204 12.4144 -71.9800 18.0378 19.9074 84.2545 0.3712 16.9597 -27.1523 0.0055 0.4786 1.3151 0.0000 0.0000 0.0000 10.2398 -0.5310 11.5285 -3.1873 -10.9923 32.2538 3.5684 -31.3566 -16.3266 -0.7059 5.3701 -14.9671 -1.5347 1.2681 9.2036 3.5696 1.7805 -2.7840 4.3753 1.0507 -8.3014 -1.6943 2.4581 -4.8699 2.3196 3.3003 2.7557 1.1067 1.6801 1.6165 0.0000 -0.0000 0.0000 -71.2325 -31.2715 39.8858 20.2554 -30.9488 -5.6621 -0.0000 -0.0000 27.4942 22.9000 28.0991 11.2525 -7.1250 0.0000 -0.0000 -8.8426 59.8595 -3.2222 0.0000 -0.0000 0.0000 68.4773 -38.5433 55.8649 -108.2277 58.7066 -75.7171 0.0000 -0.0000 -55.0930 0.5135 -16.7180 -0.1477 7.1250 -0.0000 -0.0000 26.0397 -44.9558 0.0305
0.3404 14.2892 -27.7766 -7.6696 -23.4310 16.7052 0.0000 0.0000 0.0000 -10.8693 11.2957 -70.5047 17.6172 19.8633 83.0180 0.4084 17.1288 -27.6405 0.0001 -0.0699 -0.1920 0.0000 0.0000 0.0000 9.4072 0.5043 7.8304 -4.4920 -12.7878 38.5792 3.4211 -30.7318 -9.7075 -0.3971 4.0459 -11.2058 -2.0773 1.0928 8.8766 3.5064 1.4761 -2.8336 4.6690 0.9272 -8.1514 -1.7560 2.4059 -4.8614 2.0928 3.2449 2.6210 1.0418 1.6468 1.5749 -0.0000 0.0000 0.0000 -71.7833 -31.2100 40.1179 20.2247 -30.9121 -5.6463 -0.0000 -0.0000 27.4740 22.3884 27.9778 10.9376 -7.1250 0.0000 -0.0000 -9.3476 59.6146 -3.3534 -0.0000 0.0000 0.0000 69.1243 -38.0909 54.8357 -105.5259 59.0693 -73.4038 0.0000 -0.0000 -55.3702 2.4081 -15.7414 -0.6537 7.1250 -0.0000 -0.0000 27.2273 -43.8621 0.8301
0.4191 14.3827 -27.5069 -6.2980 -22.5722 16.1281 0.0000 0.0000 0.0000 -12.5915 9.7814 -68.3431 17.1504 19.8042 81.6422 0.4166 17.4554 -28.0946 0.0067 -0.5275 -1.4494 0.0000 0.0000 0.0000 8.2827 1.5060 3.7457 -6.3443 -14.7539 46.3484 2.2361 -27.3000 0.5554 -0.2841 3.4281 -9.4731 -2.7565 0.8144 9.1354 3.3516 1.0052 -2.7376 4.9661 0.7263 -8.1620 -1.8035 2.3742 -4.8737 1.8508 3.2172 2.3707 0.9693 1.6276 1.4997 0.0000 0.0000 0.0000 -72.0518 -31.1841 40.4111 20.3320 -31.0403 -5.7016 -0.0000 -0.0000 27.1861 22.2900 27.7556 10.8079 -7.1250 0.0000 -0.0000 -9.3371 59.3658 -3.2940 0.0000 0.0000 0.0000 69.9504 -37.4495 53.4326 -103.1365 59.3378 -71.3512 0.0000 -0.0000 -55.6009 4.2714 -15.0882 -1.1138 7.1250 -0.0000 -0.0000 28.5013 -43.0751 1.4852
0.4925 14.4613 -27.2485 -4.6889 -21.5876 14.7870 0.0000 0.0000 0.0000 -14.3695 8.2609 -65.3313 16.6632 19.7309 80.2018 0.4070 17.8410 -28.4895 0.0227 -0.9724 -2.6729 0.0000 0.0000 0.0000 7.1564 2.5495 -0.4070 -8.7564 -16.6484 55.2438 0.1657 -18.4947 11.4636 -0.3711 3.9127 -10.8311 -3.6196 0.5229 10.1599 3.1333 0.4656 -2.4419 5.3194 0.5010 -8.3856 -1.8640 2.3557 -4.8410 1.6300 3.2060 2.0179 0.9041 1.6175 1.3833 0.0000 0.0000 0.0000 -71.9926 -31.2357 40.8323 20.5580 -31.3088 -5.8186 -0.0000 -0.0000 26.7399 22.3116 27.4999 10.7295 -7.1250 0.0000 -0.0000 -9.1778 59.1108 -3.1811 0.0000 0.0000 0.0000 71.0252 -36.6565 51.6822 -101.1290 59.5268 -69.6227 0.0000 -0.0000 -55.3502 5.7512 -14.9317 -1.4866 7.1250 -0.0000 -0.0000 29.6511 -42.7753 1.8018
0.5533 14.5196 -27.0001 -2.9345 -20.3854 13.2662 0.0000 0.0000 0.0000 -16.2065 6.5922 -62.1474 16.1963 19.6495 78.8161 0.3613 18.3251 -28.7479 0.0480 -1.4141 -3.8890 0.0000 0.0000 0.0000 6.2217 3.4023 -5.2123 -11.6648 -18.2453 64.9223 -0.9441 -7.5624 17.3780 -0.4931 4.5021 -12.4937 -4.6321 0.2031 11.3999 2.8674 -0.1644 -2.1342 5.7404 0.2420 -8.6958 -1.9703 2.3360 -4.7057 1.4679 3.1912 1.6422 0.8631 1.6068 1.2410 -0.0000 -0.0000 0.0000 -71.6471 -31.3472 41.3519 20.8550 -31.6587 -5.9736 -0.0000 -0.0000 26.3516 22.2975 27.2055 10.6186 -7.1250 0.0000 -0.0000 -9.0408 58.8079 -3.0674 -0.0000 -0.0000 0.0000 72.3298 -35.7350 49.7282 -99.3523 59.6669 -68.0903 0.0000 -0.0000 -54.4437 6.5836 -15.2095 -1.7343 7.1250 -0.0000 -0.0000 30.4542 -42.9263 1.7347
0.5992 14.5578 -26.7537 -1.0769 -19.1246 12.1248 0.0000 0.0000 0.0000 -18.1899 4.7930 -59.4085 15.7726 19.5660 77.5536 0.2766 18.9403 -28.9046 0.0825 -1.8525 -5.0981 0.0000 0.0000 0.0000 5.4009 3.8708 -11.2102 -14.9046 -19.3658 74.9490 -0.9137 -0.2338 17.9929 -0.5537 4.7665 -13.2437 -5.8374 -0.1108 12.2547 2.5379 -0.8313 -1.9641 6.2187 -0.0243 -8.9090 -2.1197 2.3043 -4.5392 1.4094 3.1574 1.3603 0.8623 1.5885 1.1222 -0.0000 -0.0000 0.0000 -71.0401 -31.4945 41.9122 21.1848 -32.0435 -6.1477 -0.0000 -0.0000 26.0914 22.2049 26.8170 10.4343 -7.1250 0.0000 -0.0000 -8.9460 58.3906 -2.9451 -0.0000 -0.0000 0.0000 73.8031 -34.6186 47.7790 -97.4790 59.7876 -66.4724 0.0000 -0.0000 -52.9993 6.5024 -15.8367 -1.7816 7.1250 -0.0000 -0.0000 30.6730 -43.4813 1.2797
0.6281 14.5846 -26.5042 0.8253 -18.2824 11.1646 0.0000 0.0000 0.0000 -20.3482 3.4706 -56.9118 15.3754 19.4793 76.3648 0.1802 19.6451 -29.1173 0.1253 -2.2817 -6.2848 0.0000 0.0000 0.0000 4.6677 4.2709 -18.0695 -18.1658 -19.9191 84.6302 -0.5276 2.4062 14.8073 -0.6475 5.1475 -14.3298 -7.3931 -0.2525 12.9117 2.1373 -1.3428 -1.8665 6.7941 -0.1960 -9.0902 -2.2549 2.2595 -4.3902 1.4245 3.1025 1.2065 0.8839 1.5607 1.0471 -0.0000 0.0000 0.0000 -70.1822 -31.6367 42.4447 21.5272 -32.4385 -6.3303 -0.0000 -0.0000 25.8500 22.0044 26.2892 10.1476 -7.1250 0.0000 -0.0000 -8.9055 57.8068 -2.8064 -0.0000 0.0000 0.0000 75.2783 -33.2409 46.1320 -95.2845 59.8942 -64.5749 0.0000 -0.0000 -51.4635 5.5919 -16.9655 -1.6365 7.1250 -0.0000 -0.0000 30.4492 -44.5693 0.3585
0.6387 14.6062 -26.2472 2.6785 -17.8725 9.9614 0.0000 0.0000 0.0000 -22.5479 2.9264 -54.1875 14.9879 19.3867 75.2001 0.1066 20.3251 -29.4907 0.1734 -2.6828 -7.3968 0.0000 0.0000 0.0000 4.2996 4.8197 -25.1087 -21.0644 -19.9728 93.1135 -0.2479 1.3571 10.0016 -0.6873 5.3001 -14.7666 -9.2137 -0.1758 13.7852 1.6817 -1.6569 -1.7158 7.4319 -0.2547 -9.3545 -2.3208 2.1899 -4.2597 1.4714 3.0096 1.1426 0.9047 1.5146 1.0051 -0.0000 -0.0000 0.0000 -69.1400 -31.7994 42.9501 21.8309 -32.7854 -6.4940 -0.0000 -0.0000 25.4821 21.7354 25.7266 9.8179 -7.1250 0.0000 -0.0000 -8.9289 57.1731 -2.6772 -0.0000 -0.0000 0.0000 76.6303 -31.6101 45.0402 -93.0530 59.9648 -62.6437 0.0000 -0.0000 -50.6630 3.9005 -19.0781 -1.2767 7.1250 -0.0000 -0.0000 30.0623 -46.6201 -1.3197
0.6362 14.6171 -25.9787 4.3208 -17.3256 8.5818 0.0000 0.0000 0.0000 -24.5070 2.6995 -51.2294 14.6385 19.2964 74.1454 0.0831 20.8497 -30.0297 0.2212 -3.0278 -8.3563 0.0000 0.0000 0.0000 4.6794 5.3510 -32.0597 -23.3207 -19.7335 99.7506 -0.0704 -1.5459 4.7132 -0.5977 4.9494 -13.7642 -10.8639 -0.0567 14.8266 1.2232 -1.9388 -1.5011 7.9672 -0.3052 -9.6411 -2.3232 2.0574 -4.1365 1.5529 2.8287 1.1143 0.9247 1.4252 0.9778 -0.0000 0.0000 0.0000 -68.1135 -32.1445 43.4732 21.9362 -32.9049 -6.5512 -0.0000 -0.0000 25.0334 21.5147 25.2492 9.5450 -7.1250 0.0000 -0.0000 -8.9457 56.6377 -2.5663 -0.0000 0.0000 0.0000 77.7881 -29.8690 44.6300 -91.8467 59.9871 -61.5992 0.0000 -0.0000 -51.1983 1.1690 -22.3033 -0.4437 7.1250 -0.0000 -0.0000 29.4163 -49.8180 -3.7862
0.6241 14.6151 -25.6889 5.4993 -16.3001 7.2617 0.0000 0.0000 0.0000 -25.9221 2.4662 -48.1669 14.3652 19.2211 73.3166 0.1352 21.1399 -30.7744 0.2702 -3.3437 -9.2370 0.0000 0.0000 0.0000 6.0401 5.9297 -38.7362 -24.8025 -19.4378 104.1690 0.0632 -4.4742 -1.2034 -0.4738 4.4143 -12.2454 -11.9505 -0.0077 15.7864 0.8562 -2.2210 -1.2306 8.2761 -0.3919 -9.8145 -2.3513 1.8178 -4.0274 1.7142 2.5047 1.1162 0.9723 1.2651 0.9647 0.0000 0.0000 0.0000 -67.4430 -32.9228 44.1127 21.5817 -32.5010 -6.3596 -0.0000 -0.0000 24.8291 21.3455 24.7164 9.2803 -7.1250 0.0000 -0.0000 -8.8884 56.0573 -2.4244 0.0000 0.0000 0.0000 78.6929 -28.2584 44.8514 -93.1384 59.9627 -62.7176 0.0000 -0.0000 -52.3954 -2.2442 -25.6838 0.9730 7.1250 -0.0000 -0.0000 28.3658 -53.3381 -6.2108
0.6022 14.6020 -25.3742 6.1748 -14.9724 5.9828 0.0000 0.0000 0.0000 -26.7746 2.3920 -45.0003 14.1658 19.1636 72.7102 0.2575 21.2484 -31.7206 0.3292 -3.6874 -10.1988 0.0000 0.0000 0.0000 8.0637 7.0253 -44.8428 -25.4853 -19.2628 106.2296 0.0647 -6.2580 -6.9050 -0.4165 4.1426 -11.4783 -12.5525 0.0860 16.6318 0.6458 -2.3321 -0.9071 8.4394 -0.4269 -9.8994 -2.4582 1.4333 -3.8950 1.8986 1.9898 1.1711 1.0377 1.0093 0.9686 0.0000 -0.0000 0.0000 -67.5077 -34.3631 45.0942 20.5514 -31.3009 -5.8151 -0.0000 -0.0000 25.3725 21.1068 23.7075 8.8219 -7.1250 0.0000 -0.0000 -8.7124 54.9751 -2.1463 0.0000 -0.0000 0.0000 79.2521 -26.8991 45.5589 -97.9168 59.7618 -66.8507 0.0000 -0.0000 -52.9858 -5.0956 -28.1297 2.4073 7.1250 -0.0000 -0.0000 27.3401 -56.0272 -7.8095
0.5696 14.5773 -25.0380 6.6593 -13.3663 4.7470 0.0000 0.0000 0.0000 -27.3896 2.3689 -41.7514 13.9956 19.1127 72.1911 0.4100 21.2936 -32.7388 0.4055 -4.0882 -11.3251 0.0000 0.0000 0.0000 9.8540 8.5753 -50.3578 -25.4439 -19.2741 106.1041 -0.0715 -6.6401 -11.0731 -0.4389 4.2513 -11.7846 -12.9876 0.2636 17.3115 0.5407 -2.2725 -0.5911 8.5788 -0.3904 -9.9346 -2.6439 0.8944 -3.7157 2.0517 1.2708 1.3377 1.1043 0.6499 1.0061 -0.0000 -0.0000 0.0000 -68.5004 -36.4870 46.7800 18.9164 -29.3146 -4.9898 -0.0000 -0.0000 27.2354 20.6301 21.9474 8.0095 -7.1250 0.0000 -0.0000 -8.5223 53.0754 -1.7029 -0.0000 -0.0000 0.0000 79.4206 -25.4282 46.5865 -105.8099 59.0342 -73.6473 0.0000 -0.0000 -53.2063 -5.0036 -28.1782 2.3674 7.1250 -0.0000 -0.0000 27.4649 -56.0517 -7.8659
0.5261 14.5490 -24.6838 7.2935 -11.3870 3.5356 0.0000 0.0000 0.0000 -28.1270 2.2316 -38.3242 13.7757 19.0446 71.5184 0.5731 21.2861 -33.7139 0.4949 -4.5104 -12.5171 0.0000 0.0000 0.0000 10.5940 10.1174 -55.3162 -24.7775 -19.4437 104.0940 -0.2558 -5.7121 -13.3476 -0.4929 4.5014 -12.4916 -13.5149 0.4806 17.8506 0.4219 -2.1698 -0.3284 8.7384 -0.3283 -9.9572 -2.9183 0.2205 -3.5023 2.2509 0.3708 1.6912 1.1989 0.1995 1.1045 -0.0000 0.0000 0.0000 -70.3603 -38.8817 49.6423 17.2084 -27.1317 -4.1819 -0.0000 -0.0000 30.9223 19.1734 19.9474 6.7651 -7.1250 0.0000 -0.0000 -9.2737 50.7684 -1.3280 -0.0000 0.0000 0.0000 79.2168 -23.0679 47.7259 -115.3021 57.4371 -81.7237 0.0000 -0.0000 -54.3631 -5.0139 -25.7421 2.1822 7.1250 -0.0000 -0.0000 25.7866 -53.8879 -5.9389
0.4738 14.5320 -24.3102 8.0768 -8.9917 2.3338 0.0000 0.0000 0.0000 -28.9921 1.9694 -34.5875 13.4533 18.9398 70.5276 0.7563 21.1541 -34.6224 0.5836 -4.8914 -13.5990 0.0000 0.0000 0.0000 10.1383 11.1898 -59.4979 -23.5246 -19.6995 100.3551 -0.4326 -3.6267 -14.2886 -0.5252 4.6442 -12.8964 -14.0781 0.6838 18.2960 0.2516 -2.0912 -0.1012 8.8603 -0.2780 -9.9614 -3.3353 -0.5655 -3.2975 2.6202 -0.6816 2.2498 1.3706 -0.3263 1.2818 -0.0000 -0.0000 0.0000 -72.7826 -40.8063 54.3863 16.2847 -25.9052 -3.7695 -0.0000 -0.0000 36.5923 15.3809 18.8163 5.0703 -7.1250 0.0000 -0.0000 -12.5335 49.0310 -1.2640 -0.0000 -0.0000 0.0000 78.6408 -19.0775 48.5325 -124.5474 54.9711 -89.4137 0.0000 -0.0000 -55.6257 -1.1614 -23.2766 0.4590 7.1250 -0.0000 -0.0000 27.8743 -51.0365 -4.4405
0.4165 14.5266 -23.9153 8.7002 -6.2118 1.2543 0.0000 0.0000 0.0000 -29.6378 1.5818 -30.6657 13.0610 18.8041 69.3149 0.9599 20.9024 -35.4799 0.6671 -5.2232 -14.5462 0.0000 0.0000 0.0000 8.9085 11.5852 -62.7226 -21.7165 -19.9292 95.0243 -0.5468 -0.8216 -14.2903 -0.4906 4.4910 -12.4623 -14.4164 0.8279 18.6000 0.1488 -2.0172 0.0939 8.9254 -0.2415 -9.9234 -3.9277 -1.4456 -3.1275 3.1002 -1.8613 2.9604 1.6060 -0.9161 1.5340 0.0000 -0.0000 0.0000 -75.5092 -41.6477 60.8478 16.7704 -26.5542 -3.9842 -0.0000 -0.0000 44.5316 8.4202 17.7624 2.5857 -7.1250 0.0000 -0.0000 -18.5875 47.0329 -0.9647 0.0000 -0.0000 0.0000 77.5335 -13.1012 48.4326 -131.8692 52.2132 -95.3109 0.0000 -0.0000 -54.2701 8.2192 -20.4630 -2.8909 7.1250 -0.0000 -0.0000 34.4802 -47.2218 -2.1378
0.3551 14.5350 -23.5001 8.8795 -3.1257 0.4225 0.0000 0.0000 0.0000 -29.7195 1.0616 -26.7779 12.6424 18.6492 68.0111 1.1944 20.5085 -36.3278 0.7435 -5.5080 -15.3633 0.0000 0.0000 0.0000 7.3779 11.3529 -64.8629 -19.3843 -19.9909 88.1995 -0.5017 2.0461 -12.8310 -0.3682 3.8974 -10.7882 -14.3299 0.8839 18.6949 0.2575 -1.9163 0.2126 8.9762 -0.2047 -9.8641 -4.7417 -2.3982 -2.9503 3.5859 -3.1358 3.7193 1.8791 -1.5569 1.8276 0.0000 0.0000 0.0000 -78.6643 -40.9655 66.6552 18.8028 -29.1729 -4.9344 -0.0000 -0.0000 55.2375 1.2643 13.8871 0.3035 -7.1250 0.0000 -0.0000 -23.3867 42.5815 1.4845 0.0000 0.0000 0.0000 75.7442 -5.1826 46.6809 -136.1557 50.1896 -98.6528 0.0000 -0.0000 -49.5802 19.9226 -14.5252 -5.1940 7.1250 -0.0000 -0.0000 40.3214 -40.8013 5.1713
0.2884 14.5573 -23.0669 8.6802 0.0734 -0.2439 0.0000 0.0000 0.0000 -29.2697 0.5715 -22.9938 12.1983 18.4732 66.6159 1.4644 19.9444 -37.1704 0.8093 -5.7411 -16.0350 0.0000 0.0000 0.0000 5.6103 10.7592 -65.6866 -16.6118 -19.7225 80.0493 -0.2505 4.4223 -8.9617 -0.2121 2.9650 -8.1814 -13.9114 0.8937 18.5891 0.5695 -1.7584 0.2355 9.0493 -0.1451 -9.8171 -5.8237 -3.3773 -2.6099 4.0711 -4.4472 4.3606 2.1991 -2.2234 2.0871 0.0000 0.0000 0.0000 -82.2134 -38.1837 69.6086 22.5078 -33.5462 -6.8644 -0.0000 -0.0000 65.1219 -0.5959 7.9720 -0.0826 -7.1250 0.0000 -0.0000 -22.9668 36.9821 4.8478 0.0000 0.0000 0.0000 73.3653 4.3648 42.5716 -136.6580 49.9299 -99.0379 0.0000 -0.0000 -43.9312 30.5225 -6.6881 -3.9280 7.1250 -0.0000 -0.0000 42.7894 -32.6686 17.6426
0.2156 14.5875 -22.6167 8.3827 3.1418 -0.9138 0.0000 0.0000 0.0000 -28.5671 0.4084 -19.2650 11.6999 18.2609 65.0344 1.7599 19.2269 -37.9862 0.8461 -5.8668 -16.3984 0.0000 0.0000 0.0000 3.4178 10.1548 -65.0067 -13.5622 -18.9758 70.8629 0.0571 5.8740 -2.1933 -0.0864 1.8954 -5.2167 -13.3919 0.9602 18.2898 0.9500 -1.4741 0.1958 9.1040 -0.0256 -9.7651 -7.1230 -4.3427 -1.8905 4.5351 -5.7600 4.7287 2.5585 -2.9005 2.2225 -0.0000 0.0000 0.0000 -85.4603 -32.9297 70.2277 28.2445 -39.3403 -10.2783 -0.0000 -0.0000 65.7959 1.9269 4.4319 0.1490 -7.1250 0.0000 -0.0000 -20.0515 33.8424 5.7922 -0.0000 0.0000 0.0000 70.6952 14.9851 36.2352 -132.3846 51.9873 -95.7176 0.0000 -0.0000 -39.9891 45.2659 1.0788 1.0886 7.1250 -0.0000 -0.0000 43.5171 -19.5539 40.8808
0.1404 14.6243 -22.1507 8.2104 5.8483 -1.6328 0.0000 0.0000 0.0000 -27.8402 0.8557 -15.5692 11.1104 17.9887 63.1397 2.0449 18.4696 -38.7153 0.8423 -5.8541 -16.3615 0.0000 0.0000 0.0000 0.7476 9.8264 -62.8723 -10.4622 -17.6617 61.0224 0.0608 6.1085 6.7723 -0.0148 0.7852 -2.1579 -12.8891 1.1956 17.7644 1.2514 -0.9513 0.1370 9.0099 0.2033 -9.6682 -8.4679 -5.2956 -0.8985 4.8856 -7.0883 4.9618 2.8978 -3.5941 2.2893 0.0000 -0.0000 0.0000 -87.8562 -25.3143 70.4978 36.6038 -45.9239 -15.9547 -0.0000 -0.0000 51.3004 2.1285 4.9699 0.1845 -7.1250 0.0000 -0.0000 -20.0197 34.3586 5.5149 0.0000 -0.0000 0.0000 67.8907 25.8220 28.8600 -121.7428 55.8274 -87.1049 0.0000 -0.0000 -38.9901 62.4372 3.7255 7.0959 7.1250 -0.0000 -0.0000 44.5005 13.0582 81.6732
0.0671 14.6631 -21.6739 8.2582 8.1631 -2.3068 0.0000 0.0000 0.0000 -27.1884 1.8963 -11.9935 10.4402 17.6501 60.9498 2.2644 17.8716 -39.2684 0.8041 -5.7230 -15.9827 0.0000 0.0000 0.0000 -2.2488 9.8365 -59.6660 -7.6175 -15.8306 51.1728 -0.4766 5.2158 15.9968 -0.0054 -0.4729 1.2995 -12.4525 1.5631 17.0805 1.3654 -0.2687 0.0980 8.6984 0.5007 -9.4956 -9.5529 -6.2054 -0.2338 5.0179 -8.3534 5.4138 3.1084 -4.2570 2.4846 -0.0000 0.0000 0.0000 -89.1507 -15.5360 71.1665 49.5334 -52.8056 -25.8020 -0.0000 -0.0000 22.8929 -0.9338 14.3744 -0.2318 -7.1250 0.0000 -0.0000 -25.4249 42.7963 1.4875 -0.0000 0.0000 0.0000 64.8668 35.9835 21.5618 -102.2653 59.4239 -70.6015 0.0000 -0.0000 -38.6907 72.0603 -0.0536 -0.1655 7.1250 -0.0000 -0.0000 52.5907 31.7807 100.8174
-0.0066 14.6846 -21.1932 8.5351 10.3568 -2.8790 0.0000 0.0000 0.0000 -26.6215 3.1719 -8.6335 9.7837 17.2864 58.7629 2.3536 17.7572 -39.5993 0.7644 -5.5831 -15.5795 0.0000 0.0000 0.0000 -5.3685 9.9990 -55.8971 -5.3670 -13.7856 42.3853 -1.3298 3.3042 23.1958 -0.0732 -1.7451 4.8019 -12.1770 1.9100 16.5639 1.2172 0.3022 0.0772 8.2198 0.7479 -9.3613 -10.1399 -7.0318 -0.3680 5.0422 -9.4509 6.1892 3.1616 -4.8247 2.9045 -0.0000 0.0000 0.0000 -89.1788 -3.6969 70.6964 70.1813 -58.4626 -42.9251 -0.0000 0.0000 -11.5421 0.9239 34.7697 0.5269 -7.1250 0.0000 -0.0000 -37.3916 60.6867 -15.5391 -0.0000 0.0000 0.0000 61.2863 45.0911 14.6864 -73.2360 58.9110 -45.5350 0.0000 -0.0000 -33.1532 63.8415 -6.2987 -12.5916 7.1250 -0.0000 -0.0000 43.0753 -0.4394 68.8051
-0.0976 14.6687 -20.7197 8.9468 13.0601 -3.3853 0.0000 0.0000 0.0000 -26.0025 4.0286 -5.5424 9.2827 16.9862 57.0627 2.2821 18.3233 -39.7288 0.7460 -5.5173 -15.3900 0.0000 0.0000 0.0000 -8.4380 9.9495 -51.9678 -3.9175 -12.0499 35.9086 -2.0779 0.0657 27.3255 -0.1741 -2.6876 7.4102 -12.3056 2.1713 16.5757 0.9398 0.5990 0.1063 7.9055 0.8893 -9.4039 -10.4144 -7.9121 -0.9100 5.4935 -10.6246 6.9924 2.9314 -5.3866 3.0820 -0.0000 -0.0000 0.0000 -88.1560 8.7271 66.9607 90.8908 -59.9970 -60.7714 -0.0000 0.0000 -36.3909 -7.2238 47.4233 -5.3323 -7.1250 0.0000 -0.0000 -64.1865 66.6856 -39.8087 -0.0000 -0.0000 0.0000 55.4549 53.5438 7.2105 -43.4532 49.9878 -21.0472 0.0000 -0.0000 -19.0484 34.3457 -10.8972 -7.3607 7.1250 -0.0000 -0.0000 46.7254 -35.5074 15.7096
-0.2165 14.6107 -20.2587 9.2017 16.4416 -3.6559 0.0000 0.0000 0.0000 -24.9913 4.1495 -3.1424 9.0549 16.8429 56.2796 2.1165 19.3987 -39.8696 0.7157 -5.4064 -15.0715 0.0000 0.0000 0.0000 -10.8730 9.4352 -48.5999 -3.2592 -11.1033 32.6290 -2.5556 -3.5277 29.4012 -0.2576 -3.2656 9.0190 -12.6899 2.4212 16.5960 0.7874 0.8540 0.3024 7.8892 1.0067 -9.2586 -10.9968 -9.0391 -1.2465 6.0813 -12.1234 6.8156 3.0887 -6.1184 3.2745 0.0000 -0.0000 0.0000 -85.9859 18.9234 63.0073 103.3315 -59.3177 -71.5190 -0.0000 0.0000 -47.9532 -24.8910 53.0683 -20.3495 -7.1250 0.0000 -0.0000 -86.8953 63.2153 -56.2666 0.0000 -0.0000 0.0000 43.8196 61.1582 -5.9278 -22.1859 33.1865 -6.6873 0.0000 0.0000 2.4745 -2.0817 -12.2424 0.4416 7.1250 -0.0000 -0.0000 22.1191 -41.1452 2.2262
-0.3608 14.5127 -19.8054 9.1674 20.1623 -3.4830 0.0000 0.0000 0.0000 -23.4837 3.6018 -1.8070 9.1202 16.8844 56.5048 1.9682 20.6436 -40.2930 0.6118 -5.0060 -13.9258 0.0000 0.0000 0.0000 -11.7688 7.8277 -46.6827 -3.2740 -11.1259 32.7058 -2.5895 -4.8249 29.3731 -0.2476 -3.2019 8.8414 -13.0432 2.7901 16.3373 0.8439 1.3355 0.5087 8.0349 1.2291 -9.0040 -11.9961 -10.3341 -1.1139 6.8686 -13.8703 5.8980 3.3730 -6.9777 3.2493 0.0000 0.0000 0.0000 -82.7050 25.3557 61.5146 107.9108 -58.7525 -75.4462 -0.0000 0.0000 -49.5152 -25.8682 51.6970 -20.8324 -7.1250 0.0000 -0.0000 -85.0282 62.5503 -53.2718 0.0000 0.0000 0.0000 26.3892 64.5872 -30.7675 -9.9540 16.6676 -1.4617 0.0000 0.0000 31.7910 -18.1429 -17.1158 5.5084 7.1250 -0.0000 -0.0000 9.3915 -47.7110 -0.6335
-0.5196 14.3879 -19.3518 8.9508 23.6478 -2.8161 0.0000 0.0000 0.0000 -21.6512 2.6376 -1.4252 9.3534 17.0298 57.3045 1.9090 21.6894 -40.9922 0.4484 -4.2961 -11.9113 0.0000 0.0000 0.0000 -10.9504 5.0425 -46.6664 -3.8360 -11.9389 35.5162 -1.9188 -3.0397 25.4201 -0.1806 -2.7375 7.5488 -13.3227 3.1806 15.9589 0.8720 1.8593 0.4679 8.0970 1.4941 -8.9741 -12.9538 -11.3872 -0.8680 7.9127 -15.3192 4.8696 3.7436 -7.6838 3.1887 -0.0000 -0.0000 0.0000 -79.1424 29.2790 61.7573 110.2513 -58.3922 -77.4435 -0.0000 0.0000 -47.9269 -2.1181 45.2432 -1.5044 -7.1250 0.0000 -0.0000 -55.7628 67.1360 -33.7236 -0.0000 -0.0000 0.0000 15.6536 62.0488 -48.7325 -6.1661 10.5389 -0.5692 0.0000 0.0000 51.9239 -18.3937 -16.8268 5.4985 7.1250 -0.0000 -0.0000 9.0752 -47.4497 -0.5529
-0.6785 14.2673 -18.9057 8.8056 26.5370 -1.8996 0.0000 0.0000 0.0000 -19.8796 1.4050 -1.3407 9.5499 17.1488 57.9731 1.8506 22.4609 -41.4623 0.3326 -3.7062 -10.2515 0.0000 0.0000 0.0000 -9.8034 2.4308 -48.1125 -4.7940 -13.1479 39.9248 -1.0571 -0.8846 19.1618 -0.0796 -1.8200 5.0085 -13.8146 3.3458 15.8380 0.6657 1.9705 0.2157 8.1148 1.5932 -9.2308 -13.3643 -11.9717 -0.8077 9.1827 -16.1504 4.0311 4.1293 -8.0702 3.1509 -0.0000 0.0000 0.0000 -76.7616 32.6700 60.9710 113.5923 -57.7887 -80.2798 -0.0000 0.0000 -45.0732 5.2973 37.8158 3.2537 -7.1250 0.0000 -0.0000 -36.7173 64.2162 -18.2609 -0.0000 0.0000 0.0000 14.4451 57.4234 -33.1190 -7.8355 13.2859 -0.9140 0.0000 0.0000 34.9736 -17.2736 -17.3016 5.2837 7.1250 -0.0000 -0.0000 10.2621 -47.7783 -0.7105
-0.8074 14.1638 -18.4931 8.7616 28.2444 -0.9601 0.0000 0.0000 0.0000 -18.4259 0.5027 -1.1454 9.5939 17.1751 58.1222 1.7157 23.1408 -41.5234 0.3028 -3.5379 -9.7800 0.0000 0.0000 0.0000 -9.3103 1.1881 -50.5252 -5.9484 -14.3781 44.7742 -0.5938 0.1587 14.6191 -0.0192 -0.8941 2.4576 -14.3482 3.2471 15.6951 0.3169 1.7154 -0.0182 8.0875 1.5065 -9.3601 -13.2206 -12.1810 -0.7127 10.1474 -16.4640 3.1925 4.3957 -8.2053 2.9908 -0.0000 0.0000 0.0000 -76.4402 36.2094 59.7551 118.9012 -56.5957 -84.7431 -0.0000 0.0000 -45.1558 5.2037 35.4226 3.0216 -7.1250 0.0000 -0.0000 -33.8914 62.2726 -15.1531 -0.0000 0.0000 0.0000 15.0435 55.6333 -23.5567 -10.6598 17.7649 -1.6706 0.0000 0.0000 17.9505 -20.0788 -20.1678 7.1827 7.1250 -0.0000 -0.0000 8.4584 -51.1457 -1.2884
-0.8873 14.0593 -18.1335 8.7842 28.5370 -0.3921 0.0000 0.0000 0.0000 -17.4001 0.6352 -0.4783 9.5067 17.1230 57.8265 1.5465 23.8648 -41.4982 0.3169 -3.6184 -10.0056 0.0000 0.0000 0.0000 -9.2524 1.0501 -53.0776 -7.1036 -15.4186 49.2652 -0.3997 1.4184 12.5424 -0.0026 0.3269 -0.8982 -14.5333 3.2285 15.6510 -0.0225 1.6200 -0.1812 7.8304 1.4768 -9.4926 -12.8596 -12.2549 -0.2847 10.2827 -16.5892 2.5373 4.4249 -8.2735 2.7228 0.0000 -0.0000 0.0000 -77.8872 38.8247 58.0321 122.6792 -55.5527 -87.8784 -0.0000 0.0000 -46.6746 8.7853 34.8630 5.0484 -7.1250 0.0000 -0.0000 -29.6126 62.7221 -13.3566 0.0000 -0.0000 0.0000 15.4528 56.5105 -23.1312 -11.7698 19.4586 -2.0250 0.0000 0.0000 12.6815 -20.8408 -21.3443 7.8885 7.1250 -0.0000 -0.0000 8.0961 -52.4922 -1.5009
-0.9334 13.9611 -17.8289 8.8324 28.0766 -0.3351 0.0000 0.0000 0.0000 -16.6706 1.5999 0.7060 9.3212 17.0100 57.1944 1.3489 24.6114 -41.3960 0.3237 -3.6568 -10.1131 0.0000 0.0000 0.0000 -8.8649 0.8669 -55.0163 -8.1234 -16.2093 53.0059 -0.2403 2.9412 10.8248 -0.0359 1.2229 -3.3624 -14.2928 3.4521 15.9810 -0.3027 1.8697 -0.2869 7.3048 1.6029 -9.8434 -12.7007 -12.3280 0.2885 10.1049 -16.7403 2.4570 4.3810 -8.3662 2.5952 0.0000 -0.0000 0.0000 -79.5151 39.5826 56.0219 124.0568 -55.1283 -89.0116 -0.0000 0.0000 -48.7293 13.0931 35.4414 7.6809 -7.1250 0.0000 -0.0000 -25.6719 64.3629 -12.4284 0.0000 -0.0000 0.0000 15.5432 58.0668 -27.2064 -10.9099 18.1501 -1.7478 0.0000 0.0000 18.1465 -19.2348 -20.9943 7.1255 7.1250 -0.0000 -0.0000 9.5738 -51.8494 -1.6271
-0.9734 13.9097 -17.5638 9.0018 27.6729 -0.3014 0.0000 0.0000 0.0000 -16.1687 2.6162 1.9114 9.0361 16.8309 56.2150 1.0924 25.2483 -40.9353 0.3123 -3.5925 -9.9328 0.0000 0.0000 0.0000 -8.2378 0.1851 -56.4041 -8.9492 -16.7749 55.9144 -0.1038 4.3182 9.1781 -0.0745 1.7605 -4.8441 -14.0176 3.7568 16.4794 -0.5697 2.2064 -0.4017 6.7427 1.7737 -10.3155 -12.7808 -12.4294 0.6167 10.1842 -16.9505 3.0052 4.4013 -8.4804 2.7441 0.0000 0.0000 0.0000 -80.0659 38.6415 54.6197 123.5269 -55.2944 -88.5764 -0.0000 0.0000 -49.4370 13.8741 37.3328 8.5189 -7.1250 0.0000 -0.0000 -27.0598 66.2311 -14.3070 0.0000 0.0000 0.0000 15.9533 58.9117 -31.6457 -9.7286 16.3139 -1.3977 0.0000 0.0000 26.1485 -18.1409 -20.7699 6.6273 7.1250 -0.0000 -0.0000 10.5706 -51.4341 -1.6911
-1.0159 13.9013 -17.3215 9.1744 27.4202 0.3186 0.0000 0.0000 0.0000 -15.7319 3.3319 2.4056 8.7002 16.6109 55.0476 0.8708 25.5831 -40.3005 0.2777 -3.3896 -9.3655 0.0000 0.0000 0.0000 -7.5860 -0.6175 -57.9551 -9.5945 -17.1754 58.1243 -0.0071 5.3120 7.7978 -0.0882 1.9154 -5.2720 -13.8500 3.9649 16.4238 -0.7966 2.4842 -0.6081 6.3110 1.9121 -10.5644 -12.9566 -12.5281 0.6548 10.4829 -17.1422 3.6076 4.4774 -8.5743 2.9820 0.0000 0.0000 0.0000 -79.6380 36.8283 54.5698 121.4187 -55.9199 -86.8367 -0.0000 0.0000 -48.1582 11.3751 39.4577 7.2859 -7.1250 0.0000 -0.0000 -32.7168 67.2696 -18.3166 0.0000 0.0000 0.0000 16.5435 58.9158 -32.4418 -9.2662 15.5836 -1.2707 0.0000 0.0000 27.3526 -18.5027 -21.0824 6.8640 7.1250 -0.0000 -0.0000 10.3292 -51.8127 -1.7483
-1.0566 13.9128 -17.0968 9.1900 27.1669 1.4456 0.0000 0.0000 0.0000 -15.1983 3.8336 2.2218 8.3511 16.3715 53.8175 0.7452 25.6077 -39.7424 0.2346 -3.1173 -8.6056 0.0000 0.0000 0.0000 -6.9279 -1.1415 -59.7516 -10.0930 -17.4618 59.7987 0.0579 5.9813 6.6473 -0.0831 1.8591 -5.1163 -13.7442 4.0575 15.6772 -0.8853 2.7233 -0.8521 6.1043 2.0219 -10.4576 -13.1499 -12.5670 0.6650 10.7314 -17.2114 3.6340 4.5689 -8.6074 3.0353 -0.0000 -0.0000 0.0000 -78.9779 35.0033 55.5496 118.5987 -56.6719 -84.4905 -0.0000 0.0000 -46.9093 7.7340 40.6857 5.0595 -7.1250 0.0000 -0.0000 -38.4194 67.1314 -21.7493 -0.0000 -0.0000 0.0000 16.7279 58.6239 -30.6368 -9.2373 15.5379 -1.2629 0.0000 0.0000 24.4983 -19.7207 -21.8988 7.6150 7.1250 -0.0000 -0.0000 9.4200 -52.8595 -1.8347
-1.0909 13.9367 -16.8975 8.9981 27.0041 2.5014 0.0000 0.0000 0.0000 -14.4964 4.1659 2.0790 7.9586 16.0887 52.4135 0.6469 25.4813 -39.1227 0.2177 -3.0039 -8.2897 0.0000 0.0000 0.0000 -6.1618 -1.5251 -61.2578 -10.4622 -17.6617 61.0223 0.0998 6.4106 5.6788 -0.0699 1.7054 -4.6922 -13.5860 4.0351 14.8744 -0.8046 2.8505 -1.0122 6.0978 2.0704 -10.2005 -13.3432 -12.5063 0.7901 10.8737 -17.1123 3.0519 4.6724 -8.5627 2.8584 -0.0000 0.0000 0.0000 -78.5730 33.6664 56.7468 116.0804 -57.2670 -82.3791 -0.0000 0.0000 -47.4752 4.9032 41.1532 3.2312 -7.1250 0.0000 -0.0000 -42.0025 66.6259 -23.5931 -0.0000 0.0000 0.0000 16.5460 58.5356 -29.1845 -9.2214 15.5126 -1.2587 0.0000 0.0000 23.9210 -20.3000 -22.7187 8.1304 7.1250 -0.0000 -0.0000 9.1474 -53.8052 -1.9931
-1.1175 13.9713 -16.7288 8.7585 26.9798 3.2447 0.0000 0.0000 0.0000 -13.7599 4.3517 2.4284 7.4816 15.7244 50.6732 0.5558 25.1914 -38.3265 0.2445 -3.1820 -8.7860 0.0000 0.0000 0.0000 -5.3977 -1.9515 -62.2359 -10.7248 -17.7978 61.8846 0.1286 6.7353 4.8695 -0.0513 1.4619 -4.0206 -13.3886 3.9118 14.4323 -0.6758 2.8019 -1.0650 6.1594 2.0326 -9.9897 -13.4514 -12.3884 0.9879 10.9344 -16.9309 2.3113 4.7584 -8.4788 2.5983 0.0000 -0.0000 0.0000 -78.3898 32.8643 57.6339 114.1204 -57.6833 -80.7264 -0.0000 0.0000 -49.4206 4.1539 41.4090 2.7502 -7.1250 0.0000 -0.0000 -43.1526 66.5854 -24.3010 0.0000 -0.0000 0.0000 16.5093 58.8186 -28.9117 -9.1694 15.4300 -1.2448 0.0000 0.0000 25.2188 -20.0115 -23.0037 8.1002 7.1250 -0.0000 -0.0000 9.5540 -54.0417 -2.1383
-1.1390 14.0082 -16.5868 8.6608 26.9990 3.8972 0.0000 0.0000 0.0000 -13.1780 4.4383 3.1407 6.9187 15.2630 48.5660 0.4836 24.7710 -37.4466 0.3209 -3.6413 -10.0697 0.0000 0.0000 0.0000 -4.8215 -2.3978 -62.9989 -10.9293 -17.9003 62.5518 0.1487 7.0003 4.2420 -0.0298 1.1141 -3.0628 -13.2845 3.7515 14.2254 -0.6218 2.6426 -1.1000 6.2084 1.9488 -9.8721 -13.4489 -12.3011 1.1436 10.9318 -16.8030 1.8750 4.7935 -8.4195 2.4275 0.0000 0.0000 0.0000 -78.1852 32.4390 58.1664 112.5162 -57.9949 -79.3683 -0.0000 0.0000 -51.0713 4.8719 42.1757 3.2754 -7.1250 0.0000 -0.0000 -43.7527 67.3450 -25.4181 0.0000 0.0000 0.0000 16.7461 59.3369 -29.4498 -9.1048 15.3272 -1.2277 0.0000 0.0000 25.9076 -19.5516 -22.7465 7.8186 7.1250 -0.0000 -0.0000 9.9185 -53.6928 -2.1363
-1.1577 14.0402 -16.4625 8.8369 26.9976 4.6752 0.0000 0.0000 0.0000 -12.8839 4.4799 4.0174 6.2947 14.7079 46.1531 0.4220 24.3223 -36.5688 0.4625 -4.3625 -12.0989 0.0000 0.0000 0.0000 -4.5696 -2.8145 -63.8354 -11.1254 -17.9959 63.1882 0.1621 7.2004 3.7796 -0.0109 0.6753 -1.8558 -13.4273 3.6239 14.0315 -0.6705 2.4699 -1.1695 6.2815 1.8724 -9.8074 -13.3780 -12.2708 1.1977 10.8672 -16.7626 1.8488 4.7732 -8.4011 2.3946 -0.0000 -0.0000 0.0000 -77.8247 32.2648 58.5246 111.1990 -58.2319 -78.2499 -0.0000 0.0000 -51.7897 5.6704 43.2140 3.8894 -7.1250 0.0000 -0.0000 -44.8558 68.3129 -27.0922 -0.0000 -0.0000 0.0000 16.9486 59.8453 -30.4605 -8.9762 15.1225 -1.1939 0.0000 0.0000 26.1831 -19.1480 -22.3504 7.5217 7.1250 -0.0000 -0.0000 10.1687 -53.2151 -2.0718
-1.1737 14.0627 -16.3501 9.2942 26.9852 5.5660 0.0000 0.0000 0.0000 -12.8756 4.5307 5.0040 5.6493 14.0797 43.5575 0.3454 23.9484 -35.6848 0.6908 -5.3136 -14.8051 0.0000 0.0000 0.0000 -4.6508 -3.2126 -64.7469 -11.3356 -18.0954 63.8666 0.1724 7.3713 3.4113 -0.0018 0.2710 -0.7447 -13.8209 3.5655 13.8293 -0.7900 2.3403 -1.2606 6.4037 1.8307 -9.7822 -13.3137 -12.2702 1.2177 10.7962 -16.7676 1.9823 4.7405 -8.4047 2.4202 0.0000 -0.0000 0.0000 -77.3231 32.2985 58.8361 110.4986 -58.3512 -77.6540 -0.0000 0.0000 -52.4313 6.7764 44.1659 4.7327 -7.1250 0.0000 -0.0000 -45.6487 69.3114 -28.6046 0.0000 -0.0000 0.0000 16.8528 60.0995 -31.3203 -8.8238 14.8791 -1.1544 0.0000 0.0000 26.5753 -18.7996 -22.1116 7.3020 7.1250 -0.0000 -0.0000 10.4245 -52.9093 -2.0464
-1.1863 14.0748 -16.2481 9.8695 27.0338 6.4246 0.0000 0.0000 0.0000 -12.9688 4.5978 6.0388 5.0387 13.4272 40.9895 0.2283 23.7158 -34.7294 0.9993 -6.3617 -17.8375 0.0000 0.0000 0.0000 -4.9161 -3.6235 -65.5865 -11.5541 -18.1957 64.5684 0.1827 7.5584 3.0292 -0.0000 0.0362 -0.0995 -14.2591 3.5381 13.7283 -0.9381 2.2263 -1.3496 6.5109 1.8014 -9.8168 -13.2774 -12.2760 1.2528 10.7861 -16.7784 1.9883 4.7340 -8.4109 2.4138 0.0000 -0.0000 0.0000 -76.7663 32.5496 59.0852 110.6057 -58.3333 -77.7452 -0.0000 0.0000 -53.2923 7.6708 44.4547 5.3886 -7.1250 0.0000 -0.0000 -45.3883 69.7982 -28.8784 0.0000 -0.0000 0.0000 16.4795 60.0422 -31.3776 -8.7728 14.7976 -1.1414 0.0000 0.0000 26.5913 -18.5306 -22.0227 7.1638 7.1250 -0.0000 -0.0000 10.6584 -52.7708 -2.0568
-1.1947 14.0774 -16.1562 10.3743 27.1130 7.1307 0.0000 0.0000 0.0000 -12.9747 4.7840 6.9647 4.5251 12.8282 38.7286 0.0931 23.5877 -33.7706 1.3296 -7.3019 -20.6128 0.0000 0.0000 0.0000 -5.2011 -3.9614 -66.2511 -11.7691 -18.2913 65.2552 0.1924 7.7553 2.5480 -0.0000 -0.0253 0.0695 -14.5624 3.5210 13.7486 -1.0717 2.1308 -1.4188 6.5508 1.7762 -9.8963 -13.2509 -12.2744 1.3112 10.8332 -16.7711 1.7680 4.7561 -8.4082 2.3400 0.0000 0.0000 0.0000 -76.2934 32.9795 59.2181 111.1539 -58.2397 -78.2116 -0.0000 0.0000 -53.5982 7.5475 44.3753 5.2940 -7.1250 0.0000 -0.0000 -45.3413 69.7045 -28.7562 0.0000 0.0000 0.0000 15.9173 59.8302 -31.0057 -8.8278 14.8856 -1.1555 0.0000 0.0000 26.3552 -18.3141 -21.9700 7.0590 7.1250 -0.0000 -0.0000 10.8536 -52.6788 -2.0706
-1.1988 14.0718 -16.0753 10.7805 27.1479 7.7008 0.0000 0.0000 0.0000 -12.9097 5.1683 7.5883 4.1525 12.3606 37.0199 0.0112 23.4093 -33.0335 1.5798 -7.9298 -22.5010 0.0000 0.0000 0.0000 -5.4687 -4.1721 -66.7934 -11.9794 -18.3819 65.9236 0.1987 7.9208 2.0054 -0.0000 -0.0115 0.0317 -14.7183 3.5237 13.8203 -1.1850 2.0809 -1.4650 6.5192 1.7648 -9.9828 -13.2156 -12.2588 1.3861 10.8781 -16.7373 1.3918 4.7851 -8.3925 2.2132 0.0000 -0.0000 0.0000 -76.0008 33.4951 59.2128 111.7065 -58.1426 -78.6811 -0.0000 0.0000 -53.2041 6.1541 44.2306 4.3013 -7.1250 0.0000 -0.0000 -46.3679 69.1511 -28.9666 0.0000 -0.0000 0.0000 15.2269 59.6644 -31.1219 -8.8959 14.9943 -1.1730 0.0000 0.0000 26.4301 -18.1617 -21.9179 6.9812 7.1250 -0.0000 -0.0000 10.9848 -52.5991 -2.0745
-1.1997 14.0596 -16.0056 11.1708 27.0969 8.2230 0.0000 0.0000 0.0000 -12.9265 5.6848 7.8504 3.9184 12.0511 35.9128 0.0178 23.1222 -32.6825 1.7084 -8.2304 -23.4160 0.0000 0.0000 0.0000 -5.7727 -4.2859 -67.3400 -12.1909 -18.4702 66.5926 0.2015 8.0425 1.5219 -0.0000 -0.0271 0.0744 -14.8136 3.5580 13.8512 -1.3002 2.0921 -1.4916 6.4384 1.7759 -10.0342 -13.1722 -12.2297 1.4858 10.8853 -16.6845 0.9796 4.8067 -8.3682 2.0656 -0.0000 -0.0000 0.0000 -75.8659 33.9821 59.1006 112.1452 -58.0634 -79.0536 -0.0000 0.0000 -53.0044 4.7747 44.0938 3.3264 -7.1250 0.0000 -0.0000 -47.3892 68.6149 -29.1730 -0.0000 -0.0000 0.0000 14.4824 59.5730 -31.8681 -8.9390 15.0631 -1.1842 0.0000 0.0000 26.7843 -18.0710 -21.8743 6.9312 7.1250 -0.0000 -0.0000 11.0578 -52.5390 -2.0722
-1.1978 14.0423 -15.9441 11.5373 26.9786 8.6927 0.0000 0.0000 0.0000 -13.0398 6.1833 7.9262 3.7751 11.8549 35.2207 0.0638 22.8581 -32.6113 1.7613 -8.3502 -23.7828 0.0000 0.0000 0.0000 -6.0831 -4.3492 -67.9061 -12.4041 -18.5563 67.2640 0.2033 8.1543 1.1241 -0.0004 -0.1225 0.3367 -14.8761 3.6063 13.8185 -1.4089 2.1417 -1.4954 6.3397 1.7991 -10.0298 -13.1120 -12.1978 1.5551 10.8273 -16.6266 0.6475 4.8028 -8.3406 1.9390 0.0000 -0.0000 0.0000 -75.8602 34.3552 58.8766 112.4823 -58.0012 -79.3396 -0.0000 0.0000 -53.4363 4.3277 44.1618 3.0180 -7.1250 0.0000 -0.0000 -47.9381 68.5157 -29.4674 0.0000 -0.0000 0.0000 13.7657 59.5108 -32.7011 -8.9905 15.1453 -1.1976 0.0000 0.0000 27.0639 -17.8796 -21.8527 6.8472 7.1250 -0.0000 -0.0000 11.2392 -52.4832 -2.0915
-1.1935 14.0212 -15.8877 11.8499 26.8319 9.0269 0.0000 0.0000 0.0000 -13.1946 6.5579 8.0963 3.6644 11.6999 34.6786 0.0819 22.7631 -32.5965 1.7973 -8.4304 -24.0292 0.0000 0.0000 0.0000 -6.3577 -4.4127 -68.3785 -12.6109 -18.6371 67.9126 0.2069 8.3192 0.7503 -0.0020 -0.2884 0.7925 -14.9259 3.6718 13.7936 -1.4935 2.2193 -1.4755 6.2547 1.8334 -10.0095 -13.0265 -12.1793 1.6216 10.7208 -16.5922 0.4383 4.7753 -8.3248 1.8457 -0.0000 -0.0000 0.0000 -75.9409 34.5857 58.5679 112.6958 -57.9613 -79.5206 -0.0000 0.0000 -54.1028 4.4193 44.5261 3.1021 -7.1250 0.0000 -0.0000 -48.5759 68.7798 -30.1940 -0.0000 -0.0000 0.0000 13.1201 59.4374 -33.3138 -9.0411 15.2259 -1.2109 0.0000 0.0000 27.1101 -17.5190 -21.8424 6.6984 7.1250 -0.0000 -0.0000 11.5924 -52.4093 -2.1375
-1.1868 13.9987 -15.8345 12.0744 26.6839 9.1937 0.0000 0.0000 0.0000 -13.3215 6.8036 8.4791 3.5522 11.5394 34.1215 0.0375 22.8881 -32.4870 1.8339 -8.5113 -24.2781 0.0000 0.0000 0.0000 -6.5542 -4.5021 -68.6941 -12.8046 -18.7105 68.5175 0.2132 8.5626 0.3529 -0.0061 -0.5046 1.3866 -14.9575 3.7537 13.8217 -1.5425 2.3160 -1.4469 6.1933 1.8781 -10.0147 -12.9383 -12.1800 1.7114 10.6274 -16.5937 0.3467 4.7460 -8.3277 1.7889 -0.0000 0.0000 0.0000 -76.0666 34.7279 58.2250 112.8254 -57.9368 -79.6304 -0.0000 0.0000 -54.6138 4.3799 45.0532 3.1029 -7.1250 0.0000 -0.0000 -49.6868 69.0998 -31.3334 -0.0000 0.0000 0.0000 12.5889 59.3666 -33.8244 -9.0662 15.2659 -1.2175 0.0000 0.0000 27.1363 -17.0574 -21.8337 6.5100 7.1250 -0.0000 -0.0000 12.0450 -52.3197 -2.1962
-1.1789 13.9761 -15.7825 12.2253 26.5381 9.2584 0.0000 0.0000 0.0000 -13.4061 6.9822 8.9910 3.4353 11.3684 33.5326 -0.0441 23.1375 -32.3136 1.8654 -8.5800 -24.4900 0.0000 0.0000 0.0000 -6.6890 -4.6055 -68.9109 -12.9910 -18.7789 69.0977 0.2198 8.8317 -0.0450 -0.0144 -0.7738 2.1267 -15.0137 3.8408 13.8587 -1.5597 2.4152 -1.4286 6.1795 1.9281 -10.0405 -12.8503 -12.2036 1.8236 10.5723 -16.6343 0.3403 4.7233 -8.3509 1.7618 0.0000 -0.0000 0.0000 -76.1903 34.8575 57.9221 112.9052 -57.9217 -79.6981 -0.0000 0.0000 -54.9131 4.1648 45.5356 2.9749 -7.1250 0.0000 -0.0000 -50.8928 69.3262 -32.4648 0.0000 -0.0000 0.0000 12.2178 59.3112 -34.2599 -9.0687 15.2698 -1.2181 0.0000 0.0000 27.2515 -16.6457 -21.8231 6.3421 7.1250 -0.0000 -0.0000 12.4465 -52.2375 -2.2460
-1.1718 13.9532 -15.7304 12.3394 26.3984 9.3048 0.0000 0.0000 0.0000 -13.4596 7.1436 9.4978 3.3243 11.2024 32.9656 -0.1193 23.3735 -32.1646 1.8836 -8.6193 -24.6116 0.0000 0.0000 0.0000 -6.8002 -4.6953 -69.1165 -13.1807 -18.8464 69.6859 0.2226 9.0397 -0.4302 -0.0277 -1.0750 2.9552 -15.1373 3.9131 13.8551 -1.5590 2.4905 -1.4285 6.2297 1.9719 -10.0632 -12.7888 -12.2418 1.9055 10.5776 -16.6975 0.4087 4.7152 -8.3847 1.7718 0.0000 -0.0000 0.0000 -76.2884 34.9946 57.7112 112.9034 -57.9220 -79.6966 -0.0000 0.0000 -55.0410 3.8031 45.8520 2.7309 -7.1250 0.0000 -0.0000 -51.8902 69.3971 -33.2913 0.0000 -0.0000 0.0000 12.0296 59.2769 -34.4754 -9.0772 15.2834 -1.2204 0.0000 0.0000 27.3924 -16.3843 -21.8182 6.2363 7.1250 -0.0000 -0.0000 12.7016 -52.1873 -2.2775
-1.1676 13.9307 -15.6775 12.4640 26.2999 9.3747 0.0000 0.0000 0.0000 -13.4976 7.2808 9.9426 3.2257 11.0518 32.4547 -0.1677 23.5161 -32.0562 1.8937 -8.6411 -24.6788 0.0000 0.0000 0.0000 -6.9194 -4.7867 -69.3364 -13.3760 -18.9137 70.2892 0.2201 9.1604 -0.8163 -0.0423 -1.3268 3.6485 -15.3498 3.9572 13.8157 -1.5609 2.5185 -1.4416 6.3386 1.9980 -10.0748 -12.7721 -12.2851 1.9386 10.6575 -16.7680 0.5252 4.7287 -8.4209 1.8150 0.0000 0.0000 0.0000 -76.3299 35.1154 57.6225 112.7952 -57.9426 -79.6049 -0.0000 0.0000 -55.0869 3.4719 46.0609 2.5015 -7.1250 0.0000 -0.0000 -52.6317 69.4109 -33.8699 0.0000 0.0000 0.0000 12.0253 59.2370 -34.3324 -9.1270 15.3626 -1.2335 0.0000 0.0000 27.4552 -16.2101 -21.7933 6.1602 7.1250 -0.0000 -0.0000 12.8624 -52.1323 -2.2896
-1.1665 13.9105 -15.6241 12.5572 26.3050 9.4385 0.0000 0.0000 0.0000 -13.4556 7.3538 10.3368 3.1390 10.9167 31.9995 -0.2028 23.5877 -31.9328 1.9071 -8.6698 -24.7679 0.0000 0.0000 0.0000 -6.9853 -4.9263 -69.5276 -13.5676 -18.9776 70.8796 0.2146 9.2511 -1.2193 -0.0518 -1.4693 4.0412 -15.5553 3.9631 13.7855 -1.5670 2.4945 -1.4604 6.4515 1.9994 -10.0855 -12.7908 -12.3300 1.9326 10.7936 -16.8396 0.6507 4.7600 -8.4566 1.8753 -0.0000 0.0000 0.0000 -76.2830 35.2058 57.6629 112.6620 -57.9677 -79.4920 -0.0000 0.0000 -55.1992 3.3486 46.2708 2.4211 -7.1250 0.0000 -0.0000 -53.1972 69.4924 -34.3900 -0.0000 0.0000 0.0000 12.1584 59.1416 -33.8389 -9.2325 15.5302 -1.2616 0.0000 0.0000 27.3577 -16.0045 -21.7085 6.0561 7.1250 -0.0000 -0.0000 13.0290 -52.0126 -2.2815
-1.1672 13.8938 -15.5701 12.5412 26.4426 9.4544 0.0000 0.0000 0.0000 -13.2629 7.3371 10.7043 3.0624 10.7953 31.5927 -0.2375 23.6400 -31.7829 1.9240 -8.7058 -24.8794 0.0000 0.0000 0.0000 -6.9147 -5.1347 -69.6546 -13.7472 -19.0356 71.4309 0.2085 9.3520 -1.6275 -0.0553 -1.5173 4.1734 -15.6582 3.9314 13.7702 -1.5562 2.4373 -1.4742 6.5350 1.9792 -10.0856 -12.8094 -12.3831 1.9076 10.9318 -16.9185 0.7377 4.7912 -8.4951 1.9284 0.0000 0.0000 0.0000 -76.1696 35.2538 57.7883 112.5838 -57.9823 -79.4256 -0.0000 0.0000 -55.3902 3.3968 46.5258 2.4664 -7.1250 0.0000 -0.0000 -53.7204 69.6553 -34.9681 0.0000 0.0000 0.0000 12.3179 58.9785 -33.2183 -9.3625 15.7363 -1.2967 0.0000 0.0000 27.1429 -15.7711 -21.5933 5.9338 7.1250 -0.0000 -0.0000 13.2100 -51.8583 -2.2636
-1.1683 13.8796 -15.5157 12.4248 26.6658 9.4313 0.0000 0.0000 0.0000 -12.9703 7.2316 11.0619 2.9930 10.6837 31.2204 -0.2764 23.7171 -31.6405 1.9389 -8.7376 -24.9778 0.0000 0.0000 0.0000 -6.7264 -5.3886 -69.7350 -13.9142 -19.0878 71.9421 0.2023 9.4677 -2.0287 -0.0561 -1.5282 4.2034 -15.6733 3.8801 13.7364 -1.5224 2.3758 -1.4804 6.5978 1.9509 -10.0608 -12.8192 -12.4363 1.8870 11.0354 -16.9939 0.7745 4.8137 -8.5319 1.9616 0.0000 -0.0000 0.0000 -76.0393 35.2666 57.9487 112.5945 -57.9803 -79.4347 -0.0000 0.0000 -55.4920 3.4002 46.7844 2.4793 -7.1250 0.0000 -0.0000 -54.2989 69.8033 -35.5769 0.0000 -0.0000 0.0000 12.4026 58.7727 -32.6874 -9.4633 15.8957 -1.3241 0.0000 0.0000 26.9110 -15.6256 -21.5441 5.8640 7.1250 -0.0000 -0.0000 13.3318 -51.7848 -2.2608
-1.1687 13.8659 -15.4615 12.2859 26.8926 9.4059 0.0000 0.0000 0.0000 -12.6953 7.0605 11.4267 2.9270 10.5759 30.8627 -0.3274 23.8552 -31.5081 1.9588 -8.7797 -25.1085 0.0000 0.0000 0.0000 -6.5125 -5.6388 -69.8121 -14.0745 -19.1365 72.4318 0.1960 9.5901 -2.4133 -0.0538 -1.4970 4.1176 -15.6776 3.8345 13.6653 -1.4856 2.3314 -1.4821 6.6552 1.9285 -10.0126 -12.8175 -12.4849 1.8811 11.0866 -17.0610 0.7777 4.8224 -8.5649 1.9759 -0.0000 -0.0000 0.0000 -75.9367 35.2441 58.0987 112.6496 -57.9700 -79.4814 -0.0000 0.0000 -55.3978 3.2734 47.0036 2.3954 -7.1250 0.0000 -0.0000 -54.9047 69.8833 -36.1379 -0.0000 -0.0000 0.0000 12.3991 58.5753 -32.4152 -9.5058 15.9629 -1.3358 0.0000 0.0000 26.7958 -15.5645 -21.5681 5.8463 7.1250 -0.0000 -0.0000 13.4013 -51.7983 -2.2774
-1.1671 13.8500 -15.4088 12.2048 27.0525 9.4005 0.0000 0.0000 0.0000 -12.5295 6.8883 11.8123 2.8624 10.4689 30.5088 -0.3930 24.0579 -31.3764 1.9921 -8.8496 -25.3261 0.0000 0.0000 0.0000 -6.3699 -5.8483 -69.9132 -14.2357 -19.1840 72.9231 0.1906 9.7323 -2.7714 -0.0486 -1.4226 3.9125 -15.7242 3.8172 13.5693 -1.4762 2.3198 -1.4851 6.6976 1.9229 -9.9606 -12.8222 -12.5298 1.8981 11.1099 -17.1249 0.7861 4.8257 -8.5972 1.9857 0.0000 -0.0000 0.0000 -75.8707 35.1982 58.2261 112.7100 -57.9586 -79.5326 -0.0000 0.0000 -55.2427 3.1035 47.1395 2.2759 -7.1250 0.0000 -0.0000 -55.3576 69.9010 -36.5138 0.0000 -0.0000 0.0000 12.3628 58.3983 -32.3948 -9.5073 15.9652 -1.3362 0.0000 0.0000 26.7787 -15.5006 -21.6025 5.8300 7.1250 -0.0000 -0.0000 13.4779 -51.8215 -2.2986
-1.1631 13.8319 -15.3586 12.1994 27.1248 9.4072 0.0000 0.0000 0.0000 -12.4665 6.7952 12.2115 2.7991 10.3625 30.1587 -0.4510 24.2481 -31.2781 2.0252 -8.9185 -25.5406 0.0000 0.0000 0.0000 -6.3219 -6.0044 -70.0335 -14.4011 -19.2312 73.4258 0.1855 9.8799 -3.1100 -0.0433 -1.3438 3.6952 -15.8184 3.8309 13.4783 -1.5031 2.3366 -1.4951 6.7180 1.9335 -9.9276 -12.8405 -12.5686 1.9239 11.1305 -17.1847 0.8411 4.8292 -8.6278 2.0083 0.0000 -0.0000 0.0000 -75.8663 35.1506 58.2762 112.7349 -57.9539 -79.5537 -0.0000 0.0000 -55.2175 2.9083 47.1498 2.1330 -7.1250 0.0000 -0.0000 -55.5430 69.8408 -36.5944 0.0000 -0.0000 0.0000 12.3674 58.2461 -32.4816 -9.5019 15.9567 -1.3347 0.0000 0.0000 26.7554 -15.3665 -21.6304 5.7845 7.1250 -0.0000 -0.0000 13.6202 -51.8264 -2.3253
-1.1578 13.8128 -15.3107 12.2575 27.1466 9.4163 0.0000 0.0000 0.0000 -12.4486 6.8110 12.6015 2.7378 10.2580 29.8164 -0.4810 24.3471 -31.2287 2.0470 -8.9633 -25.6807 0.0000 0.0000 0.0000 -6.3524 -6.1334 -70.1487 -14.5684 -19.2774 73.9330 0.1795 10.0207 -3.4421 -0.0398 -1.2884 3.5427 -15.9581 3.8590 13.4126 -1.5538 2.3576 -1.5104 6.7346 1.9495 -9.9181 -12.8508 -12.6006 1.9381 11.1301 -17.2365 0.9512 4.8234 -8.6541 2.0457 -0.0000 0.0000 0.0000 -75.9437 35.1338 58.2034 112.7384 -57.9533 -79.5567 -0.0000 0.0000 -55.3440 2.6652 47.0884 1.9526 -7.1250 0.0000 -0.0000 -55.6037 69.7254 -36.5157 -0.0000 0.0000 0.0000 12.4199 58.1278 -32.5506 -9.5003 15.9542 -1.3343 0.0000 0.0000 26.6965 -15.1596 -21.6614 5.7111 7.1250 -0.0000 -0.0000 13.8348 -51.8219 -2.3615
-1.1524 13.7939 -15.2651 12.3276 27.1483 9.4148 0.0000 0.0000 0.0000 -12.4053 6.9172 12.9602 2.6802 10.1584 29.4913 -0.4905 24.3585 -31.1826 2.0668 -9.0038 -25.8072 0.0000 0.0000 0.0000 -6.4035 -6.2437 -70.2517 -14.7306 -19.3208 74.4238 0.1730 10.1533 -3.7616 -0.0368 -1.2387 3.4058 -16.1140 3.8876 13.3738 -1.6008 2.3715 -1.5273 6.7649 1.9644 -9.9255 -12.8483 -12.6263 1.9463 11.0987 -17.2788 1.0778 4.8067 -8.6754 2.0838 -0.0000 -0.0000 0.0000 -76.1148 35.1520 58.0091 112.7242 -57.9560 -79.5447 -0.0000 0.0000 -55.5174 2.4896 47.0819 1.8237 -7.1250 0.0000 -0.0000 -55.7345 69.6630 -36.5503 -0.0000 -0.0000 0.0000 12.4737 58.0446 -32.5134 -9.5027 15.9580 -1.3350 0.0000 0.0000 26.6223 -14.8539 -21.6870 5.5976 7.1250 -0.0000 -0.0000 14.1433 -51.7955 -2.4067
-1.1471 13.7758 -15.2219 12.3520 27.1666 9.3805 0.0000 0.0000 0.0000 -12.2880 7.0475 13.3030 2.6264 10.0642 29.1848 -0.4975 24.3365 -31.1013 2.1043 -9.0801 -26.0462 0.0000 0.0000 0.0000 -6.4063 -6.3635 -70.3323 -14.8834 -19.3604 74.8854 0.1669 10.2879 -4.0590 -0.0347 -1.2019 3.3044 -16.2352 3.9048 13.3543 -1.6219 2.3752 -1.5381 6.8073 1.9731 -9.9337 -12.8409 -12.6484 1.9785 11.0557 -17.3158 1.1654 4.7897 -8.6949 2.1045 0.0000 0.0000 0.0000 -76.3414 35.1956 57.7575 112.7153 -57.9576 -79.5372 -0.0000 0.0000 -55.6283 2.4308 47.1340 1.7821 -7.1250 0.0000 -0.0000 -55.9012 69.6717 -36.6915 0.0000 0.0000 0.0000 12.4871 57.9804 -32.3696 -9.5127 15.9738 -1.3377 0.0000 0.0000 26.5596 -14.4707 -21.6794 5.4458 7.1250 -0.0000 -0.0000 14.5125 -51.7233 -2.4457
-1.1414 13.7593 -15.1800 12.3049 27.2410 9.2939 0.0000 0.0000 0.0000 -12.0876 7.1341 13.6714 2.5735 9.9704 28.8809 -0.5087 24.3232 -31.0041 2.1705 -9.2125 -26.4625 0.0000 0.0000 0.0000 -6.3284 -6.5274 -70.3632 -15.0275 -19.3966 75.3195 0.1605 10.4205 -4.3487 -0.0333 -1.1777 3.2378 -16.2858 3.9021 13.3535 -1.6124 2.3647 -1.5323 6.8487 1.9705 -9.9275 -12.8439 -12.6677 2.0476 11.0519 -17.3508 1.1862 4.7904 -8.7144 2.1036 -0.0000 -0.0000 0.0000 -76.5620 35.2493 57.5220 112.7508 -57.9509 -79.5673 -0.0000 0.0000 -55.6013 2.3451 47.1502 1.7197 -7.1250 0.0000 -0.0000 -56.0089 69.6518 -36.7545 -0.0000 -0.0000 0.0000 12.4428 57.9239 -32.2118 -9.5243 15.9921 -1.3409 0.0000 0.0000 26.5373 -14.0999 -21.6383 5.2918 7.1250 -0.0000 -0.0000 14.8544 -51.6209 -2.4676
-1.1347 13.7442 -15.1391 12.2185 27.3542 9.1894 0.0000 0.0000 0.0000 -11.8566 7.1718 14.0557 2.5202 9.8746 28.5716 -0.5200 24.3250 -30.9297 2.2591 -9.3861 -27.0106 0.0000 0.0000 0.0000 -6.2127 -6.7156 -70.3653 -15.1642 -19.4299 75.7309 0.1529 10.5427 -4.6408 -0.0309 -1.1345 3.1191 -16.2793 3.8844 13.3348 -1.5918 2.3503 -1.5096 6.8734 1.9601 -9.8874 -12.8406 -12.6865 2.1355 11.0814 -17.3853 1.1590 4.8030 -8.7341 2.0880 0.0000 0.0000 0.0000 -76.7259 35.2793 57.3428 112.8165 -57.9385 -79.6229 -0.0000 0.0000 -55.4680 2.1677 47.0712 1.5876 -7.1250 0.0000 -0.0000 -55.9762 69.5493 -36.6155 0.0000 0.0000 0.0000 12.3414 57.8729 -32.1150 -9.5225 15.9892 -1.3404 0.0000 0.0000 26.5778 -13.8520 -21.6022 5.1873 7.1250 -0.0000 -0.0000 15.0786 -51.5441 -2.4775
-1.1268 13.7294 -15.1009 12.1743 27.4323 9.1359 0.0000 0.0000 0.0000 -11.7061 7.1951 14.4054 2.4689 9.7812 28.2710 -0.5343 24.3535 -30.8761 2.3476 -9.5555 -27.5488 0.0000 0.0000 0.0000 -6.1532 -6.8683 -70.4074 -15.2953 -19.4608 76.1245 0.1451 10.6493 -4.9095 -0.0274 -1.0679 2.9356 -16.2845 3.8720 13.2809 -1.5901 2.3457 -1.4938 6.8819 1.9542 -9.8371 -12.8211 -12.7040 2.2013 11.0974 -17.4168 1.1671 4.8070 -8.7516 2.0835 -0.0000 0.0000 0.0000 -76.8165 35.2707 57.2264 112.8609 -57.9301 -79.6605 -0.0000 0.0000 -55.3428 1.9482 46.9641 1.4242 -7.1250 0.0000 -0.0000 -55.9167 69.4173 -36.4226 -0.0000 0.0000 0.0000 12.2511 57.8254 -31.9869 -9.5183 15.9826 -1.3393 0.0000 0.0000 26.6491 -13.6897 -21.6243 5.1294 7.1250 -0.0000 -0.0000 15.2450 -51.5387 -2.5038
-1.1184 13.7142 -15.0662 12.2064 27.4463 9.1502 0.0000 0.0000 0.0000 -11.6756 7.2172 14.7052 2.4217 9.6941 27.9916 -0.5516 24.4016 -30.8336 2.4113 -9.6747 -27.9298 0.0000 0.0000 0.0000 -6.1819 -6.9653 -70.5113 -15.4226 -19.4901 76.5065 0.1376 10.7325 -5.1414 -0.0246 -1.0126 2.7835 -16.3394 3.8800 13.2130 -1.6134 2.3586 -1.4975 6.8850 1.9607 -9.8073 -12.7922 -12.7211 2.2128 11.0734 -17.4455 1.2611 4.7915 -8.7662 2.1083 0.0000 -0.0000 0.0000 -76.8420 35.2245 57.1770 112.8307 -57.9358 -79.6350 -0.0000 0.0000 -55.3061 1.6894 46.8725 1.2331 -7.1250 0.0000 -0.0000 -55.9273 69.2809 -36.2795 0.0000 -0.0000 0.0000 12.2227 57.7633 -31.7607 -9.5405 16.0175 -1.3454 0.0000 0.0000 26.6750 -13.4578 -21.6502 5.0454 7.1250 -0.0000 -0.0000 15.4803 -51.5256 -2.5390
-1.1103 13.6992 -15.0335 12.2705 27.4250 9.1888 0.0000 0.0000 0.0000 -11.6948 7.2576 14.9729 2.3774 9.6115 27.7277 -0.5653 24.4459 -30.8092 2.4431 -9.7337 -28.1185 0.0000 0.0000 0.0000 -6.2501 -7.0226 -70.6272 -15.5439 -19.5171 76.8696 0.1294 10.7932 -5.3596 -0.0234 -0.9874 2.7141 -16.4209 3.9018 13.1446 -1.6376 2.3849 -1.5074 6.8983 1.9761 -9.7893 -12.7861 -12.7296 2.2009 11.0500 -17.4620 1.3803 4.7775 -8.7740 2.1448 -0.0000 0.0000 0.0000 -76.8365 35.1657 57.1742 112.7402 -57.9529 -79.5582 -0.0000 0.0000 -55.3456 1.4042 46.8129 1.0239 -7.1250 0.0000 -0.0000 -56.0321 69.1536 -36.2201 -0.0000 0.0000 0.0000 12.2207 57.7033 -31.5112 -9.5828 16.0843 -1.3571 0.0000 0.0000 26.6169 -13.0898 -21.6374 4.9004 7.1250 -0.0000 -0.0000 15.8294 -51.4521 -2.5697
-1.1032 13.6859 -15.0021 12.3216 27.4099 9.2206 0.0000 0.0000 0.0000 -11.6827 7.3407 15.2138 2.3338 9.5292 27.4653 -0.5637 24.4395 -30.8099 2.4511 -9.7484 -28.1658 0.0000 0.0000 0.0000 -6.3078 -7.0737 -70.7123 -15.6523 -19.5406 77.1940 0.1206 10.8518 -5.5798 -0.0227 -0.9723 2.6726 -16.4920 3.9160 13.0822 -1.6454 2.4036 -1.5136 6.9262 1.9875 -9.7688 -12.8006 -12.7220 2.2142 11.0476 -17.4566 1.4321 4.7782 -8.7717 2.1585 0.0000 -0.0000 0.0000 -76.8455 35.1275 57.1740 112.6549 -57.9690 -79.4859 -0.0000 0.0000 -55.3970 1.2015 46.7668 0.8754 -7.1250 0.0000 -0.0000 -56.0993 69.0613 -36.1697 0.0000 -0.0000 0.0000 12.1878 57.6928 -31.3581 -9.6072 16.1228 -1.3638 0.0000 0.0000 26.5770 -12.6380 -21.6204 4.7228 7.1250 -0.0000 -0.0000 16.2563 -51.3610 -2.6052
-1.0971 13.6753 -14.9728 12.3598 27.4290 9.2435 0.0000 0.0000 0.0000 -11.6197 7.4548 15.4264 2.2907 9.4471 27.2040 -0.5476 24.3643 -30.8017 2.4510 -9.7483 -28.1655 0.0000 0.0000 0.0000 -6.3454 -7.1579 -70.7602 -15.7450 -19.5603 77.4709 0.1126 10.9249 -5.7934 -0.0215 -0.9473 2.6037 -16.5475 3.9074 13.0466 -1.6360 2.3914 -1.5120 6.9716 1.9835 -9.7469 -12.8255 -12.7009 2.2451 11.0647 -17.4308 1.4021 4.7918 -8.7599 2.1453 0.0000 0.0000 0.0000 -76.8916 35.1203 57.1506 112.6407 -57.9717 -79.4739 -0.0000 0.0000 -55.3915 1.1460 46.7576 0.8349 -7.1250 0.0000 -0.0000 -56.1252 69.0379 -36.1637 0.0000 0.0000 0.0000 12.0949 57.7499 -31.3234 -9.5995 16.1106 -1.3617 0.0000 0.0000 26.6385 -12.1818 -21.6453 4.5527 7.1250 -0.0000 -0.0000 16.7051 -51.3102 -2.6593
-1.0926 13.6677 -14.9464 12.3879 27.4867 9.2652 0.0000 0.0000 0.0000 -11.5155 7.5630 15.6043 2.2496 9.3677 26.9524 -0.5238 24.2299 -30.7542 2.4538 -9.7534 -28.1817 0.0000 0.0000 0.0000 -6.3560 -7.2825 -70.7934 -15.8247 -19.5768 77.7090 0.1055 10.9967 -5.9864 -0.0205 -0.9251 2.5426 -16.5889 3.8824 13.0448 -1.6151 2.3547 -1.5017 7.0273 1.9672 -9.7281 -12.8465 -12.6876 2.2605 11.0936 -17.4117 1.3326 4.8080 -8.7509 2.1245 0.0000 -0.0000 0.0000 -76.9462 35.1195 57.1343 112.7029 -57.9600 -79.5266 -0.0000 0.0000 -55.3129 1.2042 46.7659 0.8774 -7.1250 0.0000 -0.0000 -56.0949 69.0616 -36.1666 0.0000 -0.0000 0.0000 11.9419 57.8308 -31.3911 -9.5737 16.0701 -1.3546 0.0000 0.0000 26.7730 -11.7702 -21.6783 4.4014 7.1250 -0.0000 -0.0000 17.1140 -51.2747 -2.7124
-1.0888 13.6624 -14.9218 12.4096 27.5634 9.2964 0.0000 0.0000 0.0000 -11.4035 7.6456 15.7583 2.2088 9.2882 26.7010 -0.5030 24.0882 -30.6758 2.4603 -9.7653 -28.2200 0.0000 0.0000 0.0000 -6.3469 -7.4259 -70.8310 -15.8962 -19.5913 77.9223 0.0986 11.0519 -6.1556 -0.0202 -0.9186 2.5249 -16.6191 3.8544 13.0417 -1.5933 2.3173 -1.4831 7.0784 1.9487 -9.6981 -12.8661 -12.6944 2.2673 11.1466 -17.4190 1.2520 4.8286 -8.7547 2.1069 0.0000 0.0000 0.0000 -76.9628 35.1072 57.1661 112.8130 -57.9392 -79.6199 -0.0000 0.0000 -55.1948 1.2423 46.7938 0.9056 -7.1250 0.0000 -0.0000 -56.1244 69.0896 -36.2210 0.0000 0.0000 0.0000 11.7497 57.8862 -31.4795 -9.5438 16.0228 -1.3463 0.0000 0.0000 26.8568 -11.4465 -21.7139 4.2841 7.1250 -0.0000 -0.0000 17.4396 -51.2561 -2.7586
-1.0845 13.6581 -14.8988 12.4452 27.6229 9.3521 0.0000 0.0000 0.0000 -11.3450 7.6965 15.9149 2.1651 9.2018 26.4285 -0.4938 24.0001 -30.6015 2.4656 -9.7750 -28.2513 0.0000 0.0000 0.0000 -6.3531 -7.5538 -70.8869 -15.9620 -19.6045 78.1184 0.0923 11.0966 -6.3033 -0.0203 -0.9189 2.5256 -16.6509 3.8276 13.0066 -1.5851 2.2864 -1.4654 7.1145 1.9318 -9.6516 -12.8794 -12.7112 2.2884 11.2036 -17.4414 1.1726 4.8493 -8.7664 2.0890 -0.0000 0.0000 0.0000 -76.9325 35.0976 57.2227 112.9442 -57.9143 -79.7311 -0.0000 0.0000 -55.0872 1.2362 46.8009 0.9013 -7.1250 0.0000 -0.0000 -56.1453 69.0915 -36.2396 -0.0000 0.0000 0.0000 11.5671 57.9199 -31.4991 -9.5190 15.9837 -1.3395 0.0000 0.0000 26.8741 -11.1738 -21.7459 4.1856 7.1250 -0.0000 -0.0000 17.7146 -51.2424 -2.7984
-1.0792 13.6538 -14.8783 12.4912 27.6382 9.4376 0.0000 0.0000 0.0000 -11.3596 7.7169 16.0755 2.1187 9.1091 26.1371 -0.5034 24.0022 -30.5375 2.4718 -9.7864 -28.2877 0.0000 0.0000 0.0000 -6.3848 -7.6289 -70.9727 -16.0205 -19.6160 78.2927 0.0869 11.1337 -6.4270 -0.0194 -0.9004 2.4748 -16.6724 3.8048 12.9407 -1.5936 2.2662 -1.4600 7.1241 1.9195 -9.6028 -12.8896 -12.7233 2.3138 11.2411 -17.4586 1.1173 4.8639 -8.7757 2.0749 0.0000 -0.0000 0.0000 -76.8770 35.0938 57.2711 113.0416 -57.8957 -79.8136 -0.0000 0.0000 -55.0103 1.1967 46.7716 0.8720 -7.1250 0.0000 -0.0000 -56.1135 69.0623 -36.1819 0.0000 -0.0000 0.0000 11.4208 57.9446 -31.4240 -9.5120 15.9727 -1.3375 0.0000 0.0000 26.8368 -10.9167 -21.7449 4.0871 7.1250 -0.0000 -0.0000 17.9593 -51.1996 -2.8199
-1.0741 13.6500 -14.8607 12.5130 27.6240 9.5231 0.0000 0.0000 0.0000 -11.3917 7.7115 16.2303 2.0743 9.0192 25.8554 -0.5290 24.0705 -30.4664 2.4855 -9.8115 -28.3683 0.0000 0.0000 0.0000 -6.4063 -7.6412 -71.0668 -16.0698 -19.6256 78.4396 0.0811 11.1404 -6.5305 -0.0175 -0.8547 2.3491 -16.6659 3.7913 12.8822 -1.6009 2.2596 -1.4720 7.1156 1.9149 -9.5801 -12.8826 -12.7287 2.3262 11.2204 -17.4659 1.1127 4.8575 -8.7797 2.0699 -0.0000 0.0000 0.0000 -76.8202 35.0956 57.3095 113.0664 -57.8909 -79.8346 -0.0000 0.0000 -54.9783 1.1609 46.7290 0.8453 -7.1250 0.0000 -0.0000 -56.0504 69.0271 -36.0931 -0.0000 0.0000 0.0000 11.3109 57.9646 -31.3433 -9.5201 15.9854 -1.3398 0.0000 0.0000 26.8028 -10.6975 -21.7122 3.9976 7.1250 -0.0000 -0.0000 18.1527 -51.1328 -2.8216
-1.0701 13.6470 -14.8445 12.4951 27.6086 9.5877 0.0000 0.0000 0.0000 -11.3886 7.7006 16.3627 2.0363 8.9414 25.6121 -0.5535 24.1370 -30.4007 2.5031 -9.8435 -28.4716 0.0000 0.0000 0.0000 -6.3937 -7.6141 -71.1453 -16.1116 -19.6336 78.5641 0.0737 11.1073 -6.6259 -0.0157 -0.8078 2.2202 -16.6394 3.7860 12.8406 -1.5910 2.2636 -1.4962 7.1118 1.9174 -9.5838 -12.8610 -12.7227 2.3403 11.1581 -17.4584 1.1460 4.8372 -8.7764 2.0690 -0.0000 -0.0000 0.0000 -76.7807 35.1037 57.3495 113.0062 -57.9025 -79.7836 -0.0000 0.0000 -54.9997 1.1628 46.7219 0.8466 -7.1250 0.0000 -0.0000 -56.0330 69.0237 -36.0758 -0.0000 -0.0000 0.0000 11.2180 57.9803 -31.3402 -9.5295 16.0002 -1.3423 0.0000 0.0000 26.8349 -10.5030 -21.6617 3.9148 7.1250 -0.0000 -0.0000 18.3142 -51.0532 -2.8116
-1.0674 13.6447 -14.8292 12.4658 27.6049 9.6526 0.0000 0.0000 0.0000 -11.3667 7.6894 16.4447 2.0074 8.8815 25.4253 -0.5694 24.1797 -30.3570 2.5103 -9.8566 -28.5137 0.0000 0.0000 0.0000 -6.3688 -7.5798 -71.2144 -16.1478 -19.6404 78.6719 0.0646 11.0560 -6.7349 -0.0146 -0.7798 2.1432 -16.6241 3.7767 12.8004 -1.5683 2.2604 -1.5269 7.1299 1.9184 -9.5950 -12.8367 -12.7049 2.3539 11.0969 -17.4358 1.1924 4.8176 -8.7656 2.0702 0.0000 -0.0000 0.0000 -76.7628 35.1202 57.3932 112.9141 -57.9200 -79.7056 -0.0000 0.0000 -55.0875 1.2480 46.7440 0.9090 -7.1250 0.0000 -0.0000 -56.0108 69.0640 -36.1034 0.0000 -0.0000 0.0000 11.1239 58.0051 -31.3997 -9.5317 16.0037 -1.3429 0.0000 0.0000 26.9179 -10.3563 -21.6031 3.8492 7.1250 -0.0000 -0.0000 18.4262 -50.9738 -2.7930
-1.0660 13.6430 -14.8148 12.4400 27.6129 9.7269 0.0000 0.0000 0.0000 -11.3478 7.6649 16.4726 1.9879 8.8408 25.2987 -0.5864 24.2325 -30.3219 2.5033 -9.8439 -28.4728 0.0000 0.0000 0.0000 -6.3435 -7.5527 -71.2815 -16.1790 -19.6463 78.7646 0.0550 11.0112 -6.8575 -0.0140 -0.7640 2.0997 -16.6264 3.7599 12.7523 -1.5418 2.2471 -1.5519 7.1648 1.9144 -9.5937 -12.8134 -12.6891 2.3555 11.0686 -17.4151 1.2261 4.8069 -8.7553 2.0729 0.0000 -0.0000 0.0000 -76.7366 35.1256 57.4631 112.8573 -57.9308 -79.6575 -0.0000 0.0000 -55.1996 1.3820 46.7800 1.0072 -7.1250 0.0000 -0.0000 -55.9784 69.1281 -36.1496 0.0000 -0.0000 0.0000 11.0112 58.0217 -31.4371 -9.5383 16.0141 -1.3448 0.0000 0.0000 26.9377 -10.3210 -21.5679 3.8299 7.1250 -0.0000 -0.0000 18.4432 -50.9345 -2.7776
-1.0649 13.6408 -14.8012 12.4090 27.6311 9.7864 0.0000 0.0000 0.0000 -11.3278 7.6203 16.4940 1.9738 8.8112 25.2065 -0.6136 24.3219 -30.2730 2.4918 -9.8230 -28.4055 0.0000 0.0000 0.0000 -6.3062 -7.5499 -71.3409 -16.2086 -19.6518 78.8527 0.0468 10.9872 -6.9723 -0.0133 -0.7452 2.0480 -16.6228 3.7385 12.7017 -1.5141 2.2313 -1.5581 7.1994 1.9063 -9.5683 -12.7893 -12.6832 2.3573 11.0714 -17.4065 1.2214 4.8055 -8.7510 2.0685 0.0000 -0.0000 0.0000 -76.6825 35.1099 57.5701 112.8857 -57.9254 -79.6815 -0.0000 0.0000 -55.2359 1.6907 46.9259 1.2351 -7.1250 0.0000 -0.0000 -56.0446 69.3106 -36.4047 0.0000 -0.0000 0.0000 10.8666 58.0159 -31.4119 -9.5586 16.0462 -1.3504 0.0000 0.0000 26.8593 -10.3823 -21.5950 3.8577 7.1250 -0.0000 -0.0000 18.3977 -50.9701 -2.7867
-1.0627 13.6372 -14.7885 12.3791 27.6455 9.8151 0.0000 0.0000 0.0000 -11.3145 7.5714 16.5674 1.9578 8.7775 25.1019 -0.6419 24.4202 -30.2323 2.4846 -9.8098 -28.3630 0.0000 0.0000 0.0000 -6.2646 -7.5817 -71.3934 -16.2424 -19.6581 78.9531 0.0422 11.0028 -7.0576 -0.0131 -0.7394 2.0320 -16.6010 3.7214 12.6589 -1.4919 2.2236 -1.5479 7.2160 1.8990 -9.5295 -12.7534 -12.6910 2.3753 11.0674 -17.4159 1.1889 4.8014 -8.7560 2.0536 -0.0000 0.0000 0.0000 -76.6000 35.0876 57.6999 112.9779 -57.9079 -79.7596 -0.0000 0.0000 -55.1278 2.0981 47.1343 1.5381 -7.1250 0.0000 -0.0000 -56.1761 69.5604 -36.7856 -0.0000 0.0000 0.0000 10.6969 57.9885 -31.3579 -9.5851 16.0880 -1.3577 0.0000 0.0000 26.7835 -10.4021 -21.6400 3.8728 7.1250 -0.0000 -0.0000 18.3998 -51.0163 -2.8084
-1.0588 13.6319 -14.7772 12.3688 27.6381 9.8225 0.0000 0.0000 0.0000 -11.3278 7.5397 16.7052 1.9362 8.7319 24.9603 -0.6716 24.5260 -30.1935 2.4893 -9.8184 -28.3905 0.0000 0.0000 0.0000 -6.2410 -7.6416 -71.4448 -16.2808 -19.6651 79.0671 0.0415 11.0704 -7.1207 -0.0132 -0.7425 2.0406 -16.5749 3.7118 12.6302 -1.4787 2.2236 -1.5326 7.2180 1.8948 -9.4943 -12.7185 -12.7053 2.3863 11.0363 -17.4339 1.1826 4.7875 -8.7652 2.0463 -0.0000 0.0000 0.0000 -76.5236 35.0747 57.8046 113.0841 -57.8875 -79.8496 -0.0000 0.0000 -54.9258 2.3129 47.2729 1.6995 -7.1250 0.0000 -0.0000 -56.3153 69.7076 -37.0589 -0.0000 0.0000 0.0000 10.5145 57.9671 -31.3160 -9.6006 16.1123 -1.3620 0.0000 0.0000 26.7461 -10.3559 -21.6774 3.8616 7.1250 -0.0000 -0.0000 18.4611 -51.0444 -2.8314
-1.0538 13.6253 -14.7677 12.3735 27.6009 9.8179 0.0000 0.0000 0.0000 -11.3580 7.5369 16.8718 1.9129 8.6823 24.8065 -0.6994 24.6240 -30.1567 2.5091 -9.8544 -28.5066 0.0000 0.0000 0.0000 -6.2339 -7.7052 -71.4984 -16.3201 -19.6722 79.1840 0.0437 11.1791 -7.1695 -0.0133 -0.7435 2.0432 -16.5615 3.7090 12.6090 -1.4664 2.2288 -1.5177 7.2245 1.8941 -9.4659 -12.7162 -12.7109 2.3725 11.0101 -17.4417 1.2305 4.7763 -8.7687 2.0610 0.0000 -0.0000 0.0000 -76.4956 35.0615 57.8425 113.1336 -57.8780 -79.8916 -0.0000 0.0000 -54.7571 2.1477 47.2784 1.5782 -7.1250 0.0000 -0.0000 -56.4631 69.6551 -37.1180 0.0000 -0.0000 0.0000 10.3286 57.9723 -31.3062 -9.6016 16.1140 -1.3623 0.0000 0.0000 26.6806 -10.3073 -21.7246 3.8511 7.1250 -0.0000 -0.0000 18.5294 -51.0815 -2.8598
-1.0488 13.6180 -14.7595 12.3791 27.5465 9.8084 0.0000 0.0000 0.0000 -11.3746 7.5682 17.0138 1.8947 8.6433 24.6857 -0.7154 24.6767 -30.1302 2.5430 -9.9157 -28.7043 0.0000 0.0000 0.0000 -6.2271 -7.7593 -71.5601 -16.3585 -19.6791 79.2980 0.0474 11.2967 -7.2019 -0.0129 -0.7347 2.0192 -16.5650 3.7088 12.5862 -1.4507 2.2351 -1.5065 7.2437 1.8956 -9.4424 -12.7389 -12.7035 2.3451 11.0089 -17.4342 1.3156 4.7745 -8.7642 2.0916 -0.0000 -0.0000 0.0000 -76.5203 35.0366 57.8241 113.0965 -57.8852 -79.8601 -0.0000 0.0000 -54.7127 1.9101 47.2551 1.4030 -7.1250 0.0000 -0.0000 -56.6041 69.5628 -37.1273 -0.0000 -0.0000 0.0000 10.1704 58.0016 -31.3406 -9.5961 16.1053 -1.3607 0.0000 0.0000 26.5654 -10.2973 -21.7656 3.8542 7.1250 -0.0000 -0.0000 18.5581 -51.1190 -2.8820
-1.0450 13.6109 -14.7515 12.3798 27.4956 9.7950 0.0000 0.0000 0.0000 -11.3575 7.6329 17.1046 1.8853 8.6231 24.6232 -0.7133 24.6633 -30.1226 2.5822 -9.9858 -28.9307 0.0000 0.0000 0.0000 -6.2129 -7.8043 -71.6233 -16.3958 -19.6857 79.4089 0.0508 11.3940 -7.2241 -0.0130 -0.7357 2.0220 -16.5812 3.7101 12.5635 -1.4349 2.2407 -1.5003 7.2701 1.8980 -9.4253 -12.7446 -12.6952 2.3213 11.0123 -17.4263 1.4082 4.7717 -8.7595 2.1228 0.0000 -0.0000 0.0000 -76.5626 34.9987 57.7951 112.9956 -57.9045 -79.7746 -0.0000 0.0000 -54.7874 1.7143 47.1938 1.2579 -7.1250 0.0000 -0.0000 -56.6255 69.4643 -37.0344 0.0000 -0.0000 0.0000 10.0797 58.0207 -31.3500 -9.6046 16.1187 -1.3631 0.0000 0.0000 26.4322 -10.3054 -21.7851 3.8605 7.1250 -0.0000 -0.0000 18.5596 -51.1389 -2.8915
-1.0420 13.6046 -14.7435 12.3730 27.4626 9.7756 0.0000 0.0000 0.0000 -11.3082 7.7197 17.1493 1.8838 8.6197 24.6129 -0.6985 24.6071 -30.1355 2.6151 -10.0442 -29.1199 0.0000 0.0000 0.0000 -6.1906 -7.8449 -71.6720 -16.4303 -19.6917 79.5113 0.0523 11.4619 -7.2524 -0.0132 -0.7419 2.0389 -16.5944 3.7094 12.5443 -1.4244 2.2427 -1.4975 7.2894 1.8990 -9.4127 -12.7151 -12.6952 2.3086 11.0068 -17.4294 1.4966 4.7619 -8.7605 2.1484 -0.0000 0.0000 0.0000 -76.5936 34.9519 57.7882 112.8786 -57.9268 -79.6755 -0.0000 0.0000 -54.9063 1.5113 47.0461 1.1062 -7.1250 0.0000 -0.0000 -56.4604 69.3166 -36.7390 -0.0000 0.0000 0.0000 10.0771 58.0136 -31.2959 -9.6355 16.1674 -1.3717 0.0000 0.0000 26.3555 -10.3231 -21.7823 3.8668 7.1250 -0.0000 -0.0000 18.5414 -51.1390 -2.8885
-1.0395 13.5993 -14.7363 12.3515 27.4527 9.7441 0.0000 0.0000 0.0000 -11.2402 7.7976 17.1726 1.8876 8.6279 24.6381 -0.6817 24.5536 -30.1674 2.6348 -10.0790 -29.2328 0.0000 0.0000 0.0000 -6.1579 -7.8876 -71.6927 -16.4607 -19.6970 79.6014 0.0521 11.5121 -7.2947 -0.0130 -0.7370 2.0254 -16.5848 3.7015 12.5324 -1.4175 2.2370 -1.4952 7.2938 1.8951 -9.4013 -12.6861 -12.7014 2.2976 11.0128 -17.4422 1.5927 4.7545 -8.7663 2.1784 0.0000 0.0000 0.0000 -76.6147 34.8998 57.7966 112.7793 -57.9456 -79.5913 -0.0000 0.0000 -54.9874 1.2374 46.8600 0.9030 -7.1250 0.0000 -0.0000 -56.2739 69.1243 -36.3771 0.0000 0.0000 0.0000 10.1394 57.9787 -31.1273 -9.6869 16.2483 -1.3860 0.0000 0.0000 26.2994 -10.3404 -21.7726 3.8718 7.1250 -0.0000 -0.0000 18.5205 -51.1326 -2.8821
-1.0369 13.5943 -14.7304 12.3090 27.4604 9.6945 0.0000 0.0000 0.0000 -11.1606 7.8482 17.2003 1.8933 8.6401 24.6759 -0.6714 24.5316 -30.2045 2.6442 -10.0955 -29.2866 0.0000 0.0000 0.0000 -6.1139 -7.9275 -71.6867 -16.4879 -19.7017 79.6820 0.0509 11.5562 -7.3472 -0.0124 -0.7203 1.9796 -16.5405 3.6903 12.5329 -1.4121 2.2294 -1.4943 7.2771 1.8889 -9.3964 -12.6697 -12.7150 2.2824 11.0201 -17.4659 1.7062 4.7474 -8.7773 2.2166 0.0000 0.0000 0.0000 -76.6197 34.8427 57.8266 112.7047 -57.9596 -79.5281 -0.0000 0.0000 -54.9869 1.0012 46.7700 0.7295 -7.1250 0.0000 -0.0000 -56.2723 68.9969 -36.2332 0.0000 0.0000 0.0000 10.2373 57.9180 -30.8759 -9.7432 16.3369 -1.4018 0.0000 0.0000 26.2290 -10.3230 -21.7643 3.8637 7.1250 -0.0000 -0.0000 18.5330 -51.1218 -2.8792
-1.0343 13.5891 -14.7257 12.2678 27.4715 9.6405 0.0000 0.0000 0.0000 -11.0973 7.8709 17.2525 1.8960 8.6459 24.6939 -0.6701 24.5438 -30.2334 2.6487 -10.1035 -29.3124 0.0000 0.0000 0.0000 -6.0838 -7.9587 -71.6656 -16.5129 -19.7059 79.7562 0.0496 11.6030 -7.4031 -0.0122 -0.7127 1.9585 -16.4927 3.6824 12.5358 -1.4079 2.2263 -1.4943 7.2561 1.8850 -9.3946 -12.6717 -12.7305 2.2701 11.0248 -17.4929 1.8216 4.7419 -8.7902 2.2567 -0.0000 0.0000 0.0000 -76.6149 34.7810 57.8738 112.6318 -57.9733 -79.4663 -0.0000 0.0000 -54.9252 0.8195 46.7853 0.5973 -7.1250 0.0000 -0.0000 -56.4557 68.9454 -36.3191 -0.0000 0.0000 0.0000 10.3466 57.8354 -30.5948 -9.7976 16.4224 -1.4172 0.0000 0.0000 26.1422 -10.2326 -21.7541 3.8276 7.1250 -0.0000 -0.0000 18.6141 -51.0977 -2.8812
-1.0323 13.5843 -14.7223 12.2582 27.4748 9.6095 0.0000 0.0000 0.0000 -11.0775 7.8786 17.3215 1.8923 8.6381 24.6698 -0.6720 24.5657 -30.2562 2.6525 -10.1101 -29.3339 0.0000 0.0000 0.0000 -6.0903 -7.9791 -71.6523 -16.5342 -19.7095 79.8194 0.0487 11.6455 -7.4508 -0.0117 -0.6996 1.9227 -16.4828 3.6834 12.5328 -1.4085 2.2291 -1.4998 7.2492 1.8864 -9.3994 -12.6761 -12.7462 2.2645 11.0154 -17.5199 1.9277 4.7334 -8.8033 2.2918 0.0000 -0.0000 0.0000 -76.6035 34.7248 57.9346 112.5482 -57.9890 -79.3955 -0.0000 0.0000 -54.8573 0.6837 46.7932 0.4984 -7.1250 0.0000 -0.0000 -56.5853 68.9050 -36.3753 0.0000 -0.0000 0.0000 10.4724 57.7352 -30.3252 -9.8457 16.4978 -1.4308 0.0000 0.0000 26.0350 -10.1549 -21.7263 3.7934 7.1250 -0.0000 -0.0000 18.6748 -51.0586 -2.8728
-1.0314 13.5810 -14.7204 12.2835 27.4752 9.6139 0.0000 0.0000 0.0000 -11.0906 7.8843 17.3692 1.8861 8.6247 24.6282 -0.6735 24.5762 -30.2624 2.6609 -10.1248 -29.3817 0.0000 0.0000 0.0000 -6.1249 -7.9946 -71.6617 -16.5503 -19.7123 79.8672 0.0479 11.6693 -7.4800 -0.0108 -0.6722 1.8472 -16.5259 3.6921 12.5286 -1.4096 2.2331 -1.5150 7.2705 1.8927 -9.4178 -12.6759 -12.7587 2.2534 10.9900 -17.5406 2.0288 4.7200 -8.8133 2.3237 -0.0000 0.0000 0.0000 -76.5948 34.6763 58.0030 112.4396 -58.0092 -79.3034 -0.0000 0.0000 -54.8195 0.5889 46.7691 0.4291 -7.1250 0.0000 -0.0000 -56.6113 68.8607 -36.3457 -0.0000 0.0000 0.0000 10.6160 57.6166 -30.0528 -9.8936 16.5730 -1.4445 0.0000 0.0000 25.8898 -10.1257 -21.6923 3.7767 7.1250 -0.0000 -0.0000 18.6865 -51.0216 -2.8574
-1.0323 13.5792 -14.7195 12.3258 27.4829 9.6467 0.0000 0.0000 0.0000 -11.1028 7.9017 17.3529 1.8851 8.6225 24.6213 -0.6642 24.5394 -30.2684 2.6713 -10.1430 -29.4410 0.0000 0.0000 0.0000 -6.1650 -8.0072 -71.6921 -16.5607 -19.7140 79.8980 0.0466 11.6615 -7.4944 -0.0098 -0.6402 1.7593 -16.6036 3.7036 12.5269 -1.4083 2.2342 -1.5371 7.3138 1.9006 -9.4470 -12.6710 -12.7631 2.2372 10.9629 -17.5488 2.1143 4.7067 -8.8168 2.3498 0.0000 -0.0000 0.0000 -76.5902 34.6267 58.0734 112.2916 -58.0365 -79.1778 -0.0000 0.0000 -54.8237 0.4886 46.7665 0.3560 -7.1250 0.0000 -0.0000 -56.6884 68.8263 -36.3673 0.0000 -0.0000 0.0000 10.7724 57.4831 -29.7637 -9.9506 16.6622 -1.4607 0.0000 0.0000 25.6961 -10.1220 -21.6976 3.7761 7.1250 -0.0000 -0.0000 18.6926 -51.0261 -2.8605
-1.0345 13.5787 -14.7195 12.3635 27.5029 9.6901 0.0000 0.0000 0.0000 -11.0926 7.9342 17.2664 1.8927 8.6388 24.6719 -0.6461 24.4666 -30.2780 2.6808 -10.1594 -29.4944 0.0000 0.0000 0.0000 -6.1955 -8.0140 -71.7232 -16.5640 -19.7145 79.9076 0.0440 11.6267 -7.5073 -0.0096 -0.6337 1.7414 -16.6878 3.7124 12.5209 -1.3995 2.2330 -1.5527 7.3701 1.9070 -9.4665 -12.6764 -12.7572 2.2249 10.9596 -17.5425 2.1620 4.7044 -8.8133 2.3654 0.0000 -0.0000 0.0000 -76.6022 34.5653 58.1339 112.1238 -58.0673 -79.0354 -0.0000 0.0000 -54.8676 0.3815 46.7940 0.2781 -7.1250 0.0000 -0.0000 -56.8362 68.8061 -36.4605 0.0000 -0.0000 0.0000 10.9099 57.3386 -29.4699 -10.0256 16.7796 -1.4823 0.0000 0.0000 25.4961 -10.0701 -21.7137 3.7591 7.1250 -0.0000 -0.0000 18.7493 -51.0329 -2.8729
-1.0370 13.5799 -14.7209 12.3830 27.5384 9.7259 0.0000 0.0000 0.0000 -11.0641 7.9616 17.1471 1.9054 8.6663 24.7569 -0.6321 24.4059 -30.2784 2.6888 -10.1733 -29.5397 0.0000 0.0000 0.0000 -6.2113 -8.0176 -71.7297 -16.5572 -19.7134 79.8875 0.0405 11.5764 -7.5224 -0.0104 -0.6577 1.8075 -16.7464 3.7182 12.5266 -1.3840 2.2312 -1.5561 7.4201 1.9107 -9.4772 -12.6943 -12.7457 2.2305 10.9929 -17.5291 2.1593 4.7179 -8.8067 2.3667 -0.0000 0.0000 0.0000 -76.6270 34.5049 58.1907 111.9968 -58.0904 -78.9276 -0.0000 0.0000 -54.9139 0.3150 46.8457 0.2298 -7.1250 0.0000 -0.0000 -57.0031 68.8125 -36.5990 -0.0000 0.0000 0.0000 11.0146 57.1763 -29.1334 -10.1191 16.9256 -1.5094 0.0000 0.0000 25.2572 -9.9902 -21.7137 3.7287 7.1250 -0.0000 -0.0000 18.8251 -51.0202 -2.8792
-1.0388 13.5828 -14.7244 12.3787 27.5910 9.7424 0.0000 0.0000 0.0000 -11.0342 7.9494 17.0378 1.9195 8.6963 24.8500 -0.6332 24.4012 -30.2626 2.6955 -10.1850 -29.5778 0.0000 0.0000 0.0000 -6.2126 -8.0223 -71.6976 -16.5401 -19.7105 79.8368 0.0366 11.5183 -7.5375 -0.0118 -0.7024 1.9302 -16.7576 3.7208 12.5629 -1.3621 2.2281 -1.5480 7.4507 1.9109 -9.4899 -12.7033 -12.7396 2.2519 11.0263 -17.5225 2.1228 4.7321 -8.8040 2.3556 -0.0000 0.0000 0.0000 -76.6542 34.4634 58.2524 111.9467 -58.0995 -78.8851 -0.0000 0.0000 -54.9020 0.3414 46.8987 0.2493 -7.1250 0.0000 -0.0000 -57.0963 68.8498 -36.7147 -0.0000 0.0000 0.0000 11.0825 56.9999 -28.7558 -10.2225 17.0868 -1.5397 0.0000 0.0000 24.9717 -9.9249 -21.7118 3.7036 7.1250 -0.0000 -0.0000 18.8860 -51.0079 -2.8833
-1.0399 13.5871 -14.7305 12.3606 27.6467 9.7535 0.0000 0.0000 0.0000 -11.0326 7.8808 16.9271 1.9374 8.7344 24.9679 -0.6502 24.4699 -30.2544 2.6958 -10.1856 -29.5798 0.0000 0.0000 0.0000 -6.2151 -8.0095 -71.6393 -16.5138 -19.7061 79.7588 0.0321 11.4524 -7.5551 -0.0141 -0.7664 2.1063 -16.7316 3.7207 12.6305 -1.3328 2.2217 -1.5364 7.4691 1.9085 -9.5140 -12.6976 -12.7405 2.2845 11.0299 -17.5240 2.0765 4.7362 -8.8057 2.3366 0.0000 0.0000 0.0000 -76.6870 34.4496 58.3106 111.9503 -58.0988 -78.8881 -0.0000 0.0000 -54.8097 0.4120 46.9000 0.3009 -7.1250 0.0000 -0.0000 -57.0413 68.8737 -36.6985 0.0000 0.0000 0.0000 11.1151 56.8303 -28.3824 -10.3263 17.2483 -1.5703 0.0000 0.0000 24.6616 -9.8802 -21.7229 3.6884 7.1250 -0.0000 -0.0000 18.9335 -51.0112 -2.8925
-1.0416 13.5920 -14.7396 12.3268 27.6828 9.7746 0.0000 0.0000 0.0000 -11.0652 7.7683 16.7662 1.9661 8.7951 25.1564 -0.6739 24.5951 -30.2907 2.6808 -10.1595 -29.4948 0.0000 0.0000 0.0000 -6.2348 -7.9313 -71.5649 -16.4781 -19.7000 79.6531 0.0275 11.3813 -7.5719 -0.0182 -0.8699 2.3910 -16.6778 3.7228 12.7359 -1.2904 2.2157 -1.5290 7.4855 1.9073 -9.5640 -12.6965 -12.7415 2.2922 11.0085 -17.5234 2.0556 4.7313 -8.8058 2.3270 0.0000 0.0000 0.0000 -76.7347 34.4404 58.3444 111.9431 -58.1001 -78.8821 -0.0000 0.0000 -54.6931 0.4892 46.8454 0.3569 -7.1250 0.0000 -0.0000 -56.8590 68.8695 -36.5502 0.0000 0.0000 0.0000 11.0915 56.6854 -28.0856 -10.4239 17.3999 -1.5994 0.0000 0.0000 24.3732 -9.8174 -21.7133 3.6630 7.1250 -0.0000 -0.0000 18.9885 -50.9920 -2.8923
-1.0449 13.5969 -14.7518 12.3015 27.6901 9.8217 0.0000 0.0000 0.0000 -11.1456 7.6327 16.5314 2.0083 8.8834 25.4312 -0.6981 24.7521 -30.3777 2.6462 -10.0991 -29.2981 0.0000 0.0000 0.0000 -6.3055 -7.7772 -71.4818 -16.4341 -19.6924 79.5224 0.0237 11.3176 -7.5833 -0.0230 -0.9791 2.6913 -16.6030 3.7319 12.9163 -1.2468 2.2060 -1.5330 7.4896 1.9077 -9.6687 -12.7111 -12.7376 2.2430 10.9874 -17.5128 2.0732 4.7238 -8.7992 2.3382 -0.0000 -0.0000 0.0000 -76.7827 34.4240 58.3498 111.8894 -58.1098 -78.8364 -0.0000 0.0000 -54.6490 0.5356 46.8017 0.3904 -7.1250 0.0000 -0.0000 -56.7259 68.8609 -36.4359 -0.0000 -0.0000 0.0000 11.0163 56.5643 -27.8556 -10.5183 17.5462 -1.6277 0.0000 0.0000 24.0812 -9.7498 -21.6723 3.6309 7.1250 -0.0000 -0.0000 19.0331 -50.9423 -2.8757
-1.0496 13.6021 -14.7660 12.3017 27.6799 9.8930 0.0000 0.0000 0.0000 -11.2701 7.4868 16.2559 2.0569 8.9836 25.7440 -0.7275 24.9342 -30.4709 2.5976 -10.0132 -29.0194 0.0000 0.0000 0.0000 -6.4173 -7.5935 -71.4102 -16.3862 -19.6840 79.3804 0.0196 11.2379 -7.5873 -0.0267 -1.0554 2.9014 -16.4838 3.7414 13.2177 -1.2231 2.1775 -1.5470 7.4474 1.9017 -9.8469 -12.7360 -12.7300 2.1284 11.0021 -17.4925 2.0975 4.7238 -8.7857 2.3648 -0.0000 -0.0000 0.0000 -76.7943 34.4279 58.3405 111.8213 -58.1220 -78.7786 -0.0000 0.0000 -54.7258 0.6373 46.8270 0.4648 -7.1250 0.0000 -0.0000 -56.6973 68.9082 -36.4669 -0.0000 -0.0000 0.0000 10.9214 56.4749 -27.6667 -10.6200 17.7035 -1.6585 0.0000 0.0000 23.7883 -9.6964 -21.6162 3.6018 7.1250 -0.0000 -0.0000 19.0571 -50.8805 -2.8499
-1.0553 13.6087 -14.7809 12.3130 27.6640 9.9817 0.0000 0.0000 0.0000 -11.4017 7.3468 15.9862 2.0985 9.0684 26.0095 -0.7630 25.1165 -30.5243 2.5471 -9.9231 -28.7280 0.0000 0.0000 0.0000 -6.5171 -7.4228 -71.3739 -16.3387 -19.6755 79.2392 0.0086 11.0481 -7.6177 -0.0277 -1.0749 2.9550 -16.2897 3.7289 13.6440 -1.2228 2.1062 -1.5632 7.3442 1.8744 -10.0842 -12.7757 -12.7136 1.9751 11.0843 -17.4554 2.0569 4.7460 -8.7625 2.3839 0.0000 -0.0000 0.0000 -76.7638 34.4974 58.3141 111.7836 -58.1288 -78.7466 -0.0000 0.0000 -54.8839 1.0256 46.9813 0.7499 -7.1250 0.0000 -0.0000 -56.7161 69.1203 -36.7207 0.0000 -0.0000 0.0000 10.8163 56.4737 -27.5634 -10.7300 17.8732 -1.6921 0.0000 0.0000 23.5873 -9.6195 -21.5501 3.5624 7.1250 -0.0000 -0.0000 19.0986 -50.8055 -2.8205
-1.0618 13.6171 -14.7942 12.3045 27.6251 10.0929 0.0000 0.0000 0.0000 -11.4922 7.2518 15.7502 2.1201 9.1119 26.1461 -0.7948 25.2491 -30.5227 2.5112 -9.8583 -28.5191 0.0000 0.0000 0.0000 -6.5628 -7.2492 -71.3934 -16.2938 -19.6674 79.1060 -0.0264 10.5315 -7.7961 -0.0177 -0.8581 2.3584 -16.0076 3.6819 14.1463 -1.2350 1.9909 -1.5740 7.1880 1.8216 -10.3436 -12.8149 -12.6871 1.8134 11.2041 -17.3976 1.8934 4.7844 -8.7287 2.3687 -0.0000 0.0000 0.0000 -76.6943 34.6335 58.2864 111.7728 -58.1307 -78.7375 -0.0000 0.0000 -55.0628 1.5871 47.1876 1.1644 -7.1250 0.0000 -0.0000 -56.7156 69.4185 -37.0547 -0.0000 0.0000 0.0000 10.6538 56.5780 -27.4751 -10.8500 18.0580 -1.7291 0.0000 0.0000 23.3658 -9.5794 -21.5110 3.5412 7.1250 -0.0000 -0.0000 19.1181 -50.7621 -2.8027
-1.0693 13.6257 -14.8034 12.2844 27.5183 10.2579 0.0000 0.0000 0.0000 -11.5440 7.2511 15.5543 2.1128 9.0971 26.0995 -0.8207 25.3140 -30.4491 2.5041 -9.8454 -28.4777 0.0000 0.0000 0.0000 -6.5681 -7.0353 -71.5084 -16.2591 -19.6611 79.0028 -0.1007 9.4790 -8.2902 -0.0002 -0.0966 0.2653 -15.6760 3.6099 14.6503 -1.2551 1.8542 -1.5789 7.0023 1.7539 -10.5901 -12.8271 -12.6509 1.6712 11.2994 -17.3180 1.5904 4.8203 -8.6850 2.3017 -0.0000 0.0000 0.0000 -76.5686 34.7880 58.3128 111.7459 -58.1355 -78.7146 -0.0000 0.0000 -55.2190 1.9363 47.3025 1.4233 -7.1250 0.0000 -0.0000 -56.6905 69.5971 -37.2341 -0.0000 0.0000 0.0000 10.3871 56.7629 -27.3209 -10.9796 18.2570 -1.7695 0.0000 0.0000 23.0230 -9.6619 -21.5035 3.5710 7.1250 -0.0000 -0.0000 19.0368 -50.7681 -2.7928
