HIERARCHY
ROOT Hips
{
	OFFSET 0.00000 0.00000 0.00000
	CHANNELS 6 Xposition Yposition Zposition Zrotation Yrotation Xrotation 
	JOINT LHipJoint
	{
		OFFSET 0 0 0
		CHANNELS 3 Zrotation Yrotation Xrotation
		JOINT LeftUpLeg
		{
			OFFSET 1.57358 -1.76629 0.73362
			CHANNELS 3 Zrotation Yrotation Xrotation
			JOINT LeftLeg
			{
				OFFSET 2.40600 -6.61045 0.00000
				CHANNELS 3 Zrotation Yrotation Xrotation
				JOINT LeftFoot
				{
					OFFSET 2.66168 -7.31291 0.00000
					CHANNELS 3 Zrotation Yrotation Xrotation
					JOINT LeftToeBase
					{
						OFFSET 0.20870 -0.57341 2.12506
						CHANNELS 3 Zrotation Yrotation Xrotation
						End Site
						{
							OFFSET 0.00000 -0.00000 1.10557
						}
					}
				}
			}
		}
	}
	JOINT RHipJoint
	{
		OFFSET 0 0 0
		CHANNELS 3 Zrotation Yrotation Xrotation
		JOINT RightUpLeg
		{
			OFFSET -1.49299 -1.76629 0.73362
			CHANNELS 3 Zrotation Yrotation Xrotation
			JOINT RightLeg
			{
				OFFSET -2.43663 -6.69460 0.00000
				CHANNELS 3 Zrotation Yrotation Xrotation
				JOINT RightFoot
				{
					OFFSET -2.62959 -7.22474 0.00000
					CHANNELS 3 Zrotation Yrotation Xrotation
					JOINT RightToeBase
					{
						OFFSET -0.25784 -0.70841 2.21862
						CHANNELS 3 Zrotation Yrotation Xrotation
						End Site
						{
							OFFSET -0.00000 -0.00000 1.16452
						}
					}
				}
			}
		}
	}
	JOINT LowerBack
	{
		OFFSET 0 0 0
		CHANNELS 3 Zrotation Yrotation Xrotation
		JOINT Spine
		{
			OFFSET -0.00034 2.12399 -0.25450
			CHANNELS 3 Zrotation Yrotation Xrotation
			JOINT Spine1
			{
				OFFSET 0.05594 2.14379 -0.03318
				CHANNELS 3 Zrotation Yrotation Xrotation
				JOINT Neck
				{
					OFFSET 0 0 0
					CHANNELS 3 Zrotation Yrotation Xrotation
					JOINT Neck1
					{
						OFFSET -0.09835 1.62725 0.24211
						CHANNELS 3 Zrotation Yrotation Xrotation
						JOINT Head
						{
							OFFSET 0.10849 1.66041 -0.22648
							CHANNELS 3 Zrotation Yrotation Xrotation
							End Site
							{
								OFFSET 0.04385 1.68267 -0.10541
							}
						}
					}
				}
				JOINT LeftShoulder
				{
					OFFSET 0 0 0
					CHANNELS 3 Zrotation Yrotation Xrotation
					JOINT LeftArm
					{
						OFFSET 3.29108 0.79398 -0.68179
						CHANNELS 3 Zrotation Yrotation Xrotation
						JOINT LeftForeArm
						{
							OFFSET 5.15310 -0.00000 -0.00000
							CHANNELS 3 Zrotation Yrotation Xrotation
							JOINT LeftHand
							{
								OFFSET 3.75138 -0.00000 -0.00000
								CHANNELS 3 Zrotation Yrotation Xrotation
								JOINT LeftFingerBase
								{
									OFFSET 0 0 0
									CHANNELS 3 Zrotation Yrotation Xrotation
									JOINT LeftHandIndex1
									{
										OFFSET 0.52917 -0.00000 0.00000
										CHANNELS 3 Zrotation Yrotation Xrotation
										End Site
										{
											OFFSET 0.42663 -0.00000 0.00000
										}
									}
								}
								JOINT LThumb
								{
									OFFSET 0 0 0
									CHANNELS 3 Zrotation Yrotation Xrotation
									End Site
									{
										OFFSET 0.43315 -0.00000 0.43315
									}
								}
							}
						}
					}
				}
				JOINT RightShoulder
				{
					OFFSET 0 0 0
					CHANNELS 3 Zrotation Yrotation Xrotation
					JOINT RightArm
					{
						OFFSET -3.07414 1.06285 -0.44338
						CHANNELS 3 Zrotation Yrotation Xrotation
						JOINT RightForeArm
						{
							OFFSET -5.29613 -0.00000 0.00000
							CHANNELS 3 Zrotation Yrotation Xrotation
							JOINT RightHand
							{
								OFFSET -3.76144 -0.00000 -0.00000
								CHANNELS 3 Zrotation Yrotation Xrotation
								JOINT RightFingerBase
								{
									OFFSET 0 0 0
									CHANNELS 3 Zrotation Yrotation Xrotation
									JOINT RightHandIndex1
									{
										OFFSET -0.74732 -0.00000 0.00000
										CHANNELS 3 Zrotation Yrotation Xrotation
										End Site
										{
											OFFSET -0.60251 -0.00000 0.00000
										}
									}
								}
								JOINT RThumb
								{
									OFFSET 0 0 0
									CHANNELS 3 Zrotation Yrotation Xrotation
									End Site
									{
										OFFSET -0.61171 -0.00000 0.61171
									}
								}
							}
						}
					}
				}
			}
		}
	}
}
MOTION
Frames: 104
Frame Time: 0.0166667
0.9489 18.0131 -32.5725 0.0000 0.0000 0.0000 0.0000 0.0000 0.0000 -21.0000 0.0000 0.0000 0.0000 0.0000 0.0000 0.0000 0.0000 0.0000 0.0000 0.0000 0.0000 0.0000 0.0000 0.0000 21.0000 0.0000 0.0000 0.0000 0.0000 0.0000 0.0000 0.0000 0.0000 0.0000 0.0000 0.0000 0.0000 0.0000 0.0000 0.0000 0.0000 0.0000 0.0000 0.0000 0.0000 0.0000 0.0000 -16.0000 0.0000 0.0000 21.0000 0.0000 0.0000 11.0000 0.0000 0.0000 0.0000 -8.0000 0.0000 0.0000 0.0000 0.0000 0.0000 0.0000 0.0000 0.0000 0.0000 0.0000 0.0000 0.0000 0.0000 0.0000 0.0000 0.0000 0.0000 0.0000 0.0000 0.0000 8.0000 0.0000 0.0000 0.0000 0.0000 0.0000 0.0000 0.0000 0.0000 0.0000 0.0000 0.0000 0.0000 0.0000 0.0000 0.0000 0.0000 0.0000
0.9489 18.0131 -32.5725 -4.0537 1.8050 6.1290 0.0000 0.0000 0.0000 -14.7358 -11.4066 -32.8272 2.2073 9.2851 26.6914 0.0941 -2.0734 6.9471 0.4589 -4.3457 -12.0513 0.0000 0.0000 0.0000 31.0310 4.7904 12.0487 -5.9244 -14.3547 44.6777 -0.5441 -10.4931 14.0772 -0.0708 -1.7165 4.7228 4.9886 2.2975 8.2533 3.2573 3.6252 1.0444 0.1825 1.7503 -3.4449 -9.4705 -5.9136 -18.4036 6.3601 -6.5580 10.7513 2.8427 -3.0202 6.8010 -0.0000 -0.0000 0.0000 -88.4973 29.0246 35.7039 115.0723 -57.4861 -81.5300 -0.0000 0.0000 -28.7252 16.3058 8.8791 2.5853 -7.1250 0.0000 -0.0000 -9.1892 39.0673 1.3566 -0.0000 -0.0000 0.0000 82.6043 -9.6235 40.6531 -139.1203 48.5825 -100.9037 0.0000 -0.0000 -7.2280 -17.8188 23.4025 -7.2754 7.1250 -0.0000 -0.0000 7.0183 -5.6880 6.3370
0.9407 17.9500 -32.1653 -3.7186 1.7762 5.8723 0.0000 0.0000 0.0000 -15.4101 -10.9795 -31.8421 2.1686 9.2089 26.4509 0.1005 -2.7450 7.6523 0.2900 -3.4629 -9.5702 0.0000 0.0000 0.0000 30.5794 4.9204 10.5670 -6.9700 -15.3066 48.7608 -0.5753 -10.9417 14.5237 -0.0325 -1.1630 3.1974 2.6308 1.2695 8.5431 4.5596 2.2684 -1.4718 2.9918 1.1113 -6.4385 -11.2086 -3.7288 -7.1382 6.1581 -4.3538 7.7014 3.4566 -2.1914 3.8457 0.0000 0.0000 0.0000 -92.6405 35.1066 32.1056 117.0088 -57.0557 -83.1591 -0.0000 0.0000 -28.4085 16.4459 8.8407 2.5975 -7.1250 0.0000 -0.0000 -9.0628 39.0384 1.3441 0.0000 0.0000 0.0000 79.4700 -15.8067 44.7665 -139.3698 48.4389 -101.0906 0.0000 -0.0000 -7.3529 -17.7786 23.1822 -7.1942 7.1250 -0.0000 -0.0000 7.0273 -5.9190 6.3139
0.9283 17.7711 -31.3562 -2.8173 1.4168 5.3190 0.0000 0.0000 0.0000 -17.1319 -9.7287 -30.7467 2.5031 9.8435 28.4713 -0.0669 -5.7961 5.8907 0.0028 0.3392 0.9321 0.0000 0.0000 0.0000 29.0446 5.0823 7.7582 -9.2672 -16.9766 57.0095 -0.4703 -10.6020 13.3523 -0.0380 -1.2587 3.4608 0.3588 0.7449 9.1220 4.9922 1.3660 -1.4099 4.8707 0.7657 -6.7379 -12.1275 -2.9435 -6.7316 6.2210 -3.2510 7.5650 3.6977 -1.6746 3.6571 -0.0000 -0.0000 0.0000 -94.3657 34.4680 30.7266 118.3847 -56.7252 -84.3116 -0.0000 0.0000 -28.1770 17.1704 9.1434 2.8110 -7.1250 0.0000 -0.0000 -8.4936 39.4055 1.1809 -0.0000 -0.0000 0.0000 77.8417 -17.0755 46.6691 -138.4097 48.9844 -100.3692 0.0000 -0.0000 -7.0507 -17.1457 21.0252 -6.3162 7.1250 -0.0000 -0.0000 7.2872 -8.2120 6.2235
0.9247 17.5539 -30.5636 -2.2208 1.5266 4.5574 0.0000 0.0000 0.0000 -18.4550 -8.8625 -29.5120 3.2911 11.1520 32.7944 -0.1797 -8.0427 -0.1781 0.0002 0.0883 0.2426 0.0000 0.0000 0.0000 27.4674 4.5514 4.4928 -11.7299 -18.2741 65.1301 -0.4189 -9.8057 12.5307 -0.0611 -1.5943 4.3858 1.5019 2.0593 8.7515 3.1757 2.9919 1.6110 2.1023 1.4834 -3.3266 -10.1512 -5.3004 -15.5958 6.9874 -5.8824 9.2925 3.2844 -2.7198 5.8605 -0.0000 -0.0000 0.0000 -87.7871 26.5956 37.4263 118.5075 -56.6947 -84.4143 -0.0000 0.0000 -28.2243 16.4141 8.7713 2.5721 -7.1250 0.0000 -0.0000 -9.0780 38.9649 1.3630 -0.0000 -0.0000 0.0000 82.3840 -12.6623 40.8082 -136.3383 50.0957 -98.7930 0.0000 -0.0000 -6.6369 -18.6497 22.7986 -7.4509 7.1250 -0.0000 -0.0000 6.4553 -6.1838 5.7600
0.9213 17.3494 -29.7974 -1.8011 1.7975 3.8155 0.0000 0.0000 0.0000 -19.2986 -9.0313 -28.1402 4.3270 12.5833 37.8280 0.0057 -8.9519 -6.3808 0.0293 1.1050 3.0377 0.0000 0.0000 0.0000 25.9572 4.0641 0.8499 -14.2981 -19.2020 73.1129 -0.3377 -8.6375 11.1917 -0.0538 -1.4968 4.1170 1.6303 0.6510 6.6620 2.5505 1.0223 2.1595 1.6294 0.5069 -1.5265 -10.6229 -3.8818 -8.5203 7.8867 -4.5577 5.5526 3.8721 -2.1517 3.4660 -0.0000 -0.0000 0.0000 -88.1938 26.2486 34.8674 121.3789 -55.9312 -86.8037 -0.0000 0.0000 -27.6123 15.5049 8.4313 2.3293 -7.1250 0.0000 -0.0000 -9.7934 38.5504 1.5736 -0.0000 -0.0000 0.0000 82.4828 -14.3368 43.9291 -135.0224 50.7575 -97.7786 0.0000 -0.0000 -7.0129 -18.9468 23.4373 -7.7752 7.1250 -0.0000 -0.0000 6.3204 -5.4825 5.7233
0.9137 17.1383 -29.0904 -0.8432 2.6383 3.8251 0.0000 0.0000 0.0000 -20.5799 -10.2869 -27.3165 5.2487 13.6585 41.8865 0.3619 -7.5728 -11.1954 0.0037 0.3939 1.0823 0.0000 0.0000 0.0000 23.4474 3.3393 -4.5362 -17.0119 -19.7846 81.2333 -0.2939 -6.9642 10.1209 -0.0341 -1.1921 3.2776 1.5168 1.0551 8.6710 1.2636 1.5402 3.8815 0.3087 0.7757 -0.8378 -9.1498 -4.8061 -18.8464 8.9915 -5.4020 8.8400 3.7909 -2.2224 6.2434 0.0000 -0.0000 0.0000 -84.5277 18.8024 38.2384 122.4804 -55.6119 -87.7144 -0.0000 0.0000 -28.1183 17.5370 9.3408 2.9361 -7.1250 0.0000 -0.0000 -8.2115 39.6382 1.0937 0.0000 -0.0000 0.0000 85.7668 -11.4119 40.2645 -133.1097 51.6616 -96.2877 0.0000 -0.0000 -7.7843 -18.6547 24.4974 -7.9689 7.1250 -0.0000 -0.0000 6.5889 -4.4402 6.1003
0.8904 16.9555 -28.3710 0.8900 1.9681 3.9337 0.0000 0.0000 0.0000 -22.8503 -9.6847 -25.8762 5.9024 14.3331 44.5888 0.7848 -6.5912 -15.8114 0.0018 -0.2709 -0.7444 0.0000 0.0000 0.0000 19.8019 3.9163 -10.0514 -19.6348 -19.9968 88.9321 -0.2967 -4.5075 9.7255 -0.0433 -1.3427 3.6923 -0.6905 1.0283 8.4166 0.6126 1.3220 4.6730 0.9104 0.6425 0.0844 -8.8102 -5.3867 -19.0513 8.8979 -6.1726 7.7296 3.6091 -2.5921 5.9797 0.0000 0.0000 0.0000 -84.1091 14.6925 38.3781 124.2843 -55.0558 -89.1981 -0.0000 0.0000 -29.7448 17.2186 9.5403 2.9404 -7.1250 0.0000 -0.0000 -8.5204 39.8185 1.0974 0.0000 0.0000 0.0000 86.4792 -11.5769 39.8457 -131.4009 52.4146 -94.9403 0.0000 -0.0000 -9.1863 -18.5553 24.1226 -7.8113 7.1250 -0.0000 -0.0000 6.6187 -4.8397 6.0783
0.8770 16.7657 -27.6900 2.1496 1.1031 3.9717 0.0000 0.0000 0.0000 -24.5296 -8.8998 -23.9914 6.3065 14.7190 46.2000 1.2435 -6.5378 -19.9307 0.0065 -0.5223 -1.4352 0.0000 0.0000 0.0000 16.7267 4.8440 -15.6935 -21.9525 -19.9084 95.7170 -0.2768 -2.5254 9.3852 -0.2752 -3.3745 9.3233 -3.3094 1.3074 12.8913 0.8831 1.3274 2.3123 2.5723 0.7105 -4.8889 -9.4379 -5.2445 -18.9558 8.3191 -5.8912 10.1954 3.5593 -2.5187 6.7260 0.0000 0.0000 0.0000 -85.0640 14.5646 38.9451 125.9086 -54.5180 -90.5253 -0.0000 0.0000 -31.5934 18.1232 10.4708 3.4040 -7.1250 0.0000 -0.0000 -7.8987 40.8577 0.8126 0.0000 0.0000 0.0000 85.6531 -16.6641 39.6256 -129.6115 53.1510 -93.5153 0.0000 -0.0000 -9.1230 -19.0153 23.6820 -7.8809 7.1250 -0.0000 -0.0000 6.2980 -5.2204 5.7344
0.8559 16.6443 -26.9857 1.7500 0.7768 4.7142 0.0000 0.0000 0.0000 -24.1913 -8.3800 -22.3732 6.5277 14.9209 47.0644 1.6521 -6.0853 -23.0965 0.0254 -1.0287 -2.8279 0.0000 0.0000 0.0000 16.0317 5.6905 -22.0739 -23.6247 -19.6820 100.6520 -0.2475 -1.2395 9.0422 -0.1626 -2.5979 7.1613 -3.3508 1.1810 12.8135 0.9343 1.1581 2.1564 2.6787 0.6322 -5.0002 -9.2792 -5.3085 -18.9432 8.4072 -6.0128 9.8292 3.5469 -2.5647 6.6154 0.0000 -0.0000 0.0000 -85.0188 10.7237 39.0494 127.8556 -53.8246 -92.1040 -0.0000 0.0000 -31.9826 19.1897 12.2931 4.2380 -7.1250 0.0000 -0.0000 -7.2934 42.8554 0.3882 0.0000 -0.0000 0.0000 86.3832 -18.5052 38.7511 -127.4365 53.9785 -91.7653 0.0000 -0.0000 -8.3860 -19.1312 22.9778 -7.7120 7.1250 -0.0000 -0.0000 6.1685 -5.9270 5.5315
0.8584 16.5826 -26.2710 1.6791 0.6060 5.6041 0.0000 0.0000 0.0000 -24.4504 -7.8970 -20.3807 6.5153 14.9098 47.0166 1.9386 -5.8190 -25.1245 0.0559 -1.5258 -4.1969 0.0000 0.0000 0.0000 14.7880 5.9835 -28.4653 -24.6923 -19.4637 103.8382 -0.1915 0.4970 8.4617 -0.2588 3.2733 -9.0405 -3.3359 0.9454 12.2595 0.8567 0.8611 1.9644 2.6423 0.4860 -4.8735 -9.3090 -5.2750 -19.3635 8.7000 -5.9971 10.3099 3.6474 -2.5216 6.8501 0.0000 -0.0000 0.0000 -85.5704 7.5066 38.3902 129.1760 -53.3225 -93.1664 -0.0000 0.0000 -30.3549 17.7261 10.2145 3.2443 -7.1250 0.0000 -0.0000 -8.1993 40.5573 0.9051 0.0000 -0.0000 0.0000 86.8102 -20.4948 38.2657 -126.6812 54.2494 -91.1534 0.0000 -0.0000 -6.9901 -19.1296 21.3288 -7.1905 7.1250 -0.0000 -0.0000 6.0450 -7.6282 5.2189
0.8499 16.5719 -25.5376 2.4172 1.5518 6.2140 0.0000 0.0000 0.0000 -25.5684 -8.0328 -17.1157 6.2076 14.6265 45.8091 2.0652 -5.3905 -26.0174 0.1110 -2.1479 -5.9147 0.0000 0.0000 0.0000 13.0870 4.7533 -33.9700 -25.1567 -19.3501 105.2357 -0.1271 1.7623 7.6235 -0.0715 1.7253 -4.7470 -4.1296 0.1143 12.1224 0.8841 -0.3384 1.7325 3.3163 -0.0848 -4.9494 -9.4857 -5.0048 -20.2431 8.7011 -5.5545 11.1590 3.7293 -2.2932 7.2345 0.0000 -0.0000 0.0000 -86.5819 5.3297 37.2443 131.2124 -52.4947 -94.7909 -0.0000 0.0000 -28.6622 17.6206 8.8173 2.7873 -7.1250 0.0000 -0.0000 -8.0531 39.1031 1.1790 0.0000 -0.0000 0.0000 86.3741 -22.4138 38.8006 -126.4890 54.3170 -90.9973 0.0000 -0.0000 -6.5384 -18.3658 22.4031 -7.2113 7.1250 -0.0000 -0.0000 6.6040 -6.6319 5.8370
0.8532 16.6521 -24.8055 2.7864 1.7371 6.7243 0.0000 0.0000 0.0000 -26.4081 -7.5822 -13.7979 5.6808 14.1117 43.6869 1.9000 -4.3872 -25.0459 0.2911 -3.4693 -9.5882 0.0000 0.0000 0.0000 12.2112 4.4531 -38.8339 -24.9774 -19.3954 104.6951 -0.0628 2.8445 6.6453 -0.0000 0.0382 -0.1049 -4.4997 -0.5105 12.4269 0.9765 -1.2290 1.4173 3.7777 -0.4982 -5.3624 -9.4375 -4.5890 -20.4887 8.4646 -4.9498 11.3147 3.7203 -2.0178 7.2593 0.0000 -0.0000 0.0000 -87.7694 3.7729 35.6986 133.6358 -51.4196 -96.6996 -0.0000 0.0000 -27.7739 17.3060 8.3011 2.5757 -7.1250 0.0000 -0.0000 -8.2394 38.5460 1.3204 0.0000 -0.0000 0.0000 85.8211 -24.3568 39.5601 -127.4769 53.9638 -91.7980 0.0000 -0.0000 -7.2169 -17.1928 23.0680 -6.9125 7.1250 -0.0000 -0.0000 7.3843 -6.1200 6.6114
0.8495 16.8120 -24.0149 2.8504 3.2235 7.6809 0.0000 0.0000 0.0000 -26.5558 -8.4450 -10.2418 5.0790 13.4723 41.1631 1.5441 -4.4358 -22.4723 0.6648 -5.2144 -14.5211 0.0000 0.0000 0.0000 12.3705 3.2123 -43.0799 -23.9951 -19.6129 101.7538 -0.0194 3.4013 5.7072 -0.0114 -0.6895 1.8948 -4.2619 -1.6735 11.4809 1.2831 -2.6809 1.3718 4.1572 -1.2330 -4.7376 -9.0114 -4.0834 -21.1355 7.8618 -4.2082 10.9914 3.5381 -1.6857 7.1636 0.0000 -0.0000 0.0000 -88.5885 2.1762 34.3583 135.4936 -50.5244 -98.1429 -0.0000 0.0000 -27.8655 16.7642 8.6577 2.5963 -7.1250 0.0000 -0.0000 -8.7598 38.8742 1.3340 0.0000 -0.0000 0.0000 85.1254 -25.5697 40.5677 -128.5842 53.5508 -92.6911 0.0000 -0.0000 -7.8494 -16.7537 23.5136 -6.8486 7.1250 -0.0000 -0.0000 7.6874 -5.7286 6.9459
0.8328 16.9947 -23.2189 2.8751 2.7109 7.9366 0.0000 0.0000 0.0000 -26.8218 -7.1912 -6.6854 4.4915 12.7872 38.5771 1.0758 -3.9736 -18.6816 1.3838 -7.4433 -21.0355 0.0000 0.0000 0.0000 12.7837 4.2969 -45.4538 -22.4945 -19.8502 97.3109 0.0205 3.8094 4.4100 -0.0143 -0.7724 2.1229 -4.5942 -1.9945 11.6328 1.5097 -3.1483 1.1112 4.6684 -1.4414 -5.0185 -8.4808 -3.6822 -21.3535 7.3042 -3.6998 10.8347 3.3278 -1.4662 7.0793 0.0000 -0.0000 0.0000 -89.0209 1.7770 33.3275 136.8086 -49.8511 -99.1530 -0.0000 0.0000 -28.6136 16.0915 8.9217 2.5616 -7.1250 0.0000 -0.0000 -9.3800 39.0947 1.3790 0.0000 -0.0000 0.0000 84.6074 -27.4094 41.2814 -129.7517 53.0952 -93.6274 0.0000 -0.0000 -8.2728 -16.8983 23.8211 -6.9950 7.1250 -0.0000 -0.0000 7.6189 -5.3954 6.9317
0.8079 17.2221 -22.4007 2.7329 2.3446 8.3935 0.0000 0.0000 0.0000 -26.6084 -6.0113 -3.6194 3.9150 12.0464 35.8963 0.5271 -4.2865 -12.9251 1.7184 -8.2530 -23.4853 0.0000 0.0000 0.0000 13.5631 5.6038 -47.1806 -20.4647 -19.9948 91.3588 0.0356 3.8732 3.4865 -0.0147 0.7830 -2.1520 -4.8307 -2.2947 11.2979 1.9538 -3.5404 1.0254 5.3114 -1.6319 -4.8358 -8.6329 -3.4104 -22.0294 7.2692 -3.2185 10.6812 3.3992 -1.2325 7.0994 -0.0000 -0.0000 0.0000 -89.3558 1.5743 32.9604 137.1918 -49.6484 -99.4456 -0.0000 0.0000 -29.4094 17.3531 8.1226 2.5280 -7.1250 0.0000 -0.0000 -8.1713 38.3649 1.3459 -0.0000 -0.0000 0.0000 84.1859 -28.7041 41.3223 -130.6114 52.7459 -94.3133 0.0000 -0.0000 -8.8784 -17.4823 23.9797 -7.2944 7.1250 -0.0000 -0.0000 7.2695 -5.1486 6.6427
0.7745 17.4638 -21.5591 2.7070 1.6329 8.6698 0.0000 0.0000 0.0000 -26.2757 -4.0951 -0.9603 3.3127 11.1848 32.9057 0.0786 -4.7212 -5.5828 2.0137 -8.8947 -25.4664 0.0000 0.0000 0.0000 14.2381 7.2090 -47.6522 -17.9704 -19.9009 84.0563 0.0458 3.9799 2.7349 -0.0269 1.0589 -2.9109 -5.1413 -2.4541 11.2180 2.1754 -3.7797 0.8361 5.7583 -1.7347 -4.9262 -8.3520 -3.1919 -22.6632 7.1540 -2.9467 10.9187 3.3518 -1.0902 7.2504 0.0000 -0.0000 0.0000 -89.2467 1.8343 32.6843 136.8807 -49.8132 -99.2081 -0.0000 0.0000 -30.0194 16.4749 9.1255 2.6854 -7.1250 0.0000 -0.0000 -9.0875 39.3329 1.2814 0.0000 -0.0000 0.0000 84.2831 -30.0536 41.1007 -131.0232 52.5744 -94.6407 0.0000 -0.0000 -9.3394 -16.7964 24.1054 -7.0280 7.1250 -0.0000 -0.0000 7.7018 -5.1212 7.0490
0.7531 17.6671 -20.6944 2.6168 0.4469 8.9300 0.0000 0.0000 0.0000 -25.9591 -2.0175 1.5812 2.6968 10.1873 29.5854 -0.0087 -3.3008 4.2413 1.5973 -7.9713 -22.6270 0.0000 0.0000 0.0000 14.7936 9.0791 -47.2814 -15.2236 -19.4440 75.9094 0.0453 3.8140 1.9917 -0.0804 1.8291 -5.0336 -5.2730 -2.4762 10.6868 2.3735 -3.7945 0.6707 6.0170 -1.7407 -4.7805 -8.3184 -3.0543 -22.6287 7.0178 -2.7426 10.7097 3.3246 -1.0043 7.1561 0.0000 -0.0000 0.0000 -89.0486 2.5874 32.2797 135.6653 -50.4384 -98.2753 -0.0000 0.0000 -30.4008 16.0943 9.5377 2.7371 -7.1250 0.0000 -0.0000 -9.4887 39.7251 1.2466 0.0000 -0.0000 0.0000 84.3582 -31.4397 40.8573 -131.5003 52.3722 -95.0191 0.0000 -0.0000 -9.7762 -16.7179 24.2606 -7.0354 7.1250 -0.0000 -0.0000 7.7612 -4.9751 7.1260
0.7331 17.8662 -19.8084 2.4708 -0.7024 9.1959 0.0000 0.0000 0.0000 -25.6853 -0.9214 4.3393 2.1324 9.1365 26.2234 0.6467 1.0008 14.8830 0.5197 -4.6202 -12.8283 0.0000 0.0000 0.0000 15.4546 10.4407 -46.3043 -12.3408 -18.5310 67.0650 0.0476 3.8977 1.9271 -0.2009 2.8864 -7.9627 -5.1682 -2.3478 9.8830 2.5037 -3.5677 0.8200 6.0082 -1.6572 -4.2039 -8.3036 -2.9507 -23.6554 7.1283 -2.5399 10.6422 3.3865 -0.8778 7.2826 0.0000 -0.0000 0.0000 -88.4748 2.8211 32.5717 133.7103 -51.3849 -96.7579 -0.0000 0.0000 -30.5262 14.5303 8.6187 2.2243 -7.1250 0.0000 -0.0000 -10.6546 38.6704 1.6838 0.0000 -0.0000 0.0000 84.9146 -32.1985 40.0617 -131.8732 52.2115 -95.3141 0.0000 -0.0000 -9.6923 -16.2708 24.0736 -6.7894 7.1250 -0.0000 -0.0000 8.0237 -5.2289 7.3329
0.7248 18.0395 -18.9247 2.4147 -1.5267 9.3969 0.0000 0.0000 0.0000 -25.7983 -0.9780 7.1723 1.7545 8.3348 23.7356 1.3806 3.8141 21.2901 0.3140 -3.6023 -9.9605 0.0000 0.0000 0.0000 16.0566 11.0531 -44.7653 -9.4713 -17.1016 57.7063 0.0515 4.1202 2.4572 -0.3016 3.5311 -9.7610 -4.9369 -2.3552 9.4536 2.5924 -3.5361 0.3767 5.9586 -1.6260 -4.4426 -8.2777 -2.7128 -22.9026 6.9487 -2.2606 10.6999 3.3567 -0.7737 7.1560 -0.0000 0.0000 0.0000 -87.8771 4.2403 32.9569 131.3040 -52.4558 -94.8636 -0.0000 0.0000 -30.5098 17.0421 8.1975 2.5027 -7.1250 0.0000 -0.0000 -8.4477 38.4203 1.3806 -0.0000 0.0000 0.0000 85.2442 -34.0836 39.5535 -132.8400 51.7838 -96.0760 0.0000 -0.0000 -9.4591 -16.5624 24.1309 -6.9322 7.1250 -0.0000 -0.0000 7.8478 -5.1292 7.1840
0.7180 18.1921 -18.0292 2.3974 -1.9661 9.8152 0.0000 0.0000 0.0000 -26.0576 -1.6219 9.3556 1.6343 8.0587 22.8926 1.8089 3.9267 24.4864 0.1655 -2.6211 -7.2256 0.0000 0.0000 0.0000 16.5549 11.2966 -43.0580 -6.8269 -15.1844 48.2165 0.0508 4.2804 3.2018 -0.2914 3.4713 -9.5938 -4.4748 -2.3499 8.8007 2.5272 -3.4637 -0.1475 5.5997 -1.5812 -4.6680 -7.9574 -2.6270 -21.6937 6.7439 -2.2874 10.2949 3.2263 -0.8108 6.8253 0.0000 0.0000 0.0000 -86.9374 5.9661 33.8352 129.1830 -53.3197 -93.1720 -0.0000 0.0000 -30.8114 16.9181 9.3408 2.8263 -7.1250 0.0000 -0.0000 -8.7445 39.5890 1.1766 0.0000 0.0000 0.0000 86.0614 -35.7805 38.7165 -133.7501 51.3663 -96.7889 0.0000 -0.0000 -8.9913 -17.1868 24.4179 -7.2864 7.1250 -0.0000 -0.0000 7.4843 -4.7463 6.8997
0.7181 18.2952 -17.1601 2.6916 -2.3374 9.9643 0.0000 0.0000 0.0000 -26.6564 -1.8608 10.8825 1.7285 8.2760 23.5556 1.6475 3.1096 23.4715 0.2762 -3.3804 -9.3395 0.0000 0.0000 0.0000 16.7995 11.1181 -40.8927 -4.6076 -12.9278 39.0990 0.0445 4.4143 4.1093 -0.3235 3.6557 -10.1099 -4.3404 -2.4116 8.4513 2.5505 -3.5178 -0.0471 5.5278 -1.6240 -4.3657 -8.1946 -2.7116 -22.6487 6.7076 -2.2688 10.8088 3.2615 -0.8019 7.1472 0.0000 -0.0000 0.0000 -86.4551 6.4639 34.5677 126.4390 -54.3345 -90.9567 -0.0000 0.0000 -29.8120 17.5559 8.1399 2.5649 -7.1250 0.0000 -0.0000 -8.0014 38.3971 1.3111 0.0000 -0.0000 0.0000 86.0353 -35.9178 38.4425 -134.7769 50.8773 -97.5883 0.0000 -0.0000 -8.7041 -17.1435 24.3907 -7.2595 7.1250 -0.0000 -0.0000 7.5089 -4.7804 6.9179
0.7034 18.3559 -16.3022 3.8405 -2.4159 9.8534 0.0000 0.0000 0.0000 -27.8656 -1.8191 11.9196 2.0120 8.8910 25.4550 1.5011 2.4977 22.4910 0.1285 -2.3104 -6.3644 0.0000 0.0000 0.0000 16.1347 10.4747 -38.4391 -2.9338 -10.5872 30.8999 -0.0045 2.9642 4.4754 -0.1802 2.7344 -7.5402 -4.9702 -2.4125 8.5145 2.0216 -3.6139 -0.4005 5.3552 -1.6402 -4.7569 -7.4579 -2.5052 -21.1927 6.4071 -2.2422 10.0444 3.0360 -0.8063 6.6494 0.0000 0.0000 0.0000 -85.3276 7.9548 35.3915 124.5261 -54.9780 -89.3963 -0.0000 0.0000 -30.8320 15.7425 8.7052 2.4430 -7.1250 0.0000 -0.0000 -9.6394 38.8472 1.4772 0.0000 0.0000 0.0000 87.0862 -36.8298 37.7350 -135.5690 50.4867 -98.2011 0.0000 -0.0000 -8.1310 -17.0014 25.1799 -7.4119 7.1250 -0.0000 -0.0000 7.6560 -4.0002 7.1688
0.6834 18.3840 -15.4484 4.6463 -2.6169 9.7235 0.0000 0.0000 0.0000 -28.6467 -1.6640 12.3161 2.5205 9.8752 28.5734 1.2618 1.7263 20.7379 0.3088 -3.5728 -9.8778 0.0000 0.0000 0.0000 15.8606 10.1537 -35.7821 -1.8152 -8.4700 24.1511 -0.0328 0.3076 3.5490 -0.5616 4.7999 -13.3386 -7.8776 -4.4189 9.3171 4.4820 -6.5649 -1.8945 10.1287 -2.8892 -5.8209 -11.9380 -0.7620 -17.3821 6.2380 0.9266 10.0822 4.0207 0.4769 5.7944 -0.0000 0.0000 0.0000 -91.3902 12.5347 29.8062 123.1913 -55.3978 -88.3003 -0.0000 0.0000 -28.4084 18.1391 8.4639 2.7606 -7.1250 0.0000 -0.0000 -7.5536 38.7753 1.1661 -0.0000 0.0000 0.0000 76.4116 -38.0635 46.5360 -136.3711 50.0788 -98.8181 0.0000 -0.0000 -8.5786 -15.4503 25.5139 -6.7891 7.1250 -0.0000 -0.0000 8.6240 -3.8918 8.1128
0.6645 18.3661 -14.5977 5.1556 -2.5323 9.3791 0.0000 0.0000 0.0000 -29.0469 -1.8844 12.2783 3.3136 11.1862 32.9106 1.3448 1.5974 21.4623 0.0056 -0.4826 -1.3262 0.0000 0.0000 0.0000 15.6426 10.2412 -33.1183 -1.1840 -6.9056 19.4359 -0.0327 -3.2662 3.6846 -0.6852 5.2923 -14.7443 -5.4684 -2.2401 8.6765 1.5731 -3.4580 -0.0878 5.1440 -1.5705 -4.5383 -7.6303 -3.3506 -21.7380 6.2823 -3.2857 10.4386 2.8970 -1.3186 6.9411 -0.0000 -0.0000 0.0000 -84.1576 9.2722 37.6032 119.6512 -56.4022 -85.3685 -0.0000 0.0000 -28.8727 17.2125 8.9649 2.7638 -7.1250 0.0000 -0.0000 -8.4273 39.2245 1.2093 -0.0000 -0.0000 0.0000 88.0469 -35.4233 36.6357 -136.1740 50.1802 -98.6668 0.0000 -0.0000 -6.9871 -15.7145 25.8524 -6.9946 7.1250 -0.0000 -0.0000 8.4880 -3.5124 8.0422
0.6431 18.3199 -13.7624 5.1487 -2.4131 9.0279 0.0000 0.0000 0.0000 -28.7432 -2.2359 11.3492 4.4470 12.7326 38.3754 0.9899 -0.1933 18.8814 0.2145 -2.9814 -8.2271 0.0000 0.0000 0.0000 15.7419 11.0810 -30.6000 -0.9154 -6.0964 17.0643 0.0226 -7.2669 4.5520 -0.4740 4.4154 -12.2483 -5.3734 -2.4662 9.0094 1.8843 -3.7507 -0.0519 5.4701 -1.7116 -4.6354 -8.1722 -3.0627 -21.1391 6.1726 -2.7544 9.9664 3.0114 -1.1039 6.6576 0.0000 -0.0000 0.0000 -84.5706 10.5545 37.2427 117.3513 -56.9754 -83.4464 -0.0000 0.0000 -28.2942 17.2534 9.0765 2.8049 -7.1250 0.0000 -0.0000 -8.4111 39.3429 1.1823 0.0000 -0.0000 0.0000 86.7736 -34.4120 37.7452 -136.1557 50.1896 -98.6528 0.0000 -0.0000 -6.3314 -16.4274 25.9534 -7.3524 7.1250 -0.0000 -0.0000 8.0647 -3.3040 7.6640
0.6286 18.2040 -12.9163 4.8329 -2.6101 8.6038 0.0000 0.0000 0.0000 -28.2513 -2.2393 9.9102 5.9844 14.4132 44.9190 1.2217 -1.1233 21.3218 0.0073 -0.5507 -1.5132 0.0000 0.0000 0.0000 16.5730 11.1921 -28.8940 -0.9093 -6.0764 17.0062 0.0208 -8.7462 5.7233 -0.3613 3.8615 -10.6874 -4.8775 -2.5065 9.1322 2.1728 -3.7393 0.2168 5.4895 -1.7281 -4.4348 -8.6687 -3.1003 -21.4704 5.9722 -2.6036 9.9599 3.0422 -1.0647 6.6998 -0.0000 0.0000 0.0000 -85.1079 11.6347 36.9130 114.8938 -57.5238 -81.3795 -0.0000 0.0000 -27.8538 16.9753 9.2782 2.8176 -7.1250 0.0000 -0.0000 -8.6845 39.5289 1.1813 -0.0000 0.0000 0.0000 85.7374 -32.5486 38.6163 -135.5628 50.4897 -98.1964 0.0000 -0.0000 -5.6553 -17.0040 26.0656 -7.6531 7.1250 -0.0000 -0.0000 7.7256 -3.1018 7.3645
0.6154 18.0314 -12.0820 3.8260 -2.9426 7.8108 0.0000 0.0000 0.0000 -26.7943 -2.0199 8.0909 8.0166 16.1314 52.6224 1.2884 -1.9605 22.2321 0.0297 1.1133 3.0606 0.0000 0.0000 0.0000 18.5660 10.7341 -27.6221 -1.1794 -6.8925 19.3971 -0.0497 -6.4327 5.6971 -0.0050 -0.4578 1.2579 -3.8641 -2.3344 9.7073 2.6183 -3.3974 0.5933 5.3672 -1.5830 -4.4360 -8.9014 -3.0283 -21.6748 5.6964 -2.3800 10.0367 3.0150 -0.9896 6.7388 0.0000 0.0000 0.0000 -85.3558 12.4864 36.7582 112.0970 -58.0722 -79.0127 -0.0000 0.0000 -27.9105 17.0526 9.0027 2.7480 -7.1250 0.0000 -0.0000 -8.5709 39.2512 1.2246 0.0000 0.0000 0.0000 84.8360 -30.4149 39.0527 -134.8321 50.8505 -97.6312 0.0000 -0.0000 -6.1215 -16.6201 26.0714 -7.4737 7.1250 -0.0000 -0.0000 7.9577 -3.1554 7.5822
0.5833 17.8124 -11.3059 3.2352 -3.2050 7.5050 0.0000 0.0000 0.0000 -25.5667 -2.3445 5.1099 10.5312 17.6979 61.2496 1.1629 -1.3534 20.9061 0.0087 0.6027 1.6562 0.0000 0.0000 0.0000 19.9026 10.4704 -27.6274 -1.8475 -8.5409 24.3693 0.0373 -3.8654 0.4987 -0.0836 -1.8652 5.1334 -3.3292 -2.0355 10.3171 2.7489 -2.9479 0.7855 5.1735 -1.3664 -4.6480 -8.7304 -3.1980 -21.8836 5.5126 -2.6125 10.1328 2.8981 -1.1093 6.8157 0.0000 0.0000 0.0000 -85.1289 13.3615 36.7088 109.2060 -58.5593 -76.5524 -0.0000 0.0000 -27.6983 17.9129 8.9622 2.8827 -7.1250 0.0000 -0.0000 -7.8257 39.2756 1.1118 0.0000 0.0000 0.0000 84.7183 -27.9425 39.1810 -134.0978 51.2029 -97.0602 0.0000 -0.0000 -6.9946 -16.4527 25.4873 -7.2422 7.1250 -0.0000 -0.0000 8.0135 -3.7714 7.5445
0.5557 17.5679 -10.5163 2.6159 -3.1631 6.9151 0.0000 0.0000 0.0000 -23.8358 -2.5165 1.5501 13.2489 18.8702 69.8970 1.1487 -0.6081 20.4886 0.0084 0.5936 1.6311 0.0000 0.0000 0.0000 21.0121 10.9565 -26.7107 -2.8262 -10.4082 30.3090 -0.0252 -3.7002 -6.2894 -0.0073 -0.5518 1.5161 -2.7005 -1.9876 11.1889 2.9876 -2.8109 0.8007 5.0985 -1.2948 -5.1523 -8.8456 -3.0616 -21.0961 5.4578 -2.4536 9.9153 2.9180 -1.0511 6.6083 -0.0000 0.0000 0.0000 -85.4233 14.9673 36.0598 107.0242 -58.8761 -74.6878 -0.0000 0.0000 -27.9728 18.0073 9.3970 3.0380 -7.1250 0.0000 -0.0000 -7.8152 39.7341 1.0216 -0.0000 0.0000 0.0000 83.9587 -25.7132 40.0212 -133.3522 51.5507 -96.4777 0.0000 -0.0000 -8.0965 -15.8710 24.7122 -6.7783 7.1250 -0.0000 -0.0000 8.3125 -4.6398 7.6959
0.5230 17.3477 -9.7141 1.8691 -3.5386 6.2073 0.0000 0.0000 0.0000 -21.8785 -2.3587 -1.8732 15.9467 19.6014 78.0727 1.0785 -0.2966 19.7444 0.0027 -0.3338 -0.9171 0.0000 0.0000 0.0000 22.1514 12.4656 -24.9760 -3.7888 -11.8740 35.2876 -0.1475 -5.3462 -11.1310 -0.1625 2.5971 -7.1590 -1.9922 -1.6277 11.9598 3.1966 -2.2413 1.2809 4.8540 -1.0341 -5.1542 -8.6666 -3.1262 -22.0402 5.1173 -2.4607 10.2720 2.7752 -1.0699 6.8682 -0.0000 0.0000 0.0000 -85.7483 15.7715 35.5348 104.4309 -59.1983 -72.4639 -0.0000 0.0000 -28.1668 17.9958 12.2567 3.9449 -7.1250 0.0000 -0.0000 -8.3515 42.6938 0.4789 -0.0000 0.0000 0.0000 83.7143 -22.1958 40.4368 -132.3820 51.9884 -95.7156 0.0000 -0.0000 -8.8483 -16.2280 24.2888 -6.8271 7.1250 -0.0000 -0.0000 8.0646 -5.0171 7.4037
0.5028 17.1380 -8.9598 -0.5984 -3.7903 5.9271 0.0000 0.0000 0.0000 -17.3717 -2.0768 -6.3855 18.7225 19.9608 86.2626 0.8471 -1.7629 18.1088 0.0690 -1.6953 -4.6643 0.0000 0.0000 0.0000 25.6423 12.6402 -23.0518 -4.4644 -12.7539 38.4542 -0.3414 -6.6684 -15.4631 -0.1387 2.4001 -6.6127 0.3285 -1.3377 13.0851 3.9800 -1.4834 1.4797 4.2842 -0.6957 -5.6818 -8.2118 -3.1186 -22.5195 4.2644 -2.4079 10.3782 2.4236 -1.1015 6.9572 0.0000 -0.0000 0.0000 -86.4068 16.4584 34.7891 101.3257 -59.5097 -69.7922 -0.0000 0.0000 -28.8597 19.0576 13.2261 4.5191 -7.1250 0.0000 -0.0000 -7.5987 43.8123 0.2241 0.0000 -0.0000 0.0000 83.0630 -18.7034 41.0670 -131.9517 52.1774 -95.3761 0.0000 -0.0000 -8.9515 -16.5412 24.1817 -6.9365 7.1250 -0.0000 -0.0000 7.8644 -5.0807 7.2067
0.4881 16.9820 -8.2311 -3.2991 -3.6106 6.5589 0.0000 0.0000 0.0000 -12.1475 -2.2790 -12.6444 21.2984 19.9595 93.7988 0.7651 -3.6377 18.2334 0.0137 -0.7549 -2.0748 0.0000 0.0000 0.0000 29.1240 11.9850 -21.6250 -4.8332 -13.1935 40.0972 -0.6447 -6.9281 -19.2449 -0.0259 1.0389 -2.8559 2.8580 -1.2423 13.4405 4.9693 -0.9060 1.3778 3.8179 -0.4581 -6.0546 -7.9589 -3.0085 -23.5423 3.5926 -2.1468 11.1896 2.1915 -1.0319 7.3605 0.0000 0.0000 0.0000 -87.4395 17.5821 33.9218 98.8572 -59.7015 -67.6628 -0.0000 0.0000 -29.0052 18.7432 9.9827 3.3664 -7.1250 0.0000 -0.0000 -7.2741 40.4044 0.8292 0.0000 0.0000 0.0000 81.9887 -14.9078 42.0371 -131.6369 52.3136 -95.1272 0.0000 -0.0000 -8.3252 -16.5525 24.0288 -6.9005 7.1250 -0.0000 -0.0000 7.8469 -5.2342 7.1674
0.4882 16.8950 -7.4919 -3.0478 -3.7278 6.9539 0.0000 0.0000 0.0000 -11.1614 -2.7120 -18.6455 23.1052 19.7672 99.1131 0.5588 -4.3326 16.3676 0.0398 -1.2876 -3.5405 0.0000 0.0000 0.0000 29.1078 10.2924 -19.6026 -4.8720 -13.2382 40.2667 -0.9234 -6.5334 -21.6497 -0.1234 2.2650 -6.2385 2.6181 -0.8829 13.4439 4.9800 -0.4679 1.4393 3.8828 -0.2376 -6.0081 -7.7241 -2.8444 -23.7313 3.4257 -1.9525 10.8656 2.1215 -0.9391 7.2662 0.0000 -0.0000 0.0000 -88.2935 18.8511 33.0780 98.9149 -59.6976 -67.7127 -0.0000 0.0000 -28.4654 19.1076 12.0658 4.1419 -7.1250 0.0000 -0.0000 -7.3232 42.6100 0.4344 0.0000 -0.0000 0.0000 81.1714 -10.3034 43.0209 -130.7681 52.6810 -94.4380 0.0000 -0.0000 -8.2329 -16.0504 24.2793 -6.7466 7.1250 -0.0000 -0.0000 8.1732 -5.0519 7.5001
0.4740 16.9351 -6.7190 -2.6517 -3.7147 7.5840 0.0000 0.0000 0.0000 -10.5066 -3.2703 -24.7436 24.1947 19.5728 102.3488 0.5775 -4.2693 16.5471 0.0011 -0.2127 -0.5845 0.0000 0.0000 0.0000 28.7946 8.2303 -17.3028 -4.6323 -12.9574 39.2092 -1.0790 -5.9630 -22.6315 -0.2531 3.2370 -8.9394 2.2455 -0.3305 13.2756 4.8742 0.2111 1.1406 3.8590 0.1057 -6.2650 -7.7528 -3.0178 -23.4145 3.5827 -2.2274 10.6884 2.1436 -1.0563 7.1753 -0.0000 -0.0000 0.0000 -88.3910 20.7630 33.7254 100.3657 -59.5901 -68.9646 -0.0000 0.0000 -27.4889 19.4345 8.8906 3.1212 -7.1250 0.0000 -0.0000 -6.5050 39.3188 0.9152 -0.0000 -0.0000 0.0000 81.6745 -8.5318 42.3665 -132.8518 51.7785 -96.0852 0.0000 -0.0000 -7.8007 -15.6016 25.1189 -6.7600 7.1250 -0.0000 -0.0000 8.5048 -4.2680 7.9379
0.4760 16.9737 -5.9538 -3.1775 -3.6299 8.0883 0.0000 0.0000 0.0000 -8.9487 -3.3717 -30.3205 24.8450 19.4276 104.2969 0.3448 -5.0983 14.1455 0.0795 -1.8184 -5.0040 0.0000 0.0000 0.0000 29.4297 6.6601 -13.9623 -4.1539 -12.3624 37.0262 -1.1416 -5.3225 -22.7592 -0.2841 3.4282 -9.4732 2.9700 0.2802 13.1543 4.9019 1.1360 0.9225 3.3076 0.5390 -6.4634 -8.0351 -3.5432 -23.3626 4.0054 -2.9248 11.0001 2.2404 -1.3644 7.3228 -0.0000 0.0000 0.0000 -88.0867 22.1535 35.1362 102.9593 -59.3558 -71.1988 -0.0000 0.0000 -27.7714 19.6246 9.3351 3.3102 -7.1250 0.0000 -0.0000 -6.4063 39.8007 0.8249 -0.0000 0.0000 0.0000 82.3379 -7.7233 41.6389 -136.2848 50.1233 -98.7519 0.0000 -0.0000 -8.1886 -15.7804 26.5466 -7.1985 7.1250 -0.0000 -0.0000 8.5004 -2.8036 8.1661
0.4787 17.0573 -5.1595 -4.0158 -3.5972 8.2766 0.0000 0.0000 0.0000 -7.6109 -3.1827 -34.7808 24.8868 19.4175 104.4226 0.1070 -6.1361 11.1899 0.1242 -2.2718 -6.2575 0.0000 0.0000 0.0000 30.4101 5.4827 -9.7552 -3.6570 -11.6894 34.6419 -1.0150 -5.0053 -21.4655 -0.8178 5.7704 -16.1196 4.0751 0.9486 13.0268 4.9308 2.1805 0.8696 2.5212 1.0174 -6.4474 -8.3000 -4.1114 -23.5689 4.5920 -3.6933 11.2523 2.3767 -1.6842 7.5048 0.0000 0.0000 0.0000 -87.5079 23.5725 36.6798 106.8186 -58.9037 -74.5117 -0.0000 0.0000 -29.0109 17.9030 9.5925 3.0814 -7.1250 0.0000 -0.0000 -7.9380 39.9284 0.9996 0.0000 0.0000 0.0000 83.2392 -6.9721 40.6981 -139.2891 48.4855 -101.0301 0.0000 -0.0000 -9.6874 -15.1091 26.1385 -6.7830 7.1250 -0.0000 -0.0000 8.8741 -3.3130 8.4500
0.5031 17.1643 -4.3625 -4.7451 -3.4632 8.7206 0.0000 0.0000 0.0000 -6.9511 -3.4281 -38.7671 24.4146 19.5262 103.0060 -0.0618 -6.7611 7.9231 0.2829 -3.4208 -9.4526 0.0000 0.0000 0.0000 31.0770 4.7033 -6.1331 -3.2090 -11.0259 32.3673 -0.7876 -4.5442 -19.0152 -1.2357 7.0491 -19.8610 5.2977 1.5691 12.5979 4.8527 3.1612 0.5640 1.5830 1.4564 -6.4797 -8.6767 -4.4977 -22.7902 5.2434 -4.2723 10.9753 2.5838 -1.9207 7.3517 0.0000 -0.0000 0.0000 -87.0037 25.0825 38.1675 109.7642 -58.4713 -77.0284 -0.0000 0.0000 -28.9696 17.5042 9.9811 3.1288 -7.1250 0.0000 -0.0000 -8.3508 40.2972 0.9760 0.0000 -0.0000 0.0000 83.8631 -6.8762 40.3435 -142.0042 46.8366 -103.0375 0.0000 -0.0000 -11.4632 -16.7470 26.8040 -7.7274 7.1250 -0.0000 -0.0000 7.9419 -2.3952 7.6781
0.5301 17.3698 -3.5082 -4.8437 -3.2773 8.8989 0.0000 0.0000 0.0000 -7.6214 -4.1423 -41.0742 23.1120 19.7662 99.1330 -0.1093 -6.2489 4.6141 0.3977 -4.0491 -11.2148 0.0000 0.0000 0.0000 30.8567 3.6926 -2.3759 -2.6826 -10.1626 29.5049 -0.3639 -4.3945 -13.8677 -1.1117 6.6987 -18.8257 6.0205 2.0908 12.0357 4.5475 3.8890 0.4625 0.7501 1.7913 -6.1966 -8.6389 -4.9103 -23.1351 5.5059 -4.8702 11.4808 2.5823 -2.1755 7.6250 0.0000 0.0000 0.0000 -86.6912 26.3276 39.0077 111.5394 -58.1723 -78.5392 -0.0000 0.0000 -28.8280 16.2858 9.3433 2.7156 -7.1250 0.0000 -0.0000 -9.2885 39.5414 1.2622 0.0000 0.0000 0.0000 84.3373 -6.3507 40.1359 -143.5161 45.8431 -104.1314 0.0000 -0.0000 -12.0254 -16.4559 26.8950 -7.6105 7.1250 -0.0000 -0.0000 8.1238 -2.3489 7.8644
0.5613 17.6190 -2.6312 -4.9473 -2.4806 9.0530 0.0000 0.0000 0.0000 -8.2976 -5.9574 -43.5041 21.1554 19.9680 93.3800 -0.0707 -5.0150 3.6634 0.5141 -4.5956 -12.7586 0.0000 0.0000 0.0000 30.5679 2.1182 0.9173 -2.1767 -9.2249 26.5013 -0.0267 -4.3063 -7.0833 -1.2756 7.1579 -20.1840 6.8272 2.2753 11.5486 4.3671 4.2027 0.2113 0.0801 1.9179 -6.1119 -8.6409 -5.0423 -22.8929 5.5604 -5.0849 11.6287 2.5740 -2.2768 7.6532 0.0000 -0.0000 0.0000 -86.9384 27.8178 39.0647 112.8218 -57.9375 -79.6274 -0.0000 0.0000 -29.0901 15.5132 9.2215 2.5469 -7.1250 0.0000 -0.0000 -9.9287 39.3565 1.3968 0.0000 -0.0000 0.0000 84.6449 -6.6125 40.3128 -144.3524 45.2690 -104.7284 0.0000 -0.0000 -10.6389 -16.8587 28.2910 -8.1732 7.1250 -0.0000 -0.0000 8.0084 -0.8766 7.9635
0.5879 17.8362 -1.7305 -4.4674 -1.6852 8.9757 0.0000 0.0000 0.0000 -9.6484 -7.3889 -44.0840 18.8612 19.9689 86.6687 -0.0731 -4.8246 1.1402 0.8480 -5.8732 -16.4169 0.0000 0.0000 0.0000 29.4963 0.2816 3.9770 -1.7237 -8.2652 23.5224 0.0522 -4.7525 0.9146 -0.9857 6.3192 -17.7136 6.8691 2.3985 11.0395 4.1312 4.3257 -0.0286 -0.1907 1.9732 -6.0529 -9.0884 -5.1804 -22.6770 5.9855 -5.2351 11.7982 2.7705 -2.3312 7.7118 -0.0000 0.0000 0.0000 -87.5567 29.3991 38.6086 113.5905 -57.7891 -80.2783 -0.0000 0.0000 -29.1808 12.9183 9.4157 2.1489 -7.1250 0.0000 -0.0000 -12.1824 39.3511 1.7257 -0.0000 0.0000 0.0000 84.3973 -6.8320 40.6581 -144.2847 45.3162 -104.6803 0.0000 -0.0000 -8.8046 -17.4282 29.0777 -8.6744 7.1250 -0.0000 -0.0000 7.7515 0.0124 7.8252
0.6248 17.9979 -0.8242 -4.0896 -0.8613 8.6864 0.0000 0.0000 0.0000 -10.8588 -8.6267 -43.9928 16.3455 19.6767 79.2595 -0.0499 -4.0313 0.6561 0.3252 -3.6653 -10.1370 0.0000 0.0000 0.0000 28.3774 -1.7303 7.2936 -1.2626 -7.1226 20.0792 -0.3122 -5.8257 10.1360 -0.8927 6.0222 -16.8489 7.2960 2.3715 10.8877 3.7530 4.3415 -0.4718 -0.8273 1.9438 -6.3786 -8.9749 -5.1351 -22.0214 5.9988 -5.2961 12.3612 2.7569 -2.3675 7.7964 0.0000 0.0000 0.0000 -87.9310 31.2597 37.9434 114.0417 -57.6992 -80.6599 -0.0000 0.0000 -29.6867 13.1864 9.5604 2.2285 -7.1250 0.0000 -0.0000 -11.9844 39.5168 1.6470 0.0000 0.0000 0.0000 84.6230 -7.8626 41.1225 -143.8220 45.6352 -104.3504 0.0000 -0.0000 -6.5760 -17.7517 28.6677 -8.7311 7.1250 -0.0000 -0.0000 7.5206 -0.3461 7.5404
0.6495 18.1625 0.1083 -3.7013 -0.1978 8.6061 0.0000 0.0000 0.0000 -12.1037 -9.3297 -43.3927 13.5944 18.9864 70.9619 -0.0517 -4.2215 0.1948 0.2849 -3.4325 -9.4852 0.0000 0.0000 0.0000 27.2142 -3.1032 10.6422 -0.8845 -5.9951 16.7703 -0.9220 -8.7288 17.2900 -0.2115 2.9609 -8.1700 7.2301 2.4920 9.8024 3.5951 4.3766 -0.5455 -0.9071 1.9809 -5.8312 -8.9989 -5.1850 -21.8642 6.0172 -5.3891 12.7194 2.7566 -2.4153 7.8995 -0.0000 -0.0000 0.0000 -88.4237 32.7265 37.3634 114.9146 -57.5194 -81.3970 -0.0000 0.0000 -29.9135 14.7151 6.3094 1.6532 -7.1250 0.0000 -0.0000 -10.1032 36.3398 2.1789 -0.0000 -0.0000 0.0000 84.3467 -8.6995 41.3563 -143.1612 46.0814 -103.8762 0.0000 -0.0000 -4.8322 -17.6143 28.2689 -8.5514 7.1250 -0.0000 -0.0000 7.5614 -0.7727 7.5248
0.6611 18.3018 1.0305 -3.4128 0.1331 8.5101 0.0000 0.0000 0.0000 -13.1328 -9.6610 -42.1508 10.7609 17.8161 62.0027 -0.0548 -4.3960 0.0525 0.3266 -3.6732 -10.1591 0.0000 0.0000 0.0000 26.4459 -3.4310 13.6185 -0.6910 -5.3142 14.8068 -1.5498 -11.0734 22.4720 -0.0249 1.0183 -2.7992 7.1226 2.6915 9.0606 3.3520 4.5501 -0.6791 -1.0869 2.0754 -5.5286 -9.2753 -5.3313 -21.4404 6.4762 -5.6512 13.1866 2.9264 -2.5171 8.0308 0.0000 0.0000 0.0000 -88.4507 33.9926 37.0350 115.9846 -57.2883 -82.2984 -0.0000 0.0000 -30.3028 24.4584 16.9866 7.5693 -7.1250 0.0000 -0.0000 -3.3382 48.5024 -0.2887 0.0000 0.0000 0.0000 84.1871 -9.4696 41.7128 -142.1621 46.7355 -103.1525 0.0000 -0.0000 -3.5680 -17.5809 27.1044 -8.2146 7.1250 -0.0000 -0.0000 7.4700 -1.9571 7.2733
0.6786 18.4037 1.9486 -2.9579 0.5877 8.7668 0.0000 0.0000 0.0000 -14.0512 -10.5946 -40.8553 8.0520 16.1573 52.7496 -0.0643 -4.5679 0.7923 0.4861 -4.4705 -12.4044 0.0000 0.0000 0.0000 25.9041 -3.0273 15.7045 -0.6788 -5.2681 14.6748 -2.0672 -12.6061 26.0132 -0.0813 -1.8390 5.0610 6.7899 2.8930 7.9416 3.2086 4.6652 -0.6661 -1.0008 2.1639 -4.8862 -9.7269 -5.5317 -21.5081 6.7553 -5.8444 13.4053 3.0664 -2.6034 8.1553 0.0000 0.0000 0.0000 -88.4324 34.5121 36.9803 117.1085 -57.0325 -83.2428 -0.0000 0.0000 -30.3588 26.0964 18.9886 9.0555 -7.1250 0.0000 -0.0000 -2.1523 50.9327 -0.3147 0.0000 0.0000 0.0000 83.6158 -9.8159 42.1620 -141.1483 47.3747 -102.4104 0.0000 -0.0000 -4.1600 -18.0190 27.1379 -8.4396 7.1250 -0.0000 -0.0000 7.2117 -1.8507 7.0315
0.6810 18.4637 2.8557 -3.3697 0.9219 8.7227 0.0000 0.0000 0.0000 -13.7952 -11.1939 -39.2390 5.7607 14.1924 44.0136 -0.0532 -4.3064 3.0109 0.6463 -5.1430 -14.3169 0.0000 0.0000 0.0000 26.9851 -1.4138 17.8381 -0.8103 -5.7444 16.0445 -1.7577 -14.0215 24.2943 -0.0933 -1.9699 5.4226 7.1461 2.9977 7.7728 3.2127 4.8470 -0.9939 -1.2107 2.2312 -5.0981 -10.0068 -5.7375 -21.7572 6.8945 -6.0863 14.3603 3.1249 -2.7171 8.5564 -0.0000 0.0000 0.0000 -87.8567 35.5132 37.1935 118.6715 -56.6537 -84.5513 -0.0000 0.0000 -30.2445 15.6785 7.3008 2.0428 -7.1250 0.0000 -0.0000 -9.4567 37.4080 1.7863 -0.0000 0.0000 0.0000 83.3077 -10.9576 42.7305 -140.4481 47.8022 -101.8935 0.0000 -0.0000 -4.5512 -18.0568 26.9548 -8.4063 7.1250 -0.0000 -0.0000 7.1718 -2.0303 6.9686
0.6720 18.4744 3.7326 -3.9111 1.0253 8.6360 0.0000 0.0000 0.0000 -13.2224 -11.5420 -37.8080 4.0369 12.2093 36.4765 0.0039 -3.1654 4.7217 0.6955 -5.3311 -14.8555 0.0000 0.0000 0.0000 28.3017 0.2505 19.1498 -1.1283 -6.7467 18.9672 -1.3670 -12.6072 21.4193 -0.0440 -1.3536 3.7224 7.4100 3.1740 7.4318 3.3170 5.0564 -0.7455 -1.2378 2.3505 -4.6167 -10.2127 -5.8812 -22.1609 7.2016 -6.2330 14.2606 3.2368 -2.7564 8.6216 -0.0000 -0.0000 0.0000 -87.5064 35.1245 37.4680 119.9071 -56.3346 -85.5816 -0.0000 0.0000 -29.7445 15.2857 6.8917 1.8783 -7.1250 0.0000 -0.0000 -9.7204 36.9659 1.9437 -0.0000 -0.0000 0.0000 82.9457 -10.7490 43.3732 -139.3846 48.4303 -101.1016 0.0000 -0.0000 -5.2611 -17.1801 27.6752 -8.1717 7.1250 -0.0000 -0.0000 7.7612 -1.4452 7.6339
0.6657 18.4345 4.6094 -4.3237 1.1051 8.4840 0.0000 0.0000 0.0000 -12.7491 -12.0099 -36.2889 2.8908 10.5162 30.6650 0.0423 -1.3058 4.5968 0.8940 -6.0266 -16.8616 0.0000 0.0000 0.0000 29.3619 1.6143 19.3863 -1.7319 -8.2838 23.5793 -1.0580 -9.2817 18.5283 -0.0240 -1.0002 2.7495 7.3765 3.2037 7.5405 3.4378 5.1329 -1.0149 -1.1183 2.3735 -4.9717 -10.2514 -5.8682 -21.7138 7.2829 -6.2777 14.4550 3.2713 -2.7813 8.6213 0.0000 -0.0000 0.0000 -87.4211 35.4009 37.4332 120.5840 -56.1523 -86.1444 -0.0000 0.0000 -28.5405 17.4363 11.2769 3.5146 -7.1250 0.0000 -0.0000 -8.6512 41.6276 0.7257 0.0000 -0.0000 0.0000 82.5074 -11.6187 44.1559 -138.2131 49.0937 -100.2207 0.0000 -0.0000 -5.9326 -19.9622 23.2947 -8.1741 7.1250 -0.0000 -0.0000 5.6774 -5.4706 5.1361
0.6480 18.3570 5.4921 -4.7109 1.0439 8.2596 0.0000 0.0000 0.0000 -12.3484 -11.9270 -35.1480 2.2564 9.3809 26.9941 0.0576 0.6758 4.3434 0.7396 -5.4941 -15.3233 0.0000 0.0000 0.0000 30.3867 3.0000 18.6746 -2.6942 -10.1827 29.5705 -0.9567 -5.1001 17.4811 -0.1311 -2.3337 6.4287 7.3486 3.1024 7.8729 3.3402 5.0418 -1.2178 -1.2234 2.3094 -5.3744 -9.8603 -5.6031 -21.4396 7.5667 -6.1028 14.1017 3.3340 -2.6525 8.4362 0.0000 0.0000 0.0000 -86.7098 35.7291 37.4617 122.1457 -55.7105 -87.4381 -0.0000 0.0000 -28.3263 16.1275 8.4852 2.4431 -7.1250 0.0000 -0.0000 -9.2734 38.6505 1.4653 0.0000 0.0000 0.0000 82.4574 -11.7697 45.3950 -136.3007 50.1151 -98.7641 0.0000 -0.0000 -6.3775 -18.4609 24.0440 -7.7457 7.1250 -0.0000 -0.0000 6.6705 -4.9349 6.1144
0.6307 18.2297 6.3506 -4.5419 1.3041 7.8356 0.0000 0.0000 0.0000 -12.7636 -11.6961 -34.2868 2.0349 8.9384 25.6028 0.0830 0.3635 5.3221 0.7126 -5.3950 -15.0387 0.0000 0.0000 0.0000 30.7380 3.6705 17.0665 -4.0979 -12.2896 36.7641 -0.7911 -1.6607 16.3246 -0.0910 -1.9451 5.3539 6.5601 2.8967 7.3161 3.4314 4.5925 -0.5280 -0.5949 2.1556 -4.4282 -10.0795 -5.4721 -22.0938 8.0953 -5.8768 13.7854 3.5764 -2.4883 8.4437 0.0000 0.0000 0.0000 -86.6880 34.5204 37.3739 123.2471 -55.3807 -88.3463 -0.0000 0.0000 -28.4316 15.3913 6.0941 1.6740 -7.1250 0.0000 -0.0000 -9.5093 36.1580 2.0905 0.0000 0.0000 0.0000 82.3533 -10.9431 45.6192 -134.0455 51.2276 -97.0195 0.0000 -0.0000 -6.5073 -18.4635 23.8691 -7.6945 7.1250 -0.0000 -0.0000 6.6547 -5.1136 6.0771
0.6075 18.0229 7.1897 -4.3654 1.6854 6.8837 0.0000 0.0000 0.0000 -13.3618 -11.1328 -33.1229 2.1036 9.0787 26.0418 0.0576 -2.2802 5.9677 0.9251 -6.1275 -17.1548 0.0000 0.0000 0.0000 30.6871 3.3788 15.0584 -5.9613 -14.3907 44.8262 -0.7269 1.1040 16.5431 -0.0286 -1.0923 3.0027 5.7741 2.6646 7.6507 3.5613 4.2261 -0.1555 0.0001 2.0030 -4.3105 -10.3554 -5.4415 -21.3121 8.3491 -5.8517 13.2709 3.7155 -2.4830 8.1540 -0.0000 -0.0000 0.0000 -86.4788 33.7269 37.7782 123.8438 -55.1955 -88.8368 -0.0000 0.0000 -28.1705 15.2992 5.8517 1.5976 -7.1250 0.0000 -0.0000 -9.5495 35.9055 2.1592 -0.0000 -0.0000 0.0000 82.3264 -11.0926 45.4445 -130.9745 52.5948 -94.6020 0.0000 -0.0000 -6.8850 -17.5893 26.3222 -8.0016 7.1250 -0.0000 -0.0000 7.3945 -2.7491 7.0915
0.5838 17.7832 8.0339 -3.5013 2.0004 5.6680 0.0000 0.0000 0.0000 -14.8515 -10.1443 -32.0079 2.4854 9.8113 28.3679 -0.0376 -5.7658 7.0258 0.2614 -3.2891 -9.0846 0.0000 0.0000 0.0000 29.5107 2.5852 12.8960 -8.2398 -16.2928 53.4218 -0.6333 2.4384 16.1118 -0.0012 -0.2267 0.6228 4.5676 2.3189 8.8022 3.1430 3.7087 0.0547 0.2399 1.7604 -4.8031 -9.9550 -5.2427 -21.1081 8.5025 -5.7433 13.1522 3.7199 -2.4001 8.0630 0.0000 0.0000 0.0000 -85.4870 32.7831 38.3306 124.3346 -55.0397 -89.2394 -0.0000 0.0000 -28.0864 15.7816 6.5172 1.8373 -7.1250 0.0000 -0.0000 -9.2483 36.6127 1.9280 0.0000 0.0000 0.0000 83.2397 -11.8613 45.3335 -128.4892 53.5869 -92.6146 0.0000 -0.0000 -6.4862 -17.5339 25.6721 -7.7940 7.1250 -0.0000 -0.0000 7.3721 -3.4184 6.9784
0.5287 17.5129 8.8600 -3.3427 2.1810 4.8355 0.0000 0.0000 0.0000 -15.2353 -9.1470 -31.8023 3.3235 11.2012 32.9614 -0.3966 -11.0811 3.9665 0.0235 -0.9906 -2.7231 0.0000 0.0000 0.0000 29.1288 2.1295 9.7621 -10.8985 -17.8851 62.4516 -0.4889 2.6477 14.4402 -0.1941 2.8373 -7.8261 3.4739 2.0524 9.4559 3.1326 3.2691 0.2958 0.8712 1.5678 -4.9878 -9.9350 -5.0482 -20.6971 8.8652 -5.5796 12.9417 3.8656 -2.2960 7.9198 -0.0000 0.0000 0.0000 -84.6822 31.8853 38.9153 126.0509 -54.4692 -90.6411 -0.0000 0.0000 -28.0396 17.4377 8.1309 2.5437 -7.1250 0.0000 -0.0000 -8.1006 38.3794 1.3312 -0.0000 0.0000 0.0000 83.8171 -11.9017 44.8471 -124.9995 54.8234 -89.7836 0.0000 -0.0000 -7.4793 -16.2877 25.9406 -7.2837 7.1250 -0.0000 -0.0000 8.1481 -3.3381 7.7398
0.5247 17.2331 9.6850 -2.9790 2.6553 4.0285 0.0000 0.0000 0.0000 -15.7591 -9.4220 -30.8076 4.5387 12.8447 38.7899 -0.5193 -14.5540 -2.3516 0.0009 -0.1938 -0.5324 0.0000 0.0000 0.0000 27.7140 1.1474 5.9173 -13.7935 -19.0502 71.5728 -0.3182 0.8576 11.0005 -0.0535 1.4929 -4.1062 2.8778 1.5530 10.4321 2.9457 2.5776 0.3430 1.0760 1.2323 -5.5077 -10.0634 -4.8060 -20.4162 9.4360 -5.3503 13.0135 4.1171 -2.1455 7.8963 0.0000 0.0000 0.0000 -83.9893 30.7281 39.5598 127.2264 -54.0547 -91.5953 -0.0000 0.0000 -27.8220 17.9619 7.9100 2.5545 -7.1250 0.0000 -0.0000 -7.6213 38.1870 1.2875 0.0000 0.0000 0.0000 84.7538 -13.1716 44.5295 -121.6809 55.8451 -87.0538 0.0000 -0.0000 -5.7840 -17.9229 24.0498 -7.5088 7.1250 -0.0000 -0.0000 7.0029 -5.0110 6.4136
0.5126 16.9974 10.4862 -1.5294 2.4913 3.0248 0.0000 0.0000 0.0000 -17.7984 -9.6004 -28.5718 5.4823 13.9072 42.8669 -0.0445 -13.2484 -8.7270 0.0000 0.0263 0.0722 0.0000 0.0000 0.0000 24.6789 0.5038 2.1081 -16.7637 -19.7470 80.4993 -0.2419 0.0579 9.3109 -0.0612 1.5961 -4.3906 0.7087 1.2118 11.5189 2.6193 1.8544 0.9218 2.0478 0.9260 -5.5625 -9.3363 -4.5236 -20.7541 9.0032 -5.0336 12.5452 3.8856 -1.9925 7.7322 0.0000 0.0000 0.0000 -84.1470 27.7084 39.4635 127.0127 -54.1315 -91.4222 -0.0000 0.0000 -27.4989 18.6789 8.6431 2.9084 -7.1250 0.0000 -0.0000 -7.1182 39.0021 1.0582 0.0000 0.0000 0.0000 85.6728 -13.2685 43.4621 -116.0376 57.2765 -82.3431 0.0000 -0.0000 -5.0706 -18.5731 25.4714 -8.2227 7.1250 -0.0000 -0.0000 6.7239 -3.4569 6.3509
0.5089 16.8138 11.2617 1.7915 1.6403 3.0349 0.0000 0.0000 0.0000 -22.3843 -8.7835 -25.6241 5.8266 14.2581 44.2817 0.6273 -10.5400 -14.9126 0.0330 -1.1723 -3.2231 0.0000 0.0000 0.0000 18.7945 0.8277 -3.3202 -19.7367 -19.9983 89.2302 -0.1852 0.6201 8.3770 -0.4073 4.0973 -11.3505 -2.8248 1.3064 11.6616 1.5096 1.4570 1.4367 2.9457 0.7885 -5.1446 -9.3600 -4.6548 -21.7878 9.3532 -5.1638 12.3323 3.9842 -1.9962 7.8588 0.0000 -0.0000 0.0000 -83.5581 23.6554 39.8314 126.0272 -54.4773 -90.6219 -0.0000 0.0000 -28.1961 18.2488 8.9075 2.9227 -7.1250 0.0000 -0.0000 -7.5282 39.2448 1.0747 0.0000 -0.0000 0.0000 87.2881 -13.3781 41.4351 -109.3590 58.5355 -76.6829 0.0000 -0.0000 -5.8100 -18.8738 25.9971 -8.5223 7.1250 -0.0000 -0.0000 6.5902 -2.8702 6.2943
0.4883 16.6680 12.0046 3.1278 -0.4568 2.8293 0.0000 0.0000 0.0000 -24.4562 -7.4130 -22.4594 5.9501 14.3798 44.7812 1.1817 -8.2833 -19.4579 0.0608 -1.5914 -4.3777 0.0000 0.0000 0.0000 15.6921 2.9422 -8.9792 -22.3038 -19.8723 96.7495 -0.1708 0.6746 8.0818 -0.0662 1.6604 -4.5679 -4.3428 1.7225 12.4007 0.6378 1.7286 1.3281 2.8268 0.9558 -5.7079 -9.3936 -4.5597 -21.1237 10.1817 -5.2085 11.9660 4.2663 -1.9585 7.6617 0.0000 -0.0000 0.0000 -82.3053 20.2948 40.2715 124.4715 -54.9956 -89.3515 -0.0000 0.0000 -29.1964 18.4266 10.6529 3.5244 -7.1250 0.0000 -0.0000 -7.6657 41.0739 0.7472 0.0000 -0.0000 0.0000 89.0560 -14.8440 39.6590 -102.7294 59.3788 -71.0010 0.0000 -0.0000 -6.9506 -19.7037 25.6201 -8.8025 7.1250 -0.0000 -0.0000 6.0515 -3.1168 5.7461
0.4989 16.5779 12.7445 3.0231 -0.3843 3.5686 0.0000 0.0000 0.0000 -24.7242 -8.0037 -20.1194 6.0892 14.5142 45.3386 1.5664 -6.7031 -22.4308 0.1607 -2.5829 -7.1195 0.0000 0.0000 0.0000 14.4977 3.3483 -15.5600 -24.1180 -19.5885 102.1202 -0.1247 0.6900 6.9592 -0.0085 0.5962 -1.6384 -3.7422 1.2790 11.8999 0.3283 1.2232 1.1951 2.2550 0.6892 -5.5074 -9.4671 -4.7301 -21.3449 10.6007 -5.4902 12.1406 4.3851 -2.0484 7.8036 -0.0000 0.0000 0.0000 -81.6721 16.5609 40.5773 123.0858 -55.4300 -88.2135 -0.0000 0.0000 -28.8955 20.1513 13.6042 4.9333 -7.1250 0.0000 -0.0000 -6.6844 44.3318 0.1108 -0.0000 0.0000 0.0000 90.3567 -16.3525 37.6417 -99.3196 59.6693 -68.0620 0.0000 -0.0000 -7.8559 -19.4342 24.7293 -8.3962 7.1250 -0.0000 -0.0000 6.1313 -4.0769 5.7133
0.4932 16.5425 13.4731 2.7346 -0.4902 4.6168 0.0000 0.0000 0.0000 -24.7057 -8.0716 -18.1012 6.0354 14.4625 45.1235 1.7822 -6.2462 -24.0101 0.3629 -3.8698 -10.7106 0.0000 0.0000 0.0000 13.7313 4.0311 -22.8841 -25.3365 -19.3030 105.7792 -0.0533 1.1521 4.9466 -0.2225 3.0364 -8.3800 -3.5935 0.8118 11.1607 0.5125 0.6601 0.9913 2.4619 0.4103 -5.2717 -9.4487 -4.6352 -21.5345 10.2779 -5.2841 12.0529 4.2976 -1.9764 7.7716 -0.0000 0.0000 0.0000 -82.3225 13.5056 39.9167 123.0407 -55.4437 -88.1764 -0.0000 0.0000 -27.1971 19.9693 12.0911 4.3525 -7.1250 0.0000 -0.0000 -6.5584 42.7256 0.3698 -0.0000 0.0000 0.0000 90.3706 -18.1917 36.8010 -99.4385 59.6607 -68.1647 0.0000 -0.0000 -8.2253 -18.3231 24.7898 -7.9052 7.1250 -0.0000 -0.0000 6.8170 -4.1934 6.3462
0.4816 16.6078 14.2430 3.1190 -1.2656 4.7252 0.0000 0.0000 0.0000 -25.7233 -6.8088 -14.4284 5.6645 14.0951 43.6198 1.7914 -4.7938 -24.2305 0.6018 -4.9660 -13.8116 0.0000 0.0000 0.0000 12.7974 5.2120 -27.9244 -25.6825 -19.2075 106.8283 -0.0329 1.9620 4.7233 -0.1134 2.1712 -5.9790 -4.3637 0.5068 11.2023 0.6075 0.1639 1.0349 3.0749 0.1822 -5.2169 -9.4388 -4.4294 -22.1056 9.9884 -4.9124 12.1786 4.2480 -1.8117 7.8585 0.0000 0.0000 0.0000 -83.3798 11.0310 38.7348 124.0124 -55.1423 -88.9752 -0.0000 0.0000 -26.0012 20.5380 11.1746 4.1527 -7.1250 0.0000 -0.0000 -5.8936 41.8188 0.4643 0.0000 0.0000 0.0000 89.4619 -20.0926 37.2607 -101.6575 59.4802 -70.0781 0.0000 -0.0000 -8.8198 -17.1639 25.2997 -7.5192 7.1250 -0.0000 -0.0000 7.5664 -3.8539 7.1040
0.4682 16.7124 15.0039 3.2155 -1.3921 5.0940 0.0000 0.0000 0.0000 -26.3418 -6.5459 -10.8833 5.2153 13.6222 41.7447 1.5808 -4.4728 -22.7440 0.8711 -5.9509 -16.6421 0.0000 0.0000 0.0000 12.4674 5.9241 -32.8616 -25.3982 -19.2865 105.9659 0.0060 2.9729 3.8875 -0.1281 2.3073 -6.3556 -4.6932 -0.1983 11.2942 0.7961 -0.8120 0.7790 3.6148 -0.2776 -5.4465 -9.0491 -3.9287 -22.3569 9.4302 -4.2267 12.1910 4.0862 -1.5159 7.8079 -0.0000 -0.0000 0.0000 -84.5510 9.9459 36.9405 125.9828 -54.4926 -90.5857 -0.0000 0.0000 -25.6960 19.6329 9.6750 3.4309 -7.1250 0.0000 -0.0000 -6.4506 40.1582 0.7737 -0.0000 -0.0000 0.0000 87.9911 -21.9298 38.7766 -104.1944 59.2248 -72.2607 0.0000 -0.0000 -9.8485 -16.3800 25.7429 -7.2754 7.1250 -0.0000 -0.0000 8.0771 -3.5239 7.6429
0.4589 16.8677 15.8157 3.2508 -1.7820 5.3433 0.0000 0.0000 0.0000 -26.9695 -6.2107 -7.2149 4.7173 13.0582 39.5866 1.1842 -3.7915 -19.6620 1.1063 -6.6829 -18.7794 0.0000 0.0000 0.0000 12.4168 7.3151 -36.5553 -24.4708 -19.5139 103.1742 0.0504 4.1899 2.9213 -0.0703 1.7110 -4.7076 -4.7835 -0.8324 10.9445 0.9389 -1.6437 0.5975 3.9370 -0.6823 -5.3548 -8.6664 -3.4234 -22.0716 9.0293 -3.5883 11.8760 3.9674 -1.2411 7.5762 0.0000 -0.0000 0.0000 -85.0733 9.1057 35.8720 127.5246 -53.9464 -91.8365 -0.0000 0.0000 -27.7094 20.4464 7.7274 2.8698 -7.1250 0.0000 -0.0000 -5.4807 38.1672 0.9254 0.0000 -0.0000 0.0000 86.4417 -23.4329 40.2039 -106.3474 58.9658 -74.1081 0.0000 -0.0000 -11.0855 -15.0974 25.8064 -6.6982 7.1250 -0.0000 -0.0000 8.8580 -3.6483 8.3788
0.4270 17.0460 16.6508 3.7449 -2.5488 5.1171 0.0000 0.0000 0.0000 -27.8692 -4.6154 -3.1816 4.0992 12.2912 36.7700 0.7077 -3.3700 -15.1071 1.6290 -8.0464 -22.8551 0.0000 0.0000 0.0000 12.3288 8.8574 -38.5731 -22.9397 -19.7915 98.6237 0.0892 5.3116 2.4495 -0.1664 2.6279 -7.2445 -5.7413 -1.2623 11.0720 1.0987 -2.3383 0.3735 4.7610 -0.9870 -5.5486 -8.4478 -2.9623 -21.9822 8.6918 -2.9912 12.1499 3.8985 -0.9808 7.5850 0.0000 0.0000 0.0000 -85.6014 9.1792 34.5251 129.5461 -53.1769 -93.4629 -0.0000 0.0000 -28.7092 20.4468 10.2488 3.7951 -7.1250 0.0000 -0.0000 -5.8276 40.8332 0.6011 0.0000 0.0000 0.0000 84.8497 -25.3512 41.4660 -108.7217 58.6333 -76.1390 0.0000 -0.0000 -11.7391 -14.6127 25.9224 -6.5021 7.1250 -0.0000 -0.0000 9.1587 -3.6008 8.6789
0.4008 17.2380 17.5346 3.6440 -3.3812 4.8707 0.0000 0.0000 0.0000 -28.0191 -2.7897 0.8687 3.4650 11.4123 33.6834 0.2769 -3.4719 -9.3520 2.0156 -8.8985 -25.4783 0.0000 0.0000 0.0000 12.8133 10.5069 -39.6130 -20.8880 -19.9811 92.5970 0.1351 6.7692 0.4678 -0.2806 3.4069 -9.4137 -5.7946 -1.6184 10.5868 1.2382 -2.7825 0.3432 4.9806 -1.2142 -5.2444 -8.3018 -2.7144 -21.8607 8.6717 -2.7133 12.3010 3.9057 -0.8458 7.5871 -0.0000 0.0000 0.0000 -85.3723 9.2697 34.0021 130.6332 -52.7369 -94.3307 -0.0000 0.0000 -29.5717 19.9102 10.6929 3.8447 -7.1250 0.0000 -0.0000 -6.3694 41.2519 0.5915 -0.0000 0.0000 0.0000 83.7703 -27.1949 42.0618 -110.8630 58.2897 -77.9641 0.0000 -0.0000 -12.1325 -13.8327 25.9093 -6.1408 7.1250 -0.0000 -0.0000 9.6288 -3.7222 9.1153
0.3473 17.4346 18.3401 2.8180 -4.4674 5.3132 0.0000 0.0000 0.0000 -26.9771 -1.3737 2.8152 3.0363 10.7536 31.4532 0.0072 -2.6625 -2.2856 2.6420 -10.0916 -29.2739 0.0000 0.0000 0.0000 14.1691 13.2269 -40.9886 -18.4352 -19.9412 85.4205 0.1198 6.5469 -0.0710 -0.1108 2.1459 -5.9092 -5.4968 -1.7707 10.4727 1.6785 -2.9278 -0.0635 5.3069 -1.2659 -5.5838 -8.1340 -2.5512 -21.9494 8.4055 -2.5193 12.8823 3.8220 -0.7691 7.7700 -0.0000 0.0000 0.0000 -84.9371 9.5248 33.9632 131.1706 -52.5123 -94.7577 -0.0000 0.0000 -30.3903 20.0891 10.2445 3.7216 -7.1250 0.0000 -0.0000 -6.1405 40.7966 0.6392 -0.0000 0.0000 0.0000 83.0178 -28.6546 42.1335 -111.8625 58.1146 -78.8136 0.0000 -0.0000 -12.2918 -13.5455 26.0307 -6.0353 7.1250 -0.0000 -0.0000 9.8093 -3.6401 9.3065
0.3078 17.6249 19.2303 2.4105 -4.8753 5.7074 0.0000 0.0000 0.0000 -26.4387 -0.6458 4.9366 2.6891 10.1739 29.5416 0.1329 -1.1942 7.4326 1.9406 -8.7412 -24.9891 0.0000 0.0000 0.0000 14.8594 14.4406 -41.0890 -15.6349 -19.5369 77.1419 0.0956 5.7850 0.1212 -0.2073 2.9313 -8.0876 -5.2105 -2.0932 9.7168 2.0122 -3.2734 -0.4322 5.5162 -1.4358 -5.4993 -8.0894 -2.5471 -22.0223 8.1562 -2.5031 13.4091 3.7402 -0.7828 7.9515 0.0000 -0.0000 0.0000 -84.2450 9.9667 34.2701 131.0909 -52.5460 -94.6944 -0.0000 0.0000 -29.8567 20.7787 11.2907 4.2486 -7.1250 0.0000 -0.0000 -5.6989 41.9650 0.4282 0.0000 -0.0000 0.0000 82.5839 -30.4886 41.6803 -113.3174 57.8425 -80.0471 0.0000 -0.0000 -12.0400 -13.9965 25.9783 -6.2311 7.1250 -0.0000 -0.0000 9.5343 -3.6307 9.0396
0.2661 17.7810 20.1330 2.1655 -6.0180 5.8538 0.0000 0.0000 0.0000 -26.5167 -0.3992 8.1736 2.1182 9.1081 26.1342 0.7070 2.8320 15.1753 1.6329 -8.0556 -22.8830 0.0000 0.0000 0.0000 15.2947 15.7873 -40.4237 -12.6346 -18.6462 67.9866 0.0802 5.6262 -0.6653 -0.2830 3.4213 -9.4539 -5.4801 -2.1021 9.3645 2.4862 -3.2777 -0.7061 6.1648 -1.4156 -5.5484 -8.3305 -2.5944 -22.6058 7.8703 -2.4245 14.0778 3.7054 -0.7781 8.2650 -0.0000 -0.0000 0.0000 -83.7729 10.2467 34.7133 130.6046 -52.7487 -94.3079 -0.0000 0.0000 -29.1569 21.1783 10.5375 4.0529 -7.1250 0.0000 -0.0000 -5.2277 41.2057 0.4907 -0.0000 -0.0000 0.0000 81.7309 -32.0726 41.1765 -115.0896 57.4825 -81.5445 0.0000 -0.0000 -12.7577 -13.8658 25.4993 -6.0658 7.1250 -0.0000 -0.0000 9.5842 -4.1274 8.9987
0.2371 17.9300 21.0625 1.6472 -6.3169 6.1069 0.0000 0.0000 0.0000 -26.3187 -0.6509 11.6032 1.6694 8.1407 23.1421 1.4287 4.4129 21.5856 0.5972 -4.9473 -13.7582 0.0000 0.0000 0.0000 16.1114 16.0564 -39.1916 -9.6589 -17.2135 58.3422 0.0603 4.7271 -0.2433 -0.3020 3.5334 -9.7674 -4.3506 -2.4864 9.2668 2.4356 -3.6690 -1.3990 5.5433 -1.6035 -6.2419 -8.1227 -2.4642 -22.1457 7.8917 -2.3684 14.3825 3.6895 -0.7472 8.2834 -0.0000 -0.0000 0.0000 -82.1300 11.5650 35.3662 130.3639 -52.8477 -94.1161 -0.0000 0.0000 -28.8635 21.3062 10.2191 3.9581 -7.1250 0.0000 -0.0000 -5.0685 40.8793 0.5166 -0.0000 -0.0000 0.0000 81.9090 -33.8819 40.7908 -116.0616 57.2712 -82.3632 0.0000 -0.0000 -12.4781 -14.4499 25.4890 -6.3277 7.1250 -0.0000 -0.0000 9.2294 -4.0580 8.6684
0.2002 18.0486 21.9488 1.8688 -7.4964 6.5830 0.0000 0.0000 0.0000 -27.1480 -0.5661 13.4759 1.5276 7.8038 22.1198 1.9417 4.7602 25.2753 0.2395 -3.1494 -8.6951 0.0000 0.0000 0.0000 15.8108 17.4555 -37.9271 -6.8940 -15.2420 48.4723 0.0474 3.8587 1.4924 -0.3542 3.8239 -10.5817 -4.7730 -2.3599 7.4759 2.5105 -3.4656 -0.8784 5.6997 -1.5606 -4.6733 -8.0032 -2.5136 -22.5436 7.5589 -2.3449 13.7147 3.5486 -0.7552 8.1164 -0.0000 0.0000 0.0000 -81.3281 10.7853 35.8575 129.8764 -53.0452 -93.7271 -0.0000 0.0000 -28.1057 19.4242 10.1157 3.5441 -7.1250 0.0000 -0.0000 -6.7019 40.6026 0.7304 -0.0000 0.0000 0.0000 82.2980 -33.3029 39.3726 -117.2806 56.9921 -83.3871 0.0000 -0.0000 -12.0833 -14.4313 25.3001 -6.2760 7.1250 -0.0000 -0.0000 9.2288 -4.2498 8.6344
0.1689 18.1364 22.8369 1.9263 -7.7240 6.8675 0.0000 0.0000 0.0000 -27.6733 -0.7446 14.8299 1.6200 8.0251 22.7903 1.9954 4.0573 25.7493 0.2019 -2.8934 -7.9820 0.0000 0.0000 0.0000 15.7626 17.8759 -35.9259 -4.5093 -12.8090 38.6576 0.0093 2.9928 3.7017 -0.3305 3.6949 -10.2199 -4.5976 -2.5308 7.2578 2.6017 -3.6686 -1.2208 5.7174 -1.6498 -4.8878 -8.1598 -2.5191 -22.7689 7.4258 -2.2727 14.0205 3.5438 -0.7406 8.2507 -0.0000 0.0000 0.0000 -80.5736 11.2825 36.5248 129.2390 -53.2978 -93.2169 -0.0000 0.0000 -27.7295 18.8667 9.9078 3.3650 -7.1250 0.0000 -0.0000 -7.1542 40.3369 0.8273 -0.0000 0.0000 0.0000 82.4522 -34.0627 38.4682 -119.3944 56.4692 -85.1546 0.0000 -0.0000 -11.6078 -14.5516 25.3314 -6.3374 7.1250 -0.0000 -0.0000 9.1577 -4.2020 8.5744
0.1277 18.1766 23.6855 2.6959 -7.9379 7.0115 0.0000 0.0000 0.0000 -28.8491 -1.1597 15.3726 1.9370 8.7335 24.9653 1.5858 3.5270 22.9319 0.2235 -3.0431 -8.3987 0.0000 0.0000 0.0000 14.9567 18.2809 -33.8588 -2.7166 -10.2216 29.6973 -0.0476 1.3405 4.8478 -0.4210 4.1644 -11.5398 -5.2721 -2.5975 7.4323 2.4472 -3.8384 -1.4283 5.9739 -1.7009 -5.1523 -8.1811 -2.6867 -23.4579 7.3780 -2.4323 14.0727 3.5122 -0.8101 8.3965 -0.0000 0.0000 0.0000 -80.0483 11.4861 36.9207 129.0497 -53.3717 -93.0651 -0.0000 0.0000 -27.2426 19.4974 11.7277 4.1164 -7.1250 0.0000 -0.0000 -6.9132 42.2966 0.4635 -0.0000 0.0000 0.0000 82.9952 -34.0616 37.5230 -120.9393 56.0544 -86.4393 0.0000 -0.0000 -10.6955 -14.7437 25.6467 -6.4981 7.1250 -0.0000 -0.0000 9.0614 -3.8588 8.5404
0.0950 18.1571 24.5233 3.1268 -8.0308 6.8979 0.0000 0.0000 0.0000 -29.6200 -1.5248 16.0956 2.3579 9.5749 27.6107 1.0839 4.5284 18.6899 0.0600 -1.5806 -4.3480 0.0000 0.0000 0.0000 14.7332 18.1609 -31.9302 -1.6831 -8.1722 23.2384 -0.0541 -0.4838 4.2447 -0.8794 5.9783 -16.7215 -5.4576 -2.6931 7.7106 2.3355 -4.0042 -1.4803 5.9988 -1.7695 -5.3381 -8.4306 -2.8217 -23.3210 7.5150 -2.5436 13.4352 3.5746 -0.8621 8.1725 0.0000 -0.0000 0.0000 -79.8550 11.6822 37.0182 128.0690 -53.7452 -92.2761 -0.0000 0.0000 -27.5627 17.7025 8.8976 2.8263 -7.1250 0.0000 -0.0000 -7.9959 39.1925 1.1528 0.0000 -0.0000 0.0000 83.6189 -34.1556 36.6819 -122.9241 55.4790 -88.0803 0.0000 -0.0000 -9.7688 -14.9010 26.0373 -6.6623 7.1250 -0.0000 -0.0000 8.9924 -3.4445 8.5435
0.0763 18.0763 25.4036 3.7001 -8.0968 6.1262 0.0000 0.0000 0.0000 -30.5550 -1.5377 16.8426 3.0168 10.7222 31.3486 0.9182 3.3447 17.2917 0.2140 -2.9780 -8.2176 0.0000 0.0000 0.0000 14.7714 17.0753 -30.2502 -1.2642 -7.1271 20.0924 -0.0742 -1.1783 4.8657 -0.8229 5.7879 -16.1701 -5.4882 -2.7304 7.4052 2.0424 -4.0430 -0.8343 5.6585 -1.8417 -4.4976 -8.2379 -2.8310 -23.3852 7.1751 -2.5041 12.4173 3.4172 -0.8640 7.8286 -0.0000 0.0000 0.0000 -79.6722 11.1917 37.0723 127.0797 -54.1075 -91.4765 -0.0000 0.0000 -27.6251 17.8660 9.6709 3.0995 -7.1250 0.0000 -0.0000 -7.9833 40.0064 0.9900 -0.0000 0.0000 0.0000 84.2759 -32.9525 35.8858 -123.9036 55.1767 -88.8859 0.0000 -0.0000 -8.8882 -15.0369 26.0699 -6.7331 7.1250 -0.0000 -0.0000 8.9128 -3.3924 8.4746
0.0486 17.9297 26.2328 3.4543 -7.9778 5.6430 0.0000 0.0000 0.0000 -30.3633 -1.9382 16.1627 4.1156 12.3127 36.8472 0.9928 2.0989 18.2440 0.0590 -1.5667 -4.3097 0.0000 0.0000 0.0000 15.5934 16.6102 -29.1221 -1.2017 -6.9551 19.5825 -0.0959 -1.5545 5.5150 -0.9134 6.0897 -17.0450 -4.9836 -2.7625 7.7703 2.0972 -4.0488 -0.5345 5.4435 -1.8661 -4.4172 -8.4281 -2.8236 -23.1423 7.1887 -2.4208 11.5742 3.4525 -0.8335 7.5030 0.0000 0.0000 0.0000 -79.9816 10.9244 36.8704 125.4378 -54.6776 -90.1416 -0.0000 0.0000 -27.4417 18.2486 8.8994 2.9200 -7.1250 0.0000 -0.0000 -7.5271 39.2363 1.0761 0.0000 0.0000 0.0000 84.6665 -31.5798 35.4932 -124.4198 55.0123 -89.3092 0.0000 -0.0000 -8.2606 -15.7977 25.7620 -7.0105 7.1250 -0.0000 -0.0000 8.4311 -3.5913 7.9747
0.0110 17.7511 27.0415 2.8888 -8.5457 4.9685 0.0000 0.0000 0.0000 -29.5591 -1.2688 14.1902 5.6689 14.0996 43.6379 1.1861 -0.6288 20.8242 0.0236 -0.9927 -2.7287 0.0000 0.0000 0.0000 16.9958 16.2814 -28.4763 -1.3883 -7.4550 21.0705 -0.1726 -1.7768 7.4285 -0.6177 5.0298 -13.9937 -4.3173 -2.4182 8.4300 2.1354 -3.5476 -0.3187 5.0902 -1.6281 -4.6627 -8.5528 -2.9231 -22.6428 7.0743 -2.5215 11.1702 3.4149 -0.9056 7.2964 -0.0000 -0.0000 0.0000 -80.4123 11.1162 36.6773 123.6101 -55.2686 -88.6448 -0.0000 0.0000 -27.0602 18.6150 8.2283 2.7599 -7.1250 0.0000 -0.0000 -7.1116 38.5645 1.1340 -0.0000 -0.0000 0.0000 85.4451 -30.1946 34.8836 -124.4745 54.9947 -89.3540 0.0000 -0.0000 -7.8210 -16.5762 26.0831 -7.4561 7.1250 -0.0000 -0.0000 7.9851 -3.1503 7.6096
-0.0080 17.5147 27.8747 2.5600 -8.5790 3.8150 0.0000 0.0000 0.0000 -28.7725 -0.7000 12.2833 7.6439 15.8509 51.2695 1.3445 -2.8149 23.0781 0.0008 0.1782 0.4896 0.0000 0.0000 0.0000 18.4123 14.2319 -27.7492 -1.8486 -8.5433 24.3767 -0.1365 1.5186 7.7099 -0.0167 0.8334 -2.2905 -3.7431 -2.2911 9.1880 2.2276 -3.3364 0.0925 4.8681 -1.5420 -4.7082 -8.8289 -2.9529 -22.1119 6.8719 -2.4793 10.9152 3.3930 -0.9249 7.1231 -0.0000 0.0000 0.0000 -81.0763 11.0159 36.4658 121.0435 -56.0254 -86.5257 -0.0000 0.0000 -26.8842 19.0308 8.6987 2.9862 -7.1250 0.0000 -0.0000 -6.8243 39.0868 0.9997 -0.0000 0.0000 0.0000 85.4809 -28.3870 34.8426 -124.2248 55.0748 -89.1494 0.0000 -0.0000 -7.7237 -17.0076 26.0461 -7.6495 7.1250 -0.0000 -0.0000 7.7217 -3.1210 7.3580
-0.0493 17.2484 28.6898 2.1275 -8.6780 2.8935 0.0000 0.0000 0.0000 -27.3095 -0.0502 9.4642 10.0179 17.4199 59.5483 1.5377 -2.9746 24.6572 0.0999 2.0382 5.6112 0.0000 0.0000 0.0000 19.6127 13.3701 -27.0401 -2.7048 -10.2011 29.6305 0.1011 5.6779 1.2759 -0.0204 -0.9220 2.5342 -3.7412 -1.9858 10.6217 2.6870 -2.9472 -0.0796 5.3938 -1.3078 -5.7144 -9.2937 -3.0229 -21.6683 6.5276 -2.4333 11.3722 3.3623 -0.9673 7.1984 0.0000 0.0000 0.0000 -82.5097 11.7744 36.1733 118.7906 -56.6237 -84.6507 -0.0000 0.0000 -26.5673 19.3952 8.6012 3.0140 -7.1250 0.0000 -0.0000 -6.4970 39.0122 0.9632 0.0000 0.0000 0.0000 84.8464 -27.1686 35.0751 -124.2965 55.0519 -89.2081 0.0000 -0.0000 -8.3543 -17.1011 25.5176 -7.5498 7.1250 -0.0000 -0.0000 7.6221 -3.6423 7.1874
-0.1081 16.9688 29.5092 1.9983 -8.6634 2.0866 0.0000 0.0000 0.0000 -25.8010 0.4101 6.2096 12.6258 18.6429 67.9593 1.6084 -1.9941 24.7534 0.2079 2.9360 8.1007 0.0000 0.0000 0.0000 20.3285 13.7388 -25.8577 -3.8460 -11.9526 35.5644 -0.0628 6.0341 -5.7837 -0.0982 -2.0207 5.5629 -3.5703 -1.7671 11.0604 2.5495 -2.6537 0.2069 5.1206 -1.1751 -5.7062 -9.2741 -2.9997 -21.2246 6.6820 -2.4721 11.2712 3.4052 -0.9765 7.0987 -0.0000 0.0000 0.0000 -83.0594 11.9228 35.7963 116.6360 -57.1417 -82.8461 -0.0000 0.0000 -26.2776 19.8314 8.8747 3.1845 -7.1250 0.0000 -0.0000 -6.1604 39.3332 0.8641 -0.0000 0.0000 0.0000 85.1780 -24.8811 35.5472 -123.9557 55.1602 -88.9287 0.0000 -0.0000 -9.3926 -17.1897 25.1877 -7.5003 7.1250 -0.0000 -0.0000 7.5418 -3.9636 7.0650
-0.1736 16.7353 30.3286 0.7142 -7.7654 1.4376 0.0000 0.0000 0.0000 -22.5342 0.2349 2.8249 15.4037 19.4858 76.4498 1.4029 -1.4162 22.9343 0.0251 1.0237 2.8140 0.0000 0.0000 0.0000 22.5916 13.9479 -24.2797 -4.9755 -13.3561 40.7165 -0.4452 3.0187 -11.9286 -0.0158 -0.8112 2.2295 -2.3048 -1.7704 11.8026 2.8501 -2.4882 0.4820 4.7234 -1.1234 -5.8893 -9.2207 -3.0688 -21.4915 6.5824 -2.5495 11.5744 3.3565 -1.0187 7.2461 -0.0000 -0.0000 0.0000 -83.9849 12.3477 35.6949 114.9943 -57.5026 -81.4642 -0.0000 0.0000 -25.2047 20.3437 8.0965 2.9893 -7.1250 0.0000 -0.0000 -5.6149 38.5505 0.8953 -0.0000 -0.0000 0.0000 85.4036 -22.0941 35.9780 -123.0640 55.4366 -88.1956 0.0000 -0.0000 -10.7647 -18.0848 25.3965 -7.9726 7.1250 -0.0000 -0.0000 7.0141 -3.6117 6.6089
-0.2350 16.5617 31.0762 -2.7140 -7.6318 1.8153 0.0000 0.0000 0.0000 -16.1229 0.0912 -2.8227 18.3202 19.9322 85.0833 1.2321 -1.8150 21.6966 0.1308 -2.3308 -6.4208 0.0000 0.0000 0.0000 27.1632 15.5432 -22.6960 -5.8713 -14.3024 44.4629 -0.6892 -0.1483 -15.7441 -0.0086 -0.5992 1.6466 0.6858 -1.5931 12.9717 3.9758 -1.7334 0.1803 4.1635 -0.8021 -6.9952 -9.3239 -3.0109 -21.0741 6.3989 -2.4464 11.4882 3.3233 -0.9974 7.1397 0.0000 -0.0000 0.0000 -85.6308 13.2847 35.1794 113.0522 -57.8936 -79.8226 -0.0000 0.0000 -23.3683 20.6650 9.1788 3.4430 -7.1250 0.0000 -0.0000 -5.4819 39.7205 0.7158 0.0000 -0.0000 0.0000 84.7826 -19.2490 36.8623 -122.0716 55.7322 -87.3769 0.0000 -0.0000 -12.8321 -19.0526 24.9839 -8.2989 7.1250 -0.0000 -0.0000 6.3879 -3.8780 5.9792
-0.2523 16.3745 31.8329 -4.1505 -6.2930 1.7750 0.0000 0.0000 0.0000 -12.6600 -1.0752 -7.8867 20.6308 19.9905 91.8446 1.0697 -3.0358 20.8514 0.2221 -3.0335 -8.3720 0.0000 0.0000 0.0000 29.1610 15.2748 -20.4921 -6.5399 -14.9319 47.1121 -0.9906 -2.5676 -19.8924 -0.0231 -0.9807 2.6957 2.2105 -1.7641 13.2809 4.4271 -1.6965 0.4550 3.7791 -0.8290 -6.9107 -8.9504 -2.9461 -21.3311 6.2084 -2.3864 10.6952 3.1989 -0.9584 6.9085 0.0000 -0.0000 0.0000 -87.6823 14.2338 33.9251 112.1363 -58.0650 -79.0460 -0.0000 0.0000 -20.5099 20.8483 10.8248 4.0909 -7.1250 0.0000 -0.0000 -5.5630 41.4790 0.4848 0.0000 -0.0000 0.0000 83.9311 -16.6030 38.0115 -123.1510 55.4101 -88.2671 0.0000 -0.0000 -15.7711 -20.1829 23.7832 -8.4321 7.1250 -0.0000 -0.0000 5.5841 -4.9300 5.1084
-0.2790 16.3116 32.6618 -2.0897 -4.6320 0.8135 0.0000 0.0000 0.0000 -14.4174 -3.2289 -11.7526 22.0907 19.8949 96.1231 1.1383 -2.3188 21.1127 0.2236 -3.0436 -8.4001 0.0000 0.0000 0.0000 27.4613 12.4610 -17.8688 -6.9486 -15.2884 48.6795 -1.3363 -3.5401 -23.3667 -0.0035 0.3833 -1.0532 0.4665 -1.7330 13.0998 3.8043 -1.9877 1.0690 4.1223 -0.9407 -6.1010 -9.2335 -3.1108 -20.9241 6.8474 -2.6208 9.3780 3.4183 -1.0213 6.4473 -0.0000 -0.0000 0.0000 -88.9694 15.1237 33.8218 111.2225 -58.2278 -78.2699 -0.0000 0.0000 -17.7973 22.6495 11.1386 4.6087 -7.1250 0.0000 -0.0000 -4.0102 41.9892 0.2984 -0.0000 -0.0000 0.0000 83.8069 -11.6450 38.7341 -121.4155 55.9208 -86.8340 0.0000 -0.0000 -19.7265 -20.9668 22.7205 -8.4190 7.1250 -0.0000 -0.0000 4.9999 -5.9050 4.4765
-0.3335 16.2086 33.3297 -2.3428 -3.0864 1.7005 0.0000 0.0000 0.0000 -12.1940 -5.3552 -19.1516 23.7178 19.6653 100.9286 0.8969 -3.6226 19.5516 0.0344 1.1975 3.2923 0.0000 0.0000 0.0000 28.1701 10.8370 -16.2976 -6.9678 -15.3047 48.7524 -1.7091 -3.8391 -26.3232 -0.0577 1.5500 -4.2637 0.1562 -1.5231 13.0682 4.1665 -1.7252 0.9157 4.6442 -0.7949 -6.2437 -9.6925 -3.4714 -20.7142 7.3991 -3.0324 8.1742 3.6181 -1.1853 6.0778 0.0000 0.0000 0.0000 -90.1177 16.3262 34.5268 111.8428 -58.1182 -78.7969 -0.0000 0.0000 -13.7812 24.3915 11.8507 5.3200 -7.1250 0.0000 -0.0000 -2.5430 42.9401 0.1294 0.0000 0.0000 0.0000 83.8564 -8.5034 38.6676 -122.5900 55.5793 -87.8049 0.0000 -0.0000 -23.1736 -21.2168 22.3619 -8.4017 7.1250 -0.0000 -0.0000 4.8108 -6.2383 4.2750
-0.3335 16.2086 33.3297 -2.3428 -3.0864 1.7005 0.0000 0.0000 0.0000 -12.1940 -5.3552 -19.1516 23.7178 19.6653 100.9286 0.8969 -3.6226 19.5516 0.0344 1.1975 3.2923 0.0000 0.0000 0.0000 28.1701 10.8370 -16.2976 -6.9678 -15.3047 48.7524 -1.7091 -3.8391 -26.3232 -0.0577 1.5500 -4.2637 0.1562 -1.5231 13.0682 4.1665 -1.7252 0.9157 4.6442 -0.7949 -6.2437 -9.6925 -3.4714 -20.7142 7.3991 -3.0324 8.1742 3.6181 -1.1853 6.0778 0.0000 0.0000 0.0000 -90.1177 16.3262 34.5268 111.8428 -58.1182 -78.7969 -0.0000 0.0000 -13.7812 24.3915 11.8507 5.3200 -7.1250 0.0000 -0.0000 -2.5430 42.9401 0.1294 0.0000 0.0000 0.0000 83.8564 -8.5034 38.6676 -122.5900 55.5793 -87.8049 0.0000 -0.0000 -23.1736 -21.2168 22.3619 -8.4017 7.1250 -0.0000 -0.0000 4.8108 -6.2383 4.2750
-0.3335 16.2086 33.3297 -2.3428 -3.0864 1.7005 0.0000 0.0000 0.0000 -12.1940 -5.3552 -19.1516 23.7178 19.6653 100.9286 0.8969 -3.6226 19.5516 0.0344 1.1975 3.2923 0.0000 0.0000 0.0000 28.1701 10.8370 -16.2976 -6.9678 -15.3047 48.7524 -1.7091 -3.8391 -26.3232 -0.0577 1.5500 -4.2637 0.1562 -1.5231 13.0682 4.1665 -1.7252 0.9157 4.6442 -0.7949 -6.2437 -9.6925 -3.4714 -20.7142 7.3991 -3.0324 8.1742 3.6181 -1.1853 6.0778 0.0000 0.0000 0.0000 -90.1177 16.3262 34.5268 111.8428 -58.1182 -78.7969 -0.0000 0.0000 -13.7812 24.3915 11.8507 5.3200 -7.1250 0.0000 -0.0000 -2.5430 42.9401 0.1294 0.0000 0.0000 0.0000 83.8564 -8.5034 38.6676 -122.5900 55.5793 -87.8049 0.0000 -0.0000 -23.1736 -21.2168 22.3619 -8.4017 7.1250 -0.0000 -0.0000 4.8108 -6.2383 4.2750
-0.3335 16.2086 33.3297 -2.3428 -3.0864 1.7005 0.0000 0.0000 0.0000 -12.1940 -5.3552 -19.1516 23.7178 19.6653 100.9286 0.8969 -3.6226 19.5516 0.0344 1.1975 3.2923 0.0000 0.0000 0.0000 28.1701 10.8370 -16.2976 -6.9678 -15.3047 48.7524 -1.7091 -3.8391 -26.3232 -0.0577 1.5500 -4.2637 0.1562 -1.5231 13.0682 4.1665 -1.7252 0.9157 4.6442 -0.7949 -6.2437 -9.6925 -3.4714 -20.7142 7.3991 -3.0324 8.1742 3.6181 -1.1853 6.0778 0.0000 0.0000 0.0000 -90.1177 16.3262 34.5268 111.8428 -58.1182 -78.7969 -0.0000 0.0000 -13.7812 24.3915 11.8507 5.3200 -7.1250 0.0000 -0.0000 -2.5430 42.9401 0.1294 0.0000 0.0000 0.0000 83.8564 -8.5034 38.6676 -122.5900 55.5793 -87.8049 0.0000 -0.0000 -23.1736 -21.2168 22.3619 -8.4017 7.1250 -0.0000 -0.0000 4.8108 -6.2383 4.2750
-0.3335 16.2086 33.3297 -2.3428 -3.0864 1.7005 0.0000 0.0000 0.0000 -12.1940 -5.3552 -19.1516 23.7178 19.6653 100.9286 0.8969 -3.6226 19.5516 0.0344 1.1975 3.2923 0.0000 0.0000 0.0000 28.1701 10.8370 -16.2976 -6.9678 -15.3047 48.7524 -1.7091 -3.8391 -26.3232 -0.0577 1.5500 -4.2637 0.1562 -1.5231 13.0682 4.1665 -1.7252 0.9157 4.6442 -0.7949 -6.2437 -9.6925 -3.4714 -20.7142 7.3991 -3.0324 8.1742 3.6181 -1.1853 6.0778 0.0000 0.0000 0.0000 -90.1177 16.3262 34.5268 111.8428 -58.1182 -78.7969 -0.0000 0.0000 -13.7812 24.3915 11.8507 5.3200 -7.1250 0.0000 -0.0000 -2.5430 42.9401 0.1294 0.0000 0.0000 0.0000 83.8564 -8.5034 38.6676 -122.5900 55.5793 -87.8049 0.0000 -0.0000 -23.1736 -21.2168 22.3619 -8.4017 7.1250 -0.0000 -0.0000 4.8108 -6.2383 4.2750
-0.3335 16.2086 33.3297 -2.3428 -3.0864 1.7005 0.0000 0.0000 0.0000 -12.1940 -5.3552 -19.1516 23.7178 19.6653 100.9286 0.8969 -3.6226 19.5516 0.0344 1.1975 3.2923 0.0000 0.0000 0.0000 28.1701 10.8370 -16.2976 -6.9678 -15.3047 48.7524 -1.7091 -3.8391 -26.3232 -0.0577 1.5500 -4.2637 0.1562 -1.5231 13.0682 4.1665 -1.7252 0.9157 4.6442 -0.7949 -6.2437 -9.6925 -3.4714 -20.7142 7.3991 -3.0324 8.1742 3.6181 -1.1853 6.0778 0.0000 0.0000 0.0000 -90.1177 16.3262 34.5268 111.8428 -58.1182 -78.7969 -0.0000 0.0000 -13.7812 24.3915 11.8507 5.3200 -7.1250 0.0000 -0.0000 -2.5430 42.9401 0.1294 0.0000 0.0000 0.0000 83.8564 -8.5034 38.6676 -122.5900 55.5793 -87.8049 0.0000 -0.0000 -23.1736 -21.2168 22.3619 -8.4017 7.1250 -0.0000 -0.0000 4.8108 -6.2383 4.2750
-0.3335 16.2086 33.3297 -2.3428 -3.0864 1.7005 0.0000 0.0000 0.0000 -12.1940 -5.3552 -19.1516 23.7178 19.6653 100.9286 0.8969 -3.6226 19.5516 0.0344 1.1975 3.2923 0.0000 0.0000 0.0000 28.1701 10.8370 -16.2976 -6.9678 -15.3047 48.7524 -1.7091 -3.8391 -26.3232 -0.0577 1.5500 -4.2637 0.1562 -1.5231 13.0682 4.1665 -1.7252 0.9157 4.6442 -0.7949 -6.2437 -9.6925 -3.4714 -20.7142 7.3991 -3.0324 8.1742 3.6181 -1.1853 6.0778 0.0000 0.0000 0.0000 -90.1177 16.3262 34.5268 111.8428 -58.1182 -78.7969 -0.0000 0.0000 -13.7812 24.3915 11.8507 5.3200 -7.1250 0.0000 -0.0000 -2.5430 42.9401 0.1294 0.0000 0.0000 0.0000 83.8564 -8.5034 38.6676 -122.5900 55.5793 -87.8049 0.0000 -0.0000 -23.1736 -21.2168 22.3619 -8.4017 7.1250 -0.0000 -0.0000 4.8108 -6.2383 4.2750
-0.3335 16.2086 33.3297 -2.3428 -3.0864 1.7005 0.0000 0.0000 0.0000 -12.1940 -5.3552 -19.1516 23.7178 19.6653 100.9286 0.8969 -3.6226 19.5516 0.0344 1.1975 3.2923 0.0000 0.0000 0.0000 28.1701 10.8370 -16.2976 -6.9678 -15.3047 48.7524 -1.7091 -3.8391 -26.3232 -0.0577 1.5500 -4.2637 0.1562 -1.5231 13.0682 4.1665 -1.7252 0.9157 4.6442 -0.7949 -6.2437 -9.6925 -3.4714 -20.7142 7.3991 -3.0324 8.1742 3.6181 -1.1853 6.0778 0.0000 0.0000 0.0000 -90.1177 16.3262 34.5268 111.8428 -58.1182 -78.7969 -0.0000 0.0000 -13.7812 24.3915 11.8507 5.3200 -7.1250 0.0000 -0.0000 -2.5430 42.9401 0.1294 0.0000 0.0000 0.0000 83.8564 -8.5034 38.6676 -122.5900 55.5793 -87.8049 0.0000 -0.0000 -23.1736 -21.2168 22.3619 -8.4017 7.1250 -0.0000 -0.0000 4.8108 -6.2383 4.2750
-0.3335 16.2086 33.3297 -2.3428 -3.0864 1.7005 0.0000 0.0000 0.0000 -12.1940 -5.3552 -19.1516 23.7178 19.6653 100.9286 0.8969 -3.6226 19.5516 0.0344 1.1975 3.2923 0.0000 0.0000 0.0000 28.1701 10.8370 -16.2976 -6.9678 -15.3047 48.7524 -1.7091 -3.8391 -26.3232 -0.0577 1.5500 -4.2637 0.1562 -1.5231 13.0682 4.1665 -1.7252 0.9157 4.6442 -0.7949 -6.2437 -9.6925 -3.4714 -20.7142 7.3991 -3.0324 8.1742 3.6181 -1.1853 6.0778 0.0000 0.0000 0.0000 -90.1177 16.3262 34.5268 111.8428 -58.1182 -78.7969 -0.0000 0.0000 -13.7812 24.3915 11.8507 5.3200 -7.1250 0.0000 -0.0000 -2.5430 42.9401 0.1294 0.0000 0.0000 0.0000 83.8564 -8.5034 38.6676 -122.5900 55.5793 -87.8049 0.0000 -0.0000 -23.1736 -21.2168 22.3619 -8.4017 7.1250 -0.0000 -0.0000 4.8108 -6.2383 4.2750
-0.3335 16.2086 33.3297 -2.3428 -3.0864 1.7005 0.0000 0.0000 0.0000 -12.1940 -5.3552 -19.1516 23.7178 19.6653 100.9286 0.8969 -3.6226 19.5516 0.0344 1.1975 3.2923 0.0000 0.0000 0.0000 28.1701 10.8370 -16.2976 -6.9678 -15.3047 48.7524 -1.7091 -3.8391 -26.3232 -0.0577 1.5500 -4.2637 0.1562 -1.5231 13.0682 4.1665 -1.7252 0.9157 4.6442 -0.7949 -6.2437 -9.6925 -3.4714 -20.7142 7.3991 -3.0324 8.1742 3.6181 -1.1853 6.0778 0.0000 0.0000 0.0000 -90.1177 16.3262 34.5268 111.8428 -58.1182 -78.7969 -0.0000 0.0000 -13.7812 24.3915 11.8507 5.3200 -7.1250 0.0000 -0.0000 -2.5430 42.9401 0.1294 0.0000 0.0000 0.0000 83.8564 -8.5034 38.6676 -122.5900 55.5793 -87.8049 0.0000 -0.0000 -23.1736 -21.2168 22.3619 -8.4017 7.1250 -0.0000 -0.0000 4.8108 -6.2383 4.2750
-0.3335 16.2086 33.3297 -2.3428 -3.0864 1.7005 0.0000 0.0000 0.0000 -12.1940 -5.3552 -19.1516 23.7178 19.6653 100.9286 0.8969 -3.6226 19.5516 0.0344 1.1975 3.2923 0.0000 0.0000 0.0000 28.1701 10.8370 -16.2976 -6.9678 -15.3047 48.7524 -1.7091 -3.8391 -26.3232 -0.0577 1.5500 -4.2637 0.1562 -1.5231 13.0682 4.1665 -1.7252 0.9157 4.6442 -0.7949 -6.2437 -9.6925 -3.4714 -20.7142 7.3991 -3.0324 8.1742 3.6181 -1.1853 6.0778 0.0000 0.0000 0.0000 -90.1177 16.3262 34.5268 111.8428 -58.1182 -78.7969 -0.0000 0.0000 -13.7812 24.3915 11.8507 5.3200 -7.1250 0.0000 -0.0000 -2.5430 42.9401 0.1294 0.0000 0.0000 0.0000 83.8564 -8.5034 38.6676 -122.5900 55.5793 -87.8049 0.0000 -0.0000 -23.1736 -21.2168 22.3619 -8.4017 7.1250 -0.0000 -0.0000 4.8108 -6.2383 4.2750
-0.3335 16.2086 33.3297 -2.3428 -3.0864 1.7005 0.0000 0.0000 0.0000 -12.1940 -5.3552 -19.1516 23.7178 19.6653 100.9286 0.8969 -3.6226 19.5516 0.0344 1.1975 3.2923 0.0000 0.0000 0.0000 28.1701 10.8370 -16.2976 -6.9678 -15.3047 48.7524 -1.7091 -3.8391 -26.3232 -0.0577 1.5500 -4.2637 0.1562 -1.5231 13.0682 4.1665 -1.7252 0.9157 4.6442 -0.7949 -6.2437 -9.6925 -3.4714 -20.7142 7.3991 -3.0324 8.1742 3.6181 -1.1853 6.0778 0.0000 0.0000 0.0000 -90.1177 16.3262 34.5268 111.8428 -58.1182 -78.7969 -0.0000 0.0000 -13.7812 24.3915 11.8507 5.3200 -7.1250 0.0000 -0.0000 -2.5430 42.9401 0.1294 0.0000 0.0000 0.0000 83.8564 -8.5034 38.6676 -122.5900 55.5793 -87.8049 0.0000 -0.0000 -23.1736 -21.2168 22.3619 -8.4017 7.1250 -0.0000 -0.0000 4.8108 -6.2383 4.2750
-0.3335 16.2086 33.3297 -2.3428 -3.0864 1.7005 0.0000 0.0000 0.0000 -12.1940 -5.3552 -19.1516 23.7178 19.6653 100.9286 0.8969 -3.6226 19.5516 0.0344 1.1975 3.2923 0.0000 0.0000 0.0000 28.1701 10.8370 -16.2976 -6.9678 -15.3047 48.7524 -1.7091 -3.8391 -26.3232 -0.0577 1.5500 -4.2637 0.1562 -1.5231 13.0682 4.1665 -1.7252 0.9157 4.6442 -0.7949 -6.2437 -9.6925 -3.4714 -20.7142 7.3991 -3.0324 8.1742 3.6181 -1.1853 6.0778 0.0000 0.0000 0.0000 -90.1177 16.3262 34.5268 111.8428 -58.1182 -78.7969 -0.0000 0.0000 -13.7812 24.3915 11.8507 5.3200 -7.1250 0.0000 -0.0000 -2.5430 42.9401 0.1294 0.0000 0.0000 0.0000 83.8564 -8.5034 38.6676 -122.5900 55.5793 -87.8049 0.0000 -0.0000 -23.1736 -21.2168 22.3619 -8.4017 7.1250 -0.0000 -0.0000 4.8108 -6.2383 4.2750
-0.3335 16.2086 33.3297 -2.3428 -3.0864 1.7005 0.0000 0.0000 0.0000 -12.1940 -5.3552 -19.1516 23.7178 19.6653 100.9286 0.8969 -3.6226 19.5516 0.0344 1.1975 3.2923 0.0000 0.0000 0.0000 28.1701 10.8370 -16.2976 -6.9678 -15.3047 48.7524 -1.7091 -3.8391 -26.3232 -0.0577 1.5500 -4.2637 0.1562 -1.5231 13.0682 4.1665 -1.7252 0.9157 4.6442 -0.7949 -6.2437 -9.6925 -3.4714 -20.7142 7.3991 -3.0324 8.1742 3.6181 -1.1853 6.0778 0.0000 0.0000 0.0000 -90.1177 16.3262 34.5268 111.8428 -58.1182 -78.7969 -0.0000 0.0000 -13.7812 24.3915 11.8507 5.3200 -7.1250 0.0000 -0.0000 -2.5430 42.9401 0.1294 0.0000 0.0000 0.0000 83.8564 -8.5034 38.6676 -122.5900 55.5793 -87.8049 0.0000 -0.0000 -23.1736 -21.2168 22.3619 -8.4017 7.1250 -0.0000 -0.0000 4.8108 -6.2383 4.2750
-0.3335 16.2086 33.3297 -2.3428 -3.0864 1.7005 0.0000 0.0000 0.0000 -12.1940 -5.3552 -19.1516 23.7178 19.6653 100.9286 0.8969 -3.6226 19.5516 0.0344 1.1975 3.2923 0.0000 0.0000 0.0000 28.1701 10.8370 -16.2976 -6.9678 -15.3047 48.7524 -1.7091 -3.8391 -26.3232 -0.0577 1.5500 -4.2637 0.1562 -1.5231 13.0682 4.1665 -1.7252 0.9157 4.6442 -0.7949 -6.2437 -9.6925 -3.4714 -20.7142 7.3991 -3.0324 8.1742 3.6181 -1.1853 6.0778 0.0000 0.0000 0.0000 -90.1177 16.3262 34.5268 111.8428 -58.1182 -78.7969 -0.0000 0.0000 -13.7812 24.3915 11.8507 5.3200 -7.1250 0.0000 -0.0000 -2.5430 42.9401 0.1294 0.0000 0.0000 0.0000 83.8564 -8.5034 38.6676 -122.5900 55.5793 -87.8049 0.0000 -0.0000 -23.1736 -21.2168 22.3619 -8.4017 7.1250 -0.0000 -0.0000 4.8108 -6.2383 4.2750
-0.3335 16.2086 33.3297 -2.3428 -3.0864 1.7005 0.0000 0.0000 0.0000 -12.1940 -5.3552 -19.1516 23.7178 19.6653 100.9286 0.8969 -3.6226 19.5516 0.0344 1.1975 3.2923 0.0000 0.0000 0.0000 28.1701 10.8370 -16.2976 -6.9678 -15.3047 48.7524 -1.7091 -3.8391 -26.3232 -0.0577 1.5500 -4.2637 0.1562 -1.5231 13.0682 4.1665 -1.7252 0.9157 4.6442 -0.7949 -6.2437 -9.6925 -3.4714 -20.7142 7.3991 -3.0324 8.1742 3.6181 -1.1853 6.0778 0.0000 0.0000 0.0000 -90.1177 16.3262 34.5268 111.8428 -58.1182 -78.7969 -0.0000 0.0000 -13.7812 24.3915 11.8507 5.3200 -7.1250 0.0000 -0.0000 -2.5430 42.9401 0.1294 0.0000 0.0000 0.0000 83.8564 -8.5034 38.6676 -122.5900 55.5793 -87.8049 0.0000 -0.0000 -23.1736 -21.2168 22.3619 -8.4017 7.1250 -0.0000 -0.0000 4.8108 -6.2383 4.2750
-0.3335 16.2086 33.3297 -2.3428 -3.0864 1.7005 0.0000 0.0000 0.0000 -12.1940 -5.3552 -19.1516 23.7178 19.6653 100.9286 0.8969 -3.6226 19.5516 0.0344 1.1975 3.2923 0.0000 0.0000 0.0000 28.1701 10.8370 -16.2976 -6.9678 -15.3047 48.7524 -1.7091 -3.8391 -26.3232 -0.0577 1.5500 -4.2637 0.1562 -1.5231 13.0682 4.1665 -1.7252 0.9157 4.6442 -0.7949 -6.2437 -9.6925 -3.4714 -20.7142 7.3991 -3.0324 8.1742 3.6181 -1.1853 6.0778 0.0000 0.0000 0.0000 -90.1177 16.3262 34.5268 111.8428 -58.1182 -78.7969 -0.0000 0.0000 -13.7812 24.3915 11.8507 5.3200 -7.1250 0.0000 -0.0000 -2.5430 42.9401 0.1294 0.0000 0.0000 0.0000 83.8564 -8.5034 38.6676 -122.5900 55.5793 -87.8049 0.0000 -0.0000 -23.1736 -21.2168 22.3619 -8.4017 7.1250 -0.0000 -0.0000 4.8108 -6.2383 4.2750
-0.3335 16.2086 33.3297 -2.3428 -3.0864 1.7005 0.0000 0.0000 0.0000 -12.1940 -5.3552 -19.1516 23.7178 19.6653 100.9286 0.8969 -3.6226 19.5516 0.0344 1.1975 3.2923 0.0000 0.0000 0.0000 28.1701 10.8370 -16.2976 -6.9678 -15.3047 48.7524 -1.7091 -3.8391 -26.3232 -0.0577 1.5500 -4.2637 0.1562 -1.5231 13.0682 4.1665 -1.7252 0.9157 4.6442 -0.7949 -6.2437 -9.6925 -3.4714 -20.7142 7.3991 -3.0324 8.1742 3.6181 -1.1853 6.0778 0.0000 0.0000 0.0000 -90.1177 16.3262 34.5268 111.8428 -58.1182 -78.7969 -0.0000 0.0000 -13.7812 24.3915 11.8507 5.3200 -7.1250 0.0000 -0.0000 -2.5430 42.9401 0.1294 0.0000 0.0000 0.0000 83.8564 -8.5034 38.6676 -122.5900 55.5793 -87.8049 0.0000 -0.0000 -23.1736 -21.2168 22.3619 -8.4017 7.1250 -0.0000 -0.0000 4.8108 -6.2383 4.2750
-0.3335 16.2086 33.3297 -2.3428 -3.0864 1.7005 0.0000 0.0000 0.0000 -12.1940 -5.3552 -19.1516 23.7178 19.6653 100.9286 0.8969 -3.6226 19.5516 0.0344 1.1975 3.2923 0.0000 0.0000 0.0000 28.1701 10.8370 -16.2976 -6.9678 -15.3047 48.7524 -1.7091 -3.8391 -26.3232 -0.0577 1.5500 -4.2637 0.1562 -1.5231 13.0682 4.1665 -1.7252 0.9157 4.6442 -0.7949 -6.2437 -9.6925 -3.4714 -20.7142 7.3991 -3.0324 8.1742 3.6181 -1.1853 6.0778 0.0000 0.0000 0.0000 -90.1177 16.3262 34.5268 111.8428 -58.1182 -78.7969 -0.0000 0.0000 -13.7812 24.3915 11.8507 5.3200 -7.1250 0.0000 -0.0000 -2.5430 42.9401 0.1294 0.0000 0.0000 0.0000 83.8564 -8.5034 38.6676 -122.5900 55.5793 -87.8049 0.0000 -0.0000 -23.1736 -21.2168 22.3619 -8.4017 7.1250 -0.0000 -0.0000 4.8108 -6.2383 4.2750
-0.3335 16.2086 33.3297 -2.3428 -3.0864 1.7005 0.0000 0.0000 0.0000 -12.1940 -5.3552 -19.1516 23.7178 19.6653 100.9286 0.8969 -3.6226 19.5516 0.0344 1.1975 3.2923 0.0000 0.0000 0.0000 28.1701 10.8370 -16.2976 -6.9678 -15.3047 48.7524 -1.7091 -3.8391 -26.3232 -0.0577 1.5500 -4.2637 0.1562 -1.5231 13.0682 4.1665 -1.7252 0.9157 4.6442 -0.7949 -6.2437 -9.6925 -3.4714 -20.7142 7.3991 -3.0324 8.1742 3.6181 -1.1853 6.0778 0.0000 0.0000 0.0000 -90.1177 16.3262 34.5268 111.8428 -58.1182 -78.7969 -0.0000 0.0000 -13.7812 24.3915 11.8507 5.3200 -7.1250 0.0000 -0.0000 -2.5430 42.9401 0.1294 0.0000 0.0000 0.0000 83.8564 -8.5034 38.6676 -122.5900 55.5793 -87.8049 0.0000 -0.0000 -23.1736 -21.2168 22.3619 -8.4017 7.1250 -0.0000 -0.0000 4.8108 -6.2383 4.2750
-0.3335 16.2086 33.3297 -2.3428 -3.0864 1.7005 0.0000 0.0000 0.0000 -12.1940 -5.3552 -19.1516 23.7178 19.6653 100.9286 0.8969 -3.6226 19.5516 0.0344 1.1975 3.2923 0.0000 0.0000 0.0000 28.1701 10.8370 -16.2976 -6.9678 -15.3047 48.7524 -1.7091 -3.8391 -26.3232 -0.0577 1.5500 -4.2637 0.1562 -1.5231 13.0682 4.1665 -1.7252 0.9157 4.6442 -0.7949 -6.2437 -9.6925 -3.4714 -20.7142 7.3991 -3.0324 8.1742 3.6181 -1.1853 6.0778 0.0000 0.0000 0.0000 -90.1177 16.3262 34.5268 111.8428 -58.1182 -78.7969 -0.0000 0.0000 -13.7812 24.3915 11.8507 5.3200 -7.1250 0.0000 -0.0000 -2.5430 42.9401 0.1294 0.0000 0.0000 0.0000 83.8564 -8.5034 38.6676 -122.5900 55.5793 -87.8049 0.0000 -0.0000 -23.1736 -21.2168 22.3619 -8.4017 7.1250 -0.0000 -0.0000 4.8108 -6.2383 4.2750
-0.3335 16.2086 33.3297 -2.3428 -3.0864 1.7005 0.0000 0.0000 0.0000 -12.1940 -5.3552 -19.1516 23.7178 19.6653 100.9286 0.8969 -3.6226 19.5516 0.0344 1.1975 3.2923 0.0000 0.0000 0.0000 28.1701 10.8370 -16.2976 -6.9678 -15.3047 48.7524 -1.7091 -3.8391 -26.3232 -0.0577 1.5500 -4.2637 0.1562 -1.5231 13.0682 4.1665 -1.7252 0.9157 4.6442 -0.7949 -6.2437 -9.6925 -3.4714 -20.7142 7.3991 -3.0324 8.1742 3.6181 -1.1853 6.0778 0.0000 0.0000 0.0000 -90.1177 16.3262 34.5268 111.8428 -58.1182 -78.7969 -0.0000 0.0000 -13.7812 24.3915 11.8507 5.3200 -7.1250 0.0000 -0.0000 -2.5430 42.9401 0.1294 0.0000 0.0000 0.0000 83.8564 -8.5034 38.6676 -122.5900 55.5793 -87.8049 0.0000 -0.0000 -23.1736 -21.2168 22.3619 -8.4017 7.1250 -0.0000 -0.0000 4.8108 -6.2383 4.2750
