HIERARCHY
ROOT Hips
{
	OFFSET 0.00000 0.00000 0.00000
	CHANNELS 6 Xposition Yposition Zposition Zrotation Yrotation Xrotation 
	JOINT LHipJoint
	{
		OFFSET 0 0 0
		CHANNELS 3 Zrotation Yrotation Xrotation
		JOINT LeftUpLeg
		{
			OFFSET 1.77779 -1.88989 0.48267
			CHANNELS 3 Zrotation Yrotation Xrotation
			JOINT LeftLeg
			{
				OFFSET 2.53442 -6.96327 0.00000
				CHANNELS 3 Zrotation Yrotation Xrotation
				JOINT LeftFoot
				{
					OFFSET 2.71068 -7.44755 0.00000
					CHANNELS 3 Zrotation Yrotation Xrotation
					JOINT LeftToeBase
					{
						OFFSET 0.17992 -0.49431 2.22524
						CHANNELS 3 Zrotation Yrotation Xrotation
						End Site
						{
							OFFSET 0.00000 -0.00000 1.14687
						}
					}
				}
			}
		}
	}
	JOINT RHipJoint
	{
		OFFSET 0 0 0
		CHANNELS 3 Zrotation Yrotation Xrotation
		JOINT RightUpLeg
		{
			OFFSET -1.58469 -1.88989 0.48267
			CHANNELS 3 Zrotation Yrotation Xrotation
			JOINT RightLeg
			{
				OFFSET -2.60386 -7.15404 0.00000
				CHANNELS 3 Zrotation Yrotation Xrotation
				JOINT RightFoot
				{
					OFFSET -2.73334 -7.50979 0.00000
					CHANNELS 3 Zrotation Yrotation Xrotation
					JOINT RightToeBase
					{
						OFFSET -0.25618 -0.70384 2.21822
						CHANNELS 3 Zrotation Yrotation Xrotation
						End Site
						{
							OFFSET -0.00000 -0.00000 1.16381
						}
					}
				}
			}
		}
	}
	JOINT LowerBack
	{
		OFFSET 0 0 0
		CHANNELS 3 Zrotation Yrotation Xrotation
		JOINT Spine
		{
			OFFSET 0.03410 2.01612 -0.22230
			CHANNELS 3 Zrotation Yrotation Xrotation
			JOINT Spine1
			{
				OFFSET 0.03465 2.03012 0.00937
				CHANNELS 3 Zrotation Yrotation Xrotation
				JOINT Neck
				{
					OFFSET 0 0 0
					CHANNELS 3 Zrotation Yrotation Xrotation
					JOINT Neck1
					{
						OFFSET -0.00219 1.70459 0.20857
						CHANNELS 3 Zrotation Yrotation Xrotation
						JOINT Head
						{
							OFFSET 0.02518 1.72339 -0.22179
							CHANNELS 3 Zrotation Yrotation Xrotation
							End Site
							{
								OFFSET 0.00282 1.74122 -0.09823
							}
						}
					}
				}
				JOINT LeftShoulder
				{
					OFFSET 0 0 0
					CHANNELS 3 Zrotation Yrotation Xrotation
					JOINT LeftArm
					{
						OFFSET 3.36358 1.00547 -0.37661
						CHANNELS 3 Zrotation Yrotation Xrotation
						JOINT LeftForeArm
						{
							OFFSET 5.06507 -0.00000 0.00000
							CHANNELS 3 Zrotation Yrotation Xrotation
							JOINT LeftHand
							{
								OFFSET 3.60196 -0.00000 0.00000
								CHANNELS 3 Zrotation Yrotation Xrotation
								JOINT LeftFingerBase
								{
									OFFSET 0 0 0
									CHANNELS 3 Zrotation Yrotation Xrotation
									JOINT LeftHandIndex1
									{
										OFFSET 0.45035 -0.00000 0.00000
										CHANNELS 3 Zrotation Yrotation Xrotation
										End Site
										{
											OFFSET 0.36308 -0.00000 0.00000
										}
									}
								}
								JOINT LThumb
								{
									OFFSET 0 0 0
									CHANNELS 3 Zrotation Yrotation Xrotation
									End Site
									{
										OFFSET 0.36862 -0.00000 0.36862
									}
								}
							}
						}
					}
				}
				JOINT RightShoulder
				{
					OFFSET 0 0 0
					CHANNELS 3 Zrotation Yrotation Xrotation
					JOINT RightArm
					{
						OFFSET -3.50159 0.80383 -0.71526
						CHANNELS 3 Zrotation Yrotation Xrotation
						JOINT RightForeArm
						{
							OFFSET -5.36394 -0.00000 0.00000
							CHANNELS 3 Zrotation Yrotation Xrotation
							JOINT RightHand
							{
								OFFSET -3.58035 -0.00000 0.00000
								CHANNELS 3 Zrotation Yrotation Xrotation
								JOINT RightFingerBase
								{
									OFFSET 0 0 0
									CHANNELS 3 Zrotation Yrotation Xrotation
									JOINT RightHandIndex1
									{
										OFFSET -0.66375 -0.00000 0.00000
										CHANNELS 3 Zrotation Yrotation Xrotation
										End Site
										{
											OFFSET -0.53513 -0.00000 0.00000
										}
									}
								}
								JOINT RThumb
								{
									OFFSET 0 0 0
									CHANNELS 3 Zrotation Yrotation Xrotation
									End Site
									{
										OFFSET -0.54330 -0.00000 0.54330
									}
								}
							}
						}
					}
				}
			}
		}
	}
}
MOTION
Frames: 129
Frame Time: 0.0166667
4.4005 17.8934 -21.0986 0.0000 0.0000 0.0000 0.0000 0.0000 0.0000 -21.0000 0.0000 0.0000 0.0000 0.0000 0.0000 0.0000 0.0000 0.0000 0.0000 0.0000 0.0000 0.0000 0.0000 0.0000 21.0000 0.0000 0.0000 0.0000 0.0000 0.0000 0.0000 0.0000 0.0000 0.0000 0.0000 0.0000 0.0000 0.0000 0.0000 0.0000 0.0000 0.0000 0.0000 0.0000 0.0000 0.0000 0.0000 -16.0000 0.0000 0.0000 21.0000 0.0000 0.0000 11.0000 0.0000 0.0000 0.0000 -8.0000 0.0000 0.0000 0.0000 0.0000 0.0000 0.0000 0.0000 0.0000 0.0000 0.0000 0.0000 0.0000 0.0000 0.0000 0.0000 0.0000 0.0000 0.0000 0.0000 0.0000 8.0000 0.0000 0.0000 0.0000 0.0000 0.0000 0.0000 0.0000 0.0000 0.0000 0.0000 0.0000 0.0000 0.0000 0.0000 0.0000 0.0000 0.0000
4.4448 17.6953 7.2037 -6.5085 -4.9136 -2.2230 0.0000 0.0000 0.0000 -10.4361 -11.5745 -21.9620 1.0980 6.6587 18.7080 0.1100 0.4190 -6.4315 0.0925 -1.9617 -5.3999 0.0000 0.0000 0.0000 32.2459 2.6200 13.7751 -2.7621 -10.2996 29.9526 -0.9160 3.2089 -17.2918 -0.1170 2.2052 -6.0731 6.1765 1.9572 9.9033 1.8000 3.4004 0.2298 -2.0573 1.5468 -5.0703 -1.5614 -3.8666 -16.5631 0.5367 -5.1029 21.2633 -0.2174 -2.4404 9.5050 0.0000 0.0000 0.0000 -87.4090 9.2406 28.8529 13.3109 -21.7410 -2.5673 -0.0000 0.0000 -5.8868 29.3987 17.2480 9.4845 -7.1250 0.0000 -0.0000 1.4664 49.5882 0.1659 0.0000 0.0000 0.0000 85.0858 7.8491 15.2640 -17.3136 27.2693 -4.2300 0.0000 -0.0000 -0.8285 -20.3257 22.0934 -7.9315 7.1250 -0.0000 -0.0000 5.3476 -6.6583 4.7126
4.4984 17.7200 7.6572 -5.7969 -4.3988 -2.4206 0.0000 0.0000 0.0000 -11.5057 -12.4259 -21.3559 1.2700 7.1428 20.1390 0.0203 -1.4062 -2.5659 0.2511 -3.2242 -8.9035 0.0000 0.0000 0.0000 31.1210 2.0159 13.3266 -3.2985 -11.1633 32.8327 -0.6372 3.4785 -14.2982 -0.1422 2.4305 -6.6969 5.6412 1.8360 9.6708 1.6632 3.1623 0.0832 -1.8645 1.4374 -5.1323 -1.8433 -3.7849 -16.6084 0.8631 -5.0038 21.7990 -0.0529 -2.3757 9.7188 0.0000 0.0000 0.0000 -87.6028 9.2762 28.0062 12.8265 -21.0325 -2.3907 -0.0000 0.0000 -4.5202 30.4965 17.2864 9.9268 -7.1250 0.0000 -0.0000 2.5605 49.8208 0.3045 0.0000 0.0000 0.0000 85.1721 7.6834 14.0036 -16.6935 26.4520 -3.9499 0.0000 -0.0000 -0.0184 -20.3964 22.3665 -8.0534 7.1250 -0.0000 -0.0000 5.3262 -6.3637 4.7240
4.5368 17.7311 8.1146 -4.8550 -3.8361 -3.0727 0.0000 0.0000 0.0000 -13.1103 -11.8561 -20.5696 1.4159 7.5254 21.2816 -0.0319 -3.3482 0.0660 0.1038 -2.0778 -5.7206 0.0000 0.0000 0.0000 29.8016 1.4279 12.4185 -4.1150 -12.3118 36.8442 -0.3026 2.9602 -9.7930 -0.1438 2.4438 -6.7338 4.7273 1.6503 9.6905 1.4403 2.8065 0.0152 -1.5429 1.2784 -5.2702 -1.9124 -3.7448 -16.0516 0.9966 -4.9783 21.9888 0.0173 -2.3579 9.6873 0.0000 -0.0000 0.0000 -87.7088 9.7737 27.3114 12.3892 -20.3858 -2.2360 -0.0000 0.0000 -4.8654 30.0623 15.2150 8.6373 -7.1250 0.0000 -0.0000 2.3630 47.4110 0.1407 0.0000 -0.0000 0.0000 85.4393 6.6609 13.3848 -16.4812 26.1687 -3.8557 0.0000 0.0000 0.2508 -20.8639 22.3565 -8.2489 7.1250 -0.0000 -0.0000 5.0318 -6.3004 4.4669
4.5701 17.7342 8.5581 -4.1539 -3.3785 -3.4722 0.0000 0.0000 0.0000 -14.4009 -11.4391 -20.0249 1.6678 8.1369 23.1308 -0.0624 -4.5023 0.7652 0.1511 -2.5051 -6.9039 0.0000 0.0000 0.0000 28.5691 0.9692 10.4137 -5.2105 -13.6170 41.7242 -0.0393 1.6243 -3.5321 -0.0195 0.9020 -2.4793 3.9472 1.6415 9.6680 1.3551 2.7063 -0.1008 -1.1840 1.2442 -5.4158 -2.0130 -3.8833 -16.0349 0.9568 -5.1476 22.4444 -0.0069 -2.4464 9.8502 -0.0000 -0.0000 0.0000 -87.7329 9.7885 26.5535 11.9351 -19.7072 -2.0804 -0.0000 0.0000 -3.4245 29.7253 16.4724 9.1965 -7.1250 0.0000 -0.0000 1.8926 48.7739 0.1762 -0.0000 -0.0000 0.0000 85.7084 5.8601 11.5884 -16.1293 25.6957 -3.7019 0.0000 0.0000 1.0850 -20.9763 22.4343 -8.3239 7.1250 -0.0000 -0.0000 4.9683 -6.2014 4.4195
4.5988 17.7371 8.9832 -3.7709 -3.2090 -3.6023 0.0000 0.0000 0.0000 -15.3405 -10.3606 -19.8492 1.9569 8.7756 25.0959 -0.0772 -6.0094 -1.4834 0.2383 -3.1416 -8.6732 0.0000 0.0000 0.0000 27.6240 0.9084 7.7431 -6.4146 -14.8184 46.6238 -0.0596 -0.0640 4.5866 -0.0040 0.4106 -1.1281 3.5183 1.6724 9.6483 1.2340 2.6987 -0.3037 -1.0727 1.2445 -5.6318 -1.7413 -3.9259 -15.8368 0.8081 -5.2473 22.4463 -0.1122 -2.4887 9.8023 0.0000 0.0000 0.0000 -87.5302 9.6878 25.5205 11.7237 -19.3889 -2.0096 -0.0000 0.0000 -2.0604 27.8334 21.2152 10.8167 -7.1250 0.0000 -0.0000 -0.8801 53.6772 -0.1878 0.0000 0.0000 0.0000 86.2410 4.8255 9.8616 -16.0122 25.5372 -3.6512 0.0000 0.0000 2.0878 -20.7578 22.6088 -8.2902 7.1250 -0.0000 -0.0000 5.1206 -6.0548 4.5707
4.6333 17.7835 9.4045 -3.6832 -3.3057 -3.9615 0.0000 0.0000 0.0000 -16.0056 -8.9768 -19.0739 2.1355 9.1428 26.2431 -0.1507 -7.7000 -0.9045 0.0097 -0.6348 -1.7444 0.0000 0.0000 0.0000 27.1889 1.3277 5.3344 -7.6853 -15.8828 51.4211 -0.3300 -2.2593 10.3034 -0.0974 -2.0123 5.5396 3.5207 1.6735 9.7581 1.2088 2.6978 -0.1201 -1.1006 1.2479 -5.4990 -1.8418 -3.9432 -16.2563 1.0825 -5.3089 22.5222 -0.0186 -2.4895 9.9208 -0.0000 0.0000 0.0000 -87.5083 9.6500 24.1246 11.8994 -19.6536 -2.0683 -0.0000 0.0000 -2.0021 25.4379 23.0031 10.5296 -7.1250 0.0000 -0.0000 -3.9124 55.1161 -0.9729 -0.0000 0.0000 0.0000 86.5698 4.7423 8.4291 -15.5727 24.9379 -3.4638 0.0000 0.0000 2.1736 -19.9606 22.4002 -7.8799 7.1250 -0.0000 -0.0000 5.6026 -6.3963 4.9679
4.6593 17.8141 9.8101 -2.5880 -3.8934 -4.4131 0.0000 0.0000 0.0000 -17.6606 -7.9064 -17.5330 2.1978 9.2664 26.6322 -0.1056 -7.2693 -2.0824 0.0268 -1.0577 -2.9076 0.0000 0.0000 0.0000 25.7917 2.4740 2.9092 -9.1104 -16.8782 56.4712 -0.8535 -5.6168 16.4732 -0.9728 -6.2791 17.5964 2.3147 1.8459 10.0408 0.9780 2.7831 -0.0187 -0.6870 1.3191 -5.5919 -1.7634 -3.8563 -16.1819 1.1255 -5.2090 22.0659 0.0033 -2.4364 9.7420 0.0000 -0.0000 0.0000 -87.5048 9.6938 23.4835 11.9569 -19.7399 -2.0877 -0.0000 0.0000 -3.1373 28.2616 18.9088 9.8823 -7.1250 0.0000 -0.0000 0.0512 51.2313 0.0079 0.0000 -0.0000 0.0000 86.9997 4.0431 7.9030 -15.5786 24.9460 -3.4663 0.0000 0.0000 1.9768 -19.8378 22.0874 -7.7254 7.1250 -0.0000 -0.0000 5.6544 -6.7391 4.9767
4.6841 17.8618 10.1885 -1.5678 -4.2556 -4.7266 0.0000 0.0000 0.0000 -19.2374 -7.0613 -15.9487 2.2246 9.3190 26.7983 -0.0637 -7.6389 -3.8146 0.0184 -0.8749 -2.4047 0.0000 0.0000 0.0000 24.4786 3.5011 -0.0022 -10.6047 -17.7361 61.4910 -1.2520 -8.9116 20.0630 -1.6416 -8.0758 22.9447 1.3284 1.9124 10.6830 0.6777 2.7542 -0.1951 -0.4720 1.3207 -6.1712 -1.8821 -3.7519 -16.0887 1.4006 -5.1008 22.0164 0.1347 -2.3662 9.7171 -0.0000 -0.0000 0.0000 -87.1522 10.2066 23.6132 12.4909 -20.5368 -2.2716 -0.0000 0.0000 -3.8019 27.5041 20.4624 10.3160 -7.1250 0.0000 -0.0000 -1.0477 52.7924 -0.2009 -0.0000 -0.0000 0.0000 87.5984 3.3616 6.9593 -15.2853 24.5420 -3.3435 0.0000 0.0000 2.6066 -20.2169 22.0322 -7.8654 7.1250 -0.0000 -0.0000 5.4112 -6.7386 4.7606
4.6986 17.8638 10.5681 -0.3867 -4.0334 -4.8620 0.0000 0.0000 0.0000 -20.9859 -7.0508 -14.5809 2.2701 9.4074 27.0782 -0.0230 -6.9975 -4.3300 0.0026 0.3299 0.9065 0.0000 0.0000 0.0000 23.0720 4.0488 -3.1489 -12.0417 -18.4082 66.1210 -0.9400 -11.1179 17.8507 -1.4117 -7.5148 21.2497 -0.0024 1.7380 10.4126 0.4491 2.3379 0.1020 0.1156 1.1558 -5.7548 -1.6670 -3.5848 -16.3490 1.0712 -4.8241 21.4400 0.0225 -2.2603 9.5423 -0.0000 -0.0000 0.0000 -87.0089 9.1779 23.3013 12.1356 -20.0077 -2.1485 -0.0000 0.0000 -4.2715 28.3120 20.1653 10.5206 -7.1250 0.0000 -0.0000 -0.1450 52.6227 -0.0272 -0.0000 -0.0000 0.0000 87.8547 3.7346 6.7114 -14.7078 23.7375 -3.1074 0.0000 0.0000 2.9012 -20.7377 22.3599 -8.1963 7.1250 -0.0000 -0.0000 5.1114 -6.3169 4.5365
4.7137 17.8865 10.9555 0.5370 -3.5106 -5.1704 0.0000 0.0000 0.0000 -22.5633 -7.0815 -12.8271 2.3528 9.5652 27.5797 0.0587 -6.8992 -6.1421 0.0095 0.6300 1.7313 0.0000 0.0000 0.0000 21.7938 3.6852 -5.9043 -13.2140 -18.8581 69.7889 -0.3829 -11.1932 12.6385 -1.1217 -6.7278 18.9114 -0.9226 1.4813 10.1359 0.2415 1.8761 0.3522 0.4976 0.9501 -5.3566 -1.7941 -3.4206 -16.5347 1.1864 -4.5855 21.4362 0.1110 -2.1452 9.5784 0.0000 -0.0000 0.0000 -86.6156 8.5879 24.0266 12.0160 -19.8286 -2.1077 -0.0000 0.0000 -6.1941 28.9807 18.6469 10.0425 -7.1250 0.0000 -0.0000 0.8290 51.0721 0.1240 0.0000 -0.0000 0.0000 88.1152 3.9219 5.8939 -14.0314 22.7796 -2.8403 0.0000 0.0000 3.6133 -20.6029 23.0362 -8.3686 7.1250 -0.0000 -0.0000 5.2556 -5.6356 4.7345
4.7131 17.9054 11.2970 0.2260 -3.4152 -5.1641 0.0000 0.0000 0.0000 -22.5337 -7.1013 -11.4920 2.3517 9.5632 27.5733 0.1272 -6.4568 -7.2755 0.0166 0.8309 2.2835 0.0000 0.0000 0.0000 22.2236 4.2231 -9.0174 -14.0742 -19.1364 72.4308 0.0771 -11.1918 6.6387 -0.2526 -3.2340 8.9308 -0.7451 1.2896 10.6072 0.4032 1.6478 0.1536 0.5870 0.8363 -5.8260 -2.0903 -3.3567 -15.9283 1.3478 -4.4579 20.9999 0.2461 -2.0996 9.3229 -0.0000 0.0000 0.0000 -86.1532 8.4805 24.8462 11.9547 -19.7367 -2.0870 -0.0000 0.0000 -8.2071 29.9805 13.9297 7.9065 -7.1250 0.0000 -0.0000 2.4044 45.9444 0.0561 -0.0000 0.0000 0.0000 88.3812 3.6769 5.2027 -13.5525 22.0914 -2.6575 0.0000 0.0000 4.6215 -20.1808 22.3698 -7.9630 7.1250 -0.0000 -0.0000 5.4618 -6.3939 4.8422
4.7212 17.9323 11.6730 0.6352 -2.7883 -5.4402 0.0000 0.0000 0.0000 -23.5210 -7.2547 -9.4982 2.3002 9.4651 27.2615 0.1969 -6.0857 -8.3841 0.0055 0.4805 1.3202 0.0000 0.0000 0.0000 21.5901 4.1721 -11.3243 -14.5528 -19.2732 73.8859 0.2198 -10.4007 2.9137 -0.3533 -3.8190 10.5679 -1.1517 1.0364 10.4310 0.3406 1.2598 0.3293 0.8153 0.6542 -5.5425 -1.9292 -3.3542 -15.8738 0.9145 -4.3984 21.1752 0.0781 -2.1073 9.3579 -0.0000 0.0000 0.0000 -85.8312 7.7852 24.3972 11.8532 -19.5842 -2.0528 -0.0000 0.0000 -7.3990 29.3709 13.3084 7.3817 -7.1250 0.0000 -0.0000 1.8823 45.1575 0.0073 -0.0000 0.0000 0.0000 88.7781 3.6584 3.4942 -13.0884 21.4166 -2.4855 0.0000 0.0000 6.5168 -19.4880 21.5428 -7.4038 7.1250 -0.0000 -0.0000 5.8333 -7.3551 5.0655
4.7171 17.9610 12.0267 0.3591 -2.9064 -5.5851 0.0000 0.0000 0.0000 -23.5156 -7.1221 -7.8160 2.2708 9.4086 27.0822 0.2939 -5.5230 -9.8114 0.0010 -0.2067 -0.5679 0.0000 0.0000 0.0000 21.9422 4.9858 -13.5993 -14.7652 -19.3299 74.5283 0.2199 -10.1751 2.5883 -0.5862 -4.9023 13.6300 -1.0467 0.9241 10.5562 0.5140 1.1316 0.3852 0.9556 0.5903 -5.5525 -1.9591 -3.2013 -15.6881 0.8736 -4.1685 21.0176 0.1030 -2.0093 9.2649 0.0000 0.0000 0.0000 -85.4866 7.0469 23.8010 12.0222 -19.8379 -2.1098 -0.0000 0.0000 -4.5547 29.0199 20.1816 10.8349 -7.1250 0.0000 -0.0000 0.5882 52.7776 0.1126 0.0000 0.0000 0.0000 89.0533 3.0600 3.3947 -13.0189 21.3149 -2.4602 0.0000 0.0000 7.1657 -19.1497 22.7578 -7.6508 7.1250 -0.0000 -0.0000 6.1394 -6.1507 5.4786
4.7093 17.9550 12.3624 0.0973 -2.9709 -5.7165 0.0000 0.0000 0.0000 -23.4863 -6.6796 -6.6740 2.3198 9.5027 27.3808 0.3630 -5.1600 -10.7782 0.0042 -0.4209 -1.1566 0.0000 0.0000 0.0000 22.3092 6.0996 -15.6993 -14.7822 -19.3343 74.5797 0.2331 -9.4485 0.8915 -0.6748 -5.2528 14.6311 -0.9400 0.7864 10.8893 0.6368 0.9658 0.3679 1.0456 0.5084 -5.7538 -1.7782 -3.1656 -15.6145 0.5972 -4.1045 21.1451 -0.0133 -1.9962 9.2839 0.0000 0.0000 0.0000 -84.9875 6.5667 23.6543 12.3534 -20.3325 -2.2235 -0.0000 0.0000 -3.7222 28.8388 22.4698 11.8845 -7.1250 0.0000 -0.0000 -0.1140 55.2541 -0.0287 0.0000 0.0000 0.0000 89.4245 2.5610 3.1532 -13.0576 21.3715 -2.4742 0.0000 0.0000 8.0263 -19.0881 23.7745 -7.9418 7.1250 -0.0000 -0.0000 6.2606 -5.1139 5.7126
4.7116 17.9487 12.7178 0.2785 -3.2001 -5.7038 0.0000 0.0000 0.0000 -23.9780 -6.3875 -5.5974 2.4042 9.6617 27.8880 0.4802 -4.5591 -12.3287 0.0000 -0.0317 -0.0871 0.0000 0.0000 0.0000 22.0223 7.2009 -17.7795 -14.5754 -19.2794 73.9544 0.1830 -7.5989 -1.9793 -0.4903 -4.4899 12.4591 -1.1709 0.7424 10.7707 0.6746 0.8820 0.3439 1.2296 0.4739 -5.7145 -1.8255 -3.0510 -15.8123 0.5522 -3.9242 21.4972 -0.0046 -1.9189 9.4413 0.0000 0.0000 0.0000 -84.5207 5.8509 23.4671 12.5441 -20.6155 -2.2902 -0.0000 0.0000 -3.2862 28.2227 23.2372 11.9558 -7.1250 0.0000 -0.0000 -0.9871 55.9570 -0.2654 0.0000 0.0000 0.0000 89.5984 1.7849 3.3966 -12.9171 21.1656 -2.4233 0.0000 0.0000 6.9034 -18.9509 22.2307 -7.4018 7.1250 -0.0000 -0.0000 6.2237 -6.7237 5.4854
4.7101 17.9244 13.0537 0.3503 -3.1265 -5.6802 0.0000 0.0000 0.0000 -24.3236 -6.1911 -4.3862 2.4281 9.7060 28.0300 0.5633 -4.2829 -13.3678 0.0122 0.7125 1.9581 0.0000 0.0000 0.0000 21.7912 8.0917 -19.7775 -14.1686 -19.1644 72.7186 0.0823 -5.7984 -5.0931 -0.3286 -3.6845 10.1906 -1.3255 0.5740 10.7511 0.7365 0.6428 0.5001 1.4194 0.3589 -5.5342 -1.6870 -2.9784 -15.8568 0.3528 -3.8047 21.1107 -0.0779 -1.8755 9.3057 0.0000 0.0000 0.0000 -83.9538 5.0882 24.2279 12.9951 -21.2800 -2.4515 -0.0000 0.0000 -2.4235 27.6277 22.5235 11.3373 -7.1250 0.0000 -0.0000 -1.4332 55.0567 -0.3540 0.0000 0.0000 0.0000 89.7610 1.5823 3.7125 -12.9713 21.2452 -2.4429 0.0000 0.0000 6.7913 -19.0289 21.8574 -7.3169 7.1250 -0.0000 -0.0000 6.1469 -7.0971 5.3722
4.7148 17.8964 13.4075 0.9458 -3.0736 -5.5979 0.0000 0.0000 0.0000 -25.2797 -5.7322 -3.1706 2.4331 9.7152 28.0595 0.6583 -4.2596 -14.4762 0.0289 1.0973 3.0165 0.0000 0.0000 0.0000 20.8409 8.8056 -21.7764 -13.5635 -18.9763 70.8668 -0.0242 -4.7175 -7.5264 -0.1842 -2.7640 7.6223 -1.8138 0.5066 10.7243 0.6023 0.4855 0.3214 1.5785 0.2954 -5.7048 -1.7061 -2.8488 -15.3999 0.2877 -3.6109 20.9441 -0.0638 -1.7967 9.1605 0.0000 0.0000 0.0000 -83.3224 5.2425 27.0698 13.2042 -21.5857 -2.5279 -0.0000 0.0000 -7.5882 31.8788 12.3485 7.5761 -7.1250 0.0000 -0.0000 4.2939 44.3938 -0.0644 0.0000 0.0000 0.0000 89.8350 0.7637 4.0089 -12.9293 21.1836 -2.4277 0.0000 0.0000 6.3895 -19.4252 23.9769 -8.1553 7.1250 -0.0000 -0.0000 6.0696 -4.8524 5.5664
4.6966 17.8545 13.7535 1.0307 -3.0561 -5.6196 0.0000 0.0000 0.0000 -25.5284 -5.1502 -2.0735 2.4243 9.6989 28.0072 0.7567 -4.2119 -15.5525 0.0127 0.7264 1.9962 0.0000 0.0000 0.0000 20.6482 9.4963 -23.4056 -12.7727 -18.6986 68.4181 -0.1126 -4.6606 -9.7208 -0.1033 -2.0724 5.7059 -2.0883 0.3803 10.7417 0.7071 0.2906 0.5353 1.8734 0.2036 -5.4834 -2.0080 -2.8608 -15.7839 0.3437 -3.5515 20.6939 0.0088 -1.7852 9.1516 0.0000 0.0000 0.0000 -82.8099 4.0677 26.2332 13.7986 -22.4460 -2.7507 -0.0000 0.0000 -4.2175 27.4689 25.8805 12.7853 -7.1250 0.0000 -0.0000 -2.6839 58.6295 -0.8948 0.0000 0.0000 0.0000 89.8348 0.6772 4.4295 -12.9139 21.1609 -2.4221 0.0000 0.0000 6.1813 -19.0035 24.8506 -8.2354 7.1250 -0.0000 -0.0000 6.4059 -4.0225 5.9789
4.6909 17.8230 14.0938 1.3330 -2.6565 -5.4528 0.0000 0.0000 0.0000 -26.0840 -5.1137 -0.9834 2.3919 9.6387 27.8145 0.8006 -4.2490 -16.0073 0.0567 1.5364 4.2260 0.0000 0.0000 0.0000 19.9926 9.6967 -25.2610 -11.8169 -18.3122 65.4073 -0.2294 -4.6711 -11.9846 -0.0064 0.5176 -1.4222 -2.4787 0.1381 10.7432 0.7063 -0.0788 0.5828 2.1495 0.0301 -5.4161 -1.8218 -2.6688 -15.9089 0.0859 -3.2649 20.2470 -0.0721 -1.6647 9.0084 0.0000 0.0000 0.0000 -82.2674 3.5035 26.9864 14.5278 -23.4841 -3.0353 -0.0000 0.0000 -5.6903 27.6883 26.4675 13.1635 -7.1250 0.0000 -0.0000 -2.6568 59.3073 -0.9289 0.0000 0.0000 0.0000 89.9091 0.3373 4.8443 -13.0995 21.4328 -2.4895 0.0000 0.0000 5.9992 -19.0610 23.4408 -7.8262 7.1250 -0.0000 -0.0000 6.2497 -5.4613 5.6611
4.6816 17.7956 14.4356 1.7417 -2.3393 -5.2604 0.0000 0.0000 0.0000 -26.6933 -4.5530 0.5142 2.2857 9.4375 27.1736 0.9319 -4.3524 -17.3019 0.0413 1.3119 3.6073 0.0000 0.0000 0.0000 19.2242 10.0785 -26.6860 -10.6555 -17.7623 61.6577 -0.2307 -5.5034 -12.7531 -0.1016 2.0554 -5.6587 -2.8982 -0.0310 11.0578 0.6322 -0.3687 0.5385 2.3561 -0.0992 -5.6210 -2.2252 -2.6733 -16.5430 0.4597 -3.2372 20.3285 0.1159 -1.6389 9.1669 0.0000 0.0000 0.0000 -81.6667 2.8664 27.7670 14.9624 -24.0938 -3.2106 -0.0000 0.0000 -6.2040 28.6416 23.3675 12.2227 -7.1250 0.0000 -0.0000 -0.5649 56.1902 -0.1550 0.0000 0.0000 0.0000 90.0666 -0.0991 5.0890 -13.3531 21.8024 -2.5830 0.0000 0.0000 5.7104 -19.4460 22.7143 -7.7632 7.1250 -0.0000 -0.0000 5.9507 -6.1506 5.3082
4.6701 17.7884 14.7833 1.8963 -2.2728 -5.1188 0.0000 0.0000 0.0000 -27.0187 -4.0606 2.0200 2.1584 9.1885 26.3869 1.0063 -4.2891 -18.0098 0.0418 1.3202 3.6302 0.0000 0.0000 0.0000 18.8330 10.2963 -27.5939 -9.3524 -17.0292 57.3011 -0.1536 -6.9803 -12.9750 -0.0001 0.0638 -0.1754 -3.0465 -0.0958 11.1335 0.6104 -0.4777 0.4962 2.4353 -0.1473 -5.7005 -2.2277 -2.5247 -16.3916 0.5462 -3.0485 19.8509 0.1750 -1.5417 8.9731 -0.0000 -0.0000 0.0000 -81.0799 2.4615 29.3074 16.3020 -25.9284 -3.7770 -0.0000 0.0000 -7.4169 29.9034 33.1237 17.4461 -7.1250 0.0000 -0.0000 -3.2882 66.9209 -1.7369 -0.0000 -0.0000 0.0000 90.2639 -1.0049 5.5994 -13.8331 22.4955 -2.7639 0.0000 0.0000 4.7714 -19.0974 21.4096 -7.2032 7.1250 -0.0000 -0.0000 6.0711 -7.5494 5.2512
4.6546 17.7597 15.1182 1.8949 -2.1159 -4.8050 0.0000 0.0000 0.0000 -27.0306 -3.4791 3.3678 1.9865 8.8379 25.2894 1.0796 -4.5521 -18.6489 0.0471 1.4002 3.8506 0.0000 0.0000 0.0000 18.5461 10.9285 -28.3732 -7.9915 -16.1130 52.5320 -0.0599 -8.2667 -12.9048 -0.0007 0.1703 -0.4680 -3.1769 -0.2547 11.2057 0.7284 -0.7024 0.3681 2.6709 -0.2479 -5.8589 -2.4154 -2.5219 -16.1308 0.5840 -3.0068 19.4119 0.2298 -1.5330 8.7786 0.0000 0.0000 0.0000 -80.6276 1.8269 29.0383 16.1565 -25.7324 -3.7136 -0.0000 0.0000 -7.0261 28.2381 25.4317 12.9870 -7.1250 0.0000 -0.0000 -1.6513 58.3300 -0.5385 0.0000 0.0000 0.0000 90.2344 -1.5475 5.5925 -13.8931 22.5816 -2.7869 0.0000 0.0000 4.6384 -19.9565 22.5093 -7.9140 7.1250 -0.0000 -0.0000 5.6142 -6.2841 4.9905
4.6339 17.7505 15.4699 2.1854 -2.1191 -4.5560 0.0000 0.0000 0.0000 -27.2767 -2.4965 4.8236 1.7723 8.3748 23.8583 1.0964 -4.6564 -18.7890 0.0270 1.0601 2.9142 0.0000 0.0000 0.0000 17.9362 11.6109 -28.7806 -6.5514 -14.9422 47.1567 0.1507 -9.8777 -11.1718 -0.0064 0.5165 -1.4192 -3.5174 -0.2548 11.0024 0.7031 -0.7377 0.5441 2.8373 -0.2653 -5.5530 -2.1979 -2.5411 -16.3796 0.1822 -2.9885 18.8589 0.0610 -1.5495 8.6245 -0.0000 -0.0000 0.0000 -80.2427 0.9323 28.9307 16.5784 -26.2986 -3.8987 -0.0000 0.0000 -6.6429 29.0329 18.6485 10.0645 -7.1250 0.0000 -0.0000 0.8820 51.0834 0.1322 -0.0000 -0.0000 0.0000 90.4238 -1.5829 5.3846 -14.1732 22.9817 -2.8954 0.0000 0.0000 4.4482 -19.1275 21.9933 -7.4003 7.1250 -0.0000 -0.0000 6.0948 -6.9424 5.3445
4.6228 17.7473 15.8224 2.1765 -2.2443 -4.0088 0.0000 0.0000 0.0000 -27.3163 -1.9692 6.2694 1.4958 7.7256 21.8838 1.0359 -4.5057 -18.2594 0.0702 1.7092 4.7026 0.0000 0.0000 0.0000 17.5496 12.3406 -29.0416 -5.0921 -13.4868 41.2190 0.3381 -11.1641 -8.8561 -0.0024 -0.3196 0.8782 -3.4770 -0.3578 10.7633 0.7639 -0.8567 0.5869 2.8919 -0.3289 -5.3646 -2.1708 -2.4270 -17.2825 0.1858 -2.8153 19.0152 0.0669 -1.4628 8.8378 -0.0000 0.0000 0.0000 -79.7414 -0.2445 29.3001 16.8213 -26.6217 -4.0070 -0.0000 0.0000 -6.9528 28.1295 21.3854 11.0309 -7.1250 0.0000 -0.0000 -0.6085 53.9225 -0.1335 -0.0000 0.0000 0.0000 90.4294 -1.9167 6.5770 -14.6729 23.6885 -3.0933 0.0000 0.0000 2.8749 -19.0238 19.3902 -6.5303 7.1250 -0.0000 -0.0000 5.9859 -9.6485 4.9257
4.6004 17.7385 16.1772 1.9934 -2.3998 -3.5344 0.0000 0.0000 0.0000 -27.0491 -1.1689 7.8128 1.2853 7.1840 20.2618 1.0719 -4.4823 -18.5873 0.0209 0.9343 2.5681 0.0000 0.0000 0.0000 17.3510 13.2586 -28.7762 -3.6829 -11.7260 34.7693 0.4859 -12.3671 -6.4643 -0.0342 -1.1939 3.2825 -3.2652 -0.3492 10.5230 0.8239 -0.8099 0.4469 2.8257 -0.3080 -5.3826 -2.0652 -2.4153 -17.0753 0.0868 -2.8081 18.5531 0.0227 -1.4623 8.6394 0.0000 -0.0000 0.0000 -79.3216 -1.0891 29.7210 16.8506 -26.6604 -4.0201 -0.0000 0.0000 -7.6595 28.1513 21.0000 10.8554 -7.1250 0.0000 -0.0000 -0.4955 53.5057 -0.1036 0.0000 -0.0000 0.0000 90.5705 -2.3376 6.2207 -14.6574 23.6667 -3.0871 0.0000 0.0000 2.9331 -19.3312 19.2386 -6.5937 7.1250 -0.0000 -0.0000 5.7776 -9.7654 4.7387
4.5742 17.7186 16.5292 1.8675 -2.4450 -2.9145 0.0000 0.0000 0.0000 -26.7020 -0.0749 9.2552 1.0776 6.5983 18.5307 1.1144 -4.7133 -18.9425 0.0001 0.0730 0.2006 0.0000 0.0000 0.0000 16.9644 14.4975 -28.3487 -2.5159 -9.8668 28.5464 0.5593 -13.1132 -4.9178 -0.0157 -0.8092 2.2239 -3.2735 -0.4457 10.2712 0.9658 -0.9250 0.2758 2.9938 -0.3598 -5.4106 -2.2125 -2.4624 -16.4001 0.0997 -2.8496 17.5219 0.0617 -1.4904 8.1739 -0.0000 0.0000 0.0000 -79.2112 -1.4800 29.2655 17.3914 -27.3709 -4.2657 -0.0000 0.0000 -7.5949 29.1786 23.9449 12.7691 -7.1250 0.0000 -0.0000 -0.1314 56.9384 -0.0385 -0.0000 0.0000 0.0000 90.5831 -2.3900 5.5845 -14.3300 23.2045 -2.9569 0.0000 0.0000 3.6148 -19.3799 19.9557 -6.8458 7.1250 -0.0000 -0.0000 5.7914 -9.0147 4.8379
4.5557 17.6962 16.9026 2.7864 -1.9485 -2.7452 0.0000 0.0000 0.0000 -27.5060 0.9660 11.3656 0.8333 5.8234 16.2728 1.0512 -5.3526 -18.3325 0.0014 0.2407 0.6612 0.0000 0.0000 0.0000 15.2686 15.0578 -27.5242 -1.6681 -8.1376 23.1328 0.5000 -12.6377 -7.2208 -0.0210 -0.9349 2.5696 -4.1144 -0.6254 10.2069 0.7294 -1.2714 0.3908 3.2674 -0.5187 -5.2154 -2.0699 -2.3739 -17.0479 -0.0375 -2.7189 17.6002 -0.0003 -1.4315 8.3092 -0.0000 -0.0000 0.0000 -79.0596 -2.5736 28.8139 17.3704 -27.3435 -4.2561 -0.0000 0.0000 -7.5897 30.0960 23.8042 13.1664 -7.1250 0.0000 -0.0000 0.9329 56.9934 0.2742 -0.0000 -0.0000 0.0000 90.6356 -2.1098 4.7078 -14.1362 22.9291 -2.8810 0.0000 0.0000 4.8902 -18.4770 19.9685 -6.5100 7.1250 -0.0000 -0.0000 6.3735 -9.1226 5.3163
4.5178 17.6680 17.2837 2.7889 -1.6457 -2.4150 0.0000 0.0000 0.0000 -27.2683 1.6102 13.1275 0.6729 5.2455 14.6102 0.9890 -5.5166 -17.7603 0.0009 0.1899 0.5218 0.0000 0.0000 0.0000 14.2491 16.9336 -26.3492 -1.0343 -6.4687 18.1506 0.2982 -11.8626 -11.7545 -0.0245 -1.0096 2.7752 -4.1852 -0.7499 10.0713 0.7861 -1.4388 0.2560 3.3894 -0.5952 -5.2637 -2.3076 -2.3160 -17.4475 0.3193 -2.6426 17.9598 0.1609 -1.3738 8.5095 0.0000 -0.0000 0.0000 -79.0105 -2.9231 28.5749 17.6070 -27.6511 -4.3653 -0.0000 0.0000 -7.7454 29.6465 24.3637 13.2133 -7.1250 0.0000 -0.0000 0.2758 57.5021 0.0844 0.0000 -0.0000 0.0000 90.6746 -2.4518 4.3663 -13.8748 22.5555 -2.7799 0.0000 0.0000 4.6719 -19.2800 21.2002 -7.2095 7.1250 -0.0000 -0.0000 5.9403 -7.7396 5.1145
4.4794 17.6379 17.6403 2.7025 -1.2314 -1.9489 0.0000 0.0000 0.0000 -26.8827 1.8876 14.0278 0.6439 5.1336 14.2900 0.9730 -5.8076 -17.6034 0.0097 -0.6362 -1.7482 0.0000 0.0000 0.0000 13.2877 18.7689 -25.1685 -0.6098 -4.9983 13.9037 0.2095 -11.7228 -13.3331 -0.0003 -0.1055 0.2899 -4.2258 -0.9298 9.9538 0.9007 -1.6725 0.1942 3.5630 -0.7077 -5.2375 -2.2995 -2.3737 -17.6932 0.1905 -2.6888 17.8346 0.1083 -1.4076 8.5094 -0.0000 -0.0000 0.0000 -78.9501 -3.4383 28.3519 17.9314 -28.0693 -4.5169 -0.0000 0.0000 -7.9429 29.6609 23.7961 12.9407 -7.1250 0.0000 -0.0000 0.4477 56.8854 0.1304 -0.0000 -0.0000 0.0000 90.6857 -2.6695 4.2464 -13.7755 22.4129 -2.7419 0.0000 0.0000 4.2141 -19.4085 22.9190 -7.8125 7.1250 -0.0000 -0.0000 5.9907 -5.9452 5.3681
4.4388 17.5983 18.0251 2.7991 -1.0451 -1.9139 0.0000 0.0000 0.0000 -26.7648 2.1276 15.0717 0.6448 5.1371 14.2999 0.9004 -6.6390 -16.9306 0.0136 -0.7535 -2.0707 0.0000 0.0000 0.0000 13.0762 18.7628 -24.7103 -0.4933 -4.5033 12.4970 0.0615 -10.7044 -14.2653 -0.0131 0.7385 -2.0295 -4.4228 -0.9588 10.0644 0.9370 -1.7365 0.1991 3.7247 -0.7327 -5.2821 -2.3116 -2.3506 -17.6040 0.1710 -2.6499 17.4253 0.1122 -1.3911 8.3545 0.0000 -0.0000 0.0000 -78.9868 -4.2052 28.2940 17.6913 -27.7601 -4.4045 -0.0000 0.0000 -7.9953 29.4685 24.4070 13.1423 -7.1250 0.0000 -0.0000 0.0624 57.5081 0.0191 0.0000 -0.0000 0.0000 90.7190 -3.0527 4.1973 -13.8729 22.5527 -2.7792 0.0000 0.0000 4.2654 -19.7432 21.2754 -7.4198 7.1250 -0.0000 -0.0000 5.6515 -7.5947 4.8794
4.4063 17.5683 18.4130 2.4598 -0.7897 -2.1193 0.0000 0.0000 0.0000 -26.2865 2.0091 16.7206 0.6628 5.2067 14.4990 0.8272 -7.1824 -16.2627 0.1254 -2.2829 -6.2883 0.0000 0.0000 0.0000 14.0646 17.1434 -25.4466 -0.6577 -5.1872 14.4432 -0.0583 -8.5127 -13.1963 -0.0188 0.8860 -2.4352 -4.0851 -1.1468 10.5592 1.1378 -1.9578 0.1181 3.7954 -0.8366 -5.6282 -2.5148 -2.3334 -16.7626 0.1110 -2.5833 16.6434 0.1477 -1.3787 7.9458 0.0000 0.0000 0.0000 -79.3307 -4.0573 27.6997 17.9018 -28.0312 -4.5030 -0.0000 0.0000 -7.8918 29.6551 24.5098 13.2894 -7.1250 0.0000 -0.0000 0.2439 57.6634 0.0756 0.0000 0.0000 0.0000 90.5582 -3.1650 3.4425 -13.4447 21.9353 -2.6171 0.0000 0.0000 5.1050 -19.8561 21.2838 -7.4680 7.1250 -0.0000 -0.0000 5.5804 -7.5695 4.8202
4.3586 17.5324 18.8107 2.8812 -0.9522 -2.0558 0.0000 0.0000 0.0000 -26.7252 1.8519 17.2301 0.8108 5.7463 16.0500 0.7689 -7.7803 -15.7523 0.2105 -2.9541 -8.1510 0.0000 0.0000 0.0000 14.3193 16.0435 -26.3409 -0.9229 -6.1203 17.1339 -0.0816 -6.3509 -10.9296 -0.0032 0.3662 -1.0063 -4.6161 -1.0226 10.5121 1.0320 -1.8576 0.3052 3.9639 -0.7846 -5.4011 -2.3025 -2.2445 -17.6834 0.0057 -2.4678 16.8525 0.0803 -1.3195 8.1711 -0.0000 -0.0000 0.0000 -79.3934 -4.7478 27.5676 17.7863 -27.8827 -4.4489 -0.0000 0.0000 -7.8159 29.0331 24.5836 13.0028 -7.1250 0.0000 -0.0000 -0.4801 57.5995 -0.1481 -0.0000 -0.0000 0.0000 90.6170 -2.8648 3.1646 -13.2894 21.7098 -2.5594 0.0000 0.0000 5.2230 -19.5463 21.1802 -7.3096 7.1250 -0.0000 -0.0000 5.7695 -7.7220 4.9679
4.3120 17.5061 19.2208 2.0125 -0.8710 -2.0735 0.0000 0.0000 0.0000 -25.7607 1.2718 17.9277 0.9728 6.2791 17.5963 0.6352 -8.4277 -14.5066 0.0206 -0.9271 -2.5481 0.0000 0.0000 0.0000 15.8343 15.6228 -26.5525 -1.2750 -7.1564 20.1796 -0.1181 -5.6099 -10.8301 -0.0017 0.2644 -0.7263 -3.8251 -1.1402 10.5125 1.3331 -1.9020 0.2751 3.8407 -0.8214 -5.4429 -2.3213 -2.2045 -17.2882 -0.0489 -2.4079 16.5092 0.0788 -1.2974 7.9859 0.0000 0.0000 0.0000 -79.7202 -4.5244 27.3091 17.8364 -27.9472 -4.4723 -0.0000 0.0000 -8.1518 29.5605 22.5094 12.2506 -7.1250 0.0000 -0.0000 0.6608 55.4525 0.1695 0.0000 0.0000 0.0000 90.6080 -3.0627 1.9772 -13.0428 21.3498 -2.4688 0.0000 0.0000 6.7311 -19.4310 21.3268 -7.3108 7.1250 -0.0000 -0.0000 5.8536 -7.5869 5.0566
4.2565 17.5347 19.6670 1.8715 -0.5857 -2.0715 0.0000 0.0000 0.0000 -25.4820 1.0910 18.4740 1.1781 6.8888 19.3864 0.4857 -8.2289 -12.8490 0.4342 -4.2286 -11.7207 0.0000 0.0000 0.0000 16.2612 15.4495 -26.8279 -1.5830 -7.9374 22.5242 0.0609 -6.3385 -7.1958 -0.1568 2.5511 -7.0315 -3.7497 -1.2359 10.2112 1.3706 -2.0065 0.3626 3.8390 -0.8834 -5.1730 -2.2996 -2.1245 -17.6198 0.0999 -2.3244 16.5817 0.1310 -1.2407 8.0685 -0.0000 -0.0000 0.0000 -79.9007 -4.4988 27.3877 17.8945 -28.0219 -4.4996 -0.0000 0.0000 -8.4037 28.9748 23.8825 12.6360 -7.1250 0.0000 -0.0000 -0.3406 56.8244 -0.0987 -0.0000 -0.0000 0.0000 90.7008 -2.6183 0.5941 -12.4550 20.4834 -2.2590 0.0000 0.0000 7.8218 -19.6725 21.8294 -7.5724 7.1250 -0.0000 -0.0000 5.7384 -7.0312 5.0187
4.2025 17.5754 20.0810 0.6384 -0.4443 -1.9641 0.0000 0.0000 0.0000 -24.0907 0.5252 18.3301 1.5003 7.7367 21.9171 0.2421 -8.7136 -9.9693 0.6145 -5.0169 -13.9568 0.0000 0.0000 0.0000 17.6415 15.8683 -26.9369 -1.8316 -8.5061 24.2622 0.1313 -6.8926 -5.2171 -0.0641 1.6331 -4.4927 -2.6028 -1.3915 10.6474 1.8213 -2.0642 0.0281 3.6989 -0.9156 -5.7881 -2.3054 -2.1640 -17.7300 -0.2651 -2.3001 16.8925 0.0099 -1.2688 8.1878 -0.0000 0.0000 0.0000 -80.4605 -3.8040 26.9568 17.9541 -28.0984 -4.5276 -0.0000 0.0000 -8.1488 29.9996 24.9687 13.6965 -7.1250 0.0000 -0.0000 0.5038 58.2449 0.1632 -0.0000 0.0000 0.0000 90.6145 -2.8484 0.0034 -12.3366 20.3075 -2.2177 0.0000 0.0000 8.8317 -19.4931 20.2058 -6.9706 7.1250 -0.0000 -0.0000 5.7351 -8.7397 4.8220
4.1732 17.5775 20.5526 0.3001 -0.3772 -2.2991 0.0000 0.0000 0.0000 -23.8110 0.4650 18.3773 2.0984 9.0681 26.0086 0.0811 -8.9065 -7.6622 1.3413 -7.3328 -20.7051 0.0000 0.0000 0.0000 18.4390 14.7742 -26.1534 -2.0184 -8.9043 25.4963 0.0534 -4.5125 -3.6635 -0.0764 1.7831 -4.9066 -2.0938 -1.5232 10.4170 1.9579 -2.1655 0.0880 3.5587 -0.9829 -5.6002 -2.1812 -2.0967 -17.9136 -0.6989 -2.1453 17.3065 -0.1416 -1.2353 8.3519 -0.0000 0.0000 0.0000 -81.1887 -3.1703 26.3819 17.7993 -27.8995 -4.4549 -0.0000 0.0000 -7.8121 30.3289 21.3233 12.0097 -7.1250 0.0000 -0.0000 1.7498 54.3059 0.4002 -0.0000 0.0000 0.0000 90.4074 -2.9056 -1.1554 -11.7725 19.4626 -2.0259 0.0000 0.0000 9.4352 -20.0332 22.2514 -7.8613 7.1250 -0.0000 -0.0000 5.5447 -6.5394 4.9007
4.1345 17.6376 20.9840 -0.3671 -1.0539 -2.4088 0.0000 0.0000 0.0000 -23.0474 0.4823 15.9216 2.8228 10.4024 30.2901 -0.2294 -9.5918 -1.3180 0.1388 -2.4014 -6.6163 0.0000 0.0000 0.0000 19.8400 14.3124 -25.6406 -2.2913 -9.4481 27.2074 0.0346 -3.4327 -2.2620 -0.0094 -0.6255 1.7188 -1.4265 -1.4177 10.5680 2.1670 -1.9324 0.0275 3.3750 -0.8796 -5.7810 -2.2150 -1.9875 -17.5739 -0.8026 -1.9769 16.9737 -0.1442 -1.1667 8.1784 0.0000 -0.0000 0.0000 -81.7788 -2.7286 25.5686 17.5041 -27.5175 -4.3177 -0.0000 0.0000 -7.1690 29.7907 24.3612 13.2867 -7.1250 0.0000 -0.0000 0.4393 57.5327 0.1348 0.0000 -0.0000 0.0000 90.3420 -2.9822 -1.2501 -11.6533 19.2827 -1.9863 0.0000 0.0000 9.3182 -20.2461 21.4645 -7.6867 7.1250 -0.0000 -0.0000 5.3469 -7.3239 4.6425
4.0814 17.6649 21.4291 -0.6409 -1.2990 -2.5211 0.0000 0.0000 0.0000 -22.1961 1.0253 14.0990 3.7035 11.7551 34.8709 -0.3516 -10.4552 3.2876 0.6993 -5.3453 -14.8962 0.0000 0.0000 0.0000 20.8012 13.7495 -25.0276 -2.5274 -9.8875 28.6132 0.0035 -2.1981 -2.8578 -0.0032 -0.3666 1.0072 -1.3070 -1.3343 10.3745 2.3035 -1.7978 -0.0457 3.4259 -0.8146 -5.7576 -2.5154 -1.9682 -17.4792 -0.4623 -1.9426 17.1957 0.0224 -1.1365 8.2431 -0.0000 0.0000 0.0000 -82.4882 -1.6351 24.9946 17.6598 -27.7193 -4.3898 -0.0000 0.0000 -6.8142 30.1686 23.6879 13.1448 -7.1250 0.0000 -0.0000 1.0442 56.8823 0.3041 -0.0000 0.0000 0.0000 90.3418 -2.5657 -3.9825 -11.0224 18.3226 -1.7830 0.0000 0.0000 11.8586 -20.1433 22.3995 -7.9570 7.1250 -0.0000 -0.0000 5.4878 -6.3689 4.8681
4.0275 17.7283 21.8351 -1.5965 -1.3323 -2.6862 0.0000 0.0000 0.0000 -20.6647 0.6647 11.4577 4.7316 13.0750 39.6500 -0.3431 -11.9915 10.9418 1.0409 -6.4887 -18.2090 0.0000 0.0000 0.0000 22.4242 13.4858 -23.8258 -2.6549 -10.1143 29.3476 -0.0079 -1.7298 -3.1179 -0.0656 -1.6530 4.5475 -0.4459 -1.3394 10.5758 2.5375 -1.6848 -0.0243 3.1753 -0.7787 -5.8738 -2.2519 -1.9925 -17.7491 -0.6928 -1.9885 17.5583 -0.1087 -1.1672 8.4080 -0.0000 0.0000 0.0000 -82.8177 -1.0373 25.1783 17.6087 -27.6533 -4.3661 -0.0000 0.0000 -7.5236 27.9583 24.9731 12.6308 -7.1250 0.0000 -0.0000 -1.8118 57.7722 -0.5666 -0.0000 0.0000 0.0000 90.4264 -2.8443 -3.0378 -11.2984 18.7443 -1.8707 0.0000 0.0000 10.2402 -20.6636 21.2664 -7.7892 7.1250 -0.0000 -0.0000 5.0663 -7.4671 4.3825
3.9761 17.8085 22.2620 -2.3019 -1.1834 -2.9280 0.0000 0.0000 0.0000 -19.5670 -0.1798 8.8953 5.9059 14.3366 44.6030 0.2626 -10.7346 18.7271 0.1467 -2.4686 -6.8026 0.0000 0.0000 0.0000 23.8042 12.9033 -22.0715 -2.6779 -10.1545 29.4784 -0.0145 -1.7519 -3.5790 -0.2281 -3.0742 8.4853 0.1537 -1.3187 10.8500 2.7020 -1.5679 -0.0406 3.0021 -0.7338 -6.0639 -2.1323 -2.0008 -18.1779 -0.6546 -2.0261 17.9735 -0.1273 -1.1750 8.6239 -0.0000 0.0000 0.0000 -83.2645 0.0097 25.3928 17.9499 -28.0930 -4.5256 -0.0000 0.0000 -7.5208 27.4987 23.6022 11.7728 -7.1250 0.0000 -0.0000 -1.8835 56.1941 -0.5172 -0.0000 0.0000 0.0000 90.4974 -2.8545 -2.5068 -11.3792 18.8671 -1.8967 0.0000 0.0000 9.2748 -22.2107 19.5344 -7.7744 7.1250 -0.0000 -0.0000 3.9348 -9.0514 3.2747
3.9238 17.8560 22.6544 -2.8213 -1.3936 -3.0350 0.0000 0.0000 0.0000 -18.6215 -0.8902 5.9220 7.2073 15.5040 49.6542 1.1870 -4.0096 22.3842 1.3214 7.2803 20.5486 0.0000 0.0000 0.0000 24.9646 13.0079 -20.3449 -2.6701 -10.1409 29.4341 -0.0194 -1.9601 -4.0705 -0.3134 -3.5987 9.9504 0.5508 -1.1130 10.9721 2.7890 -1.2352 -0.0471 2.8209 -0.5799 -6.1627 -2.0657 -2.1860 -17.9009 -0.7477 -2.2878 17.8951 -0.1990 -1.3033 8.5478 0.0000 0.0000 0.0000 -83.4170 0.5004 26.1932 17.8835 -28.0077 -4.4944 -0.0000 0.0000 -7.7163 28.0976 23.1784 11.8674 -7.1250 0.0000 -0.0000 -1.1071 55.8661 -0.2952 0.0000 0.0000 0.0000 90.5250 -2.7911 -1.9272 -11.4287 18.9424 -1.9128 0.0000 0.0000 8.5822 -20.7562 20.8479 -7.6816 7.1250 -0.0000 -0.0000 4.9739 -7.8897 4.2606
3.8870 17.9126 23.0474 -4.0690 -1.6725 -3.1469 0.0000 0.0000 0.0000 -16.8741 -1.4439 3.0564 8.5086 16.4809 54.3748 1.0711 -10.8029 26.2168 0.0583 1.5574 4.2841 0.0000 0.0000 0.0000 26.9003 12.8532 -18.4945 -2.6583 -10.1203 29.3670 -0.0420 -1.8162 -4.9844 -0.3848 -3.9836 11.0305 1.7606 -1.0201 11.0146 3.0855 -0.9401 0.0657 2.4017 -0.4676 -6.0960 -1.9725 -2.2468 -17.7538 -0.6947 -2.4127 17.6021 -0.2077 -1.3486 8.4223 -0.0000 0.0000 0.0000 -83.4752 0.6380 27.5482 17.4978 -27.5093 -4.3147 -0.0000 0.0000 -8.5082 26.6125 21.1452 10.2450 -7.1250 0.0000 -0.0000 -2.1399 53.3608 -0.4402 -0.0000 0.0000 0.0000 90.3558 -2.2906 -1.2746 -11.2349 18.6474 -1.8503 0.0000 0.0000 8.4516 -20.5972 21.6827 -7.9051 7.1250 -0.0000 -0.0000 5.1423 -7.0435 4.4916
3.8537 17.9544 23.4312 -4.5388 -1.6837 -3.3694 0.0000 0.0000 0.0000 -16.0272 -2.0165 0.4123 9.6959 17.2353 58.4671 0.8299 -11.1605 24.6232 0.0884 1.9180 5.2791 0.0000 0.0000 0.0000 27.9039 12.5327 -16.7190 -2.6287 -10.0682 29.1978 -0.0655 -1.8874 -5.9181 -0.3859 -3.9893 11.0466 2.2654 -0.8956 11.0664 3.1185 -0.7111 0.2108 2.1130 -0.3694 -5.9842 -2.0976 -2.3580 -17.4331 -0.2705 -2.6294 17.2675 -0.0651 -1.4134 8.2616 -0.0000 0.0000 0.0000 -83.6204 1.1273 28.2126 17.8555 -27.9718 -4.4813 -0.0000 0.0000 -7.6031 26.1293 25.4049 11.8841 -7.1250 0.0000 -0.0000 -4.0062 57.8140 -1.2579 -0.0000 0.0000 0.0000 90.3385 -1.9379 -0.0750 -11.3667 18.8482 -1.8927 0.0000 0.0000 7.8404 -19.5032 24.7322 -8.4288 7.1250 -0.0000 -0.0000 6.0894 -4.0627 5.6754
3.8301 18.0062 23.8096 -4.6765 -1.6572 -3.5370 0.0000 0.0000 0.0000 -15.6271 -2.6178 -2.3734 10.7891 17.8303 62.0947 0.3686 -10.6713 19.8359 0.0990 2.0292 5.5864 0.0000 0.0000 0.0000 28.4513 11.7708 -15.1743 -2.5989 -10.0155 29.0271 -0.1142 -1.3906 -7.0520 -0.4272 -4.1948 11.6253 2.5295 -0.8166 11.1842 3.0189 -0.5711 0.1770 1.8396 -0.3099 -6.0927 -2.1280 -2.4275 -16.7817 -0.1169 -2.7657 17.0260 -0.0154 -1.4646 8.0697 -0.0000 0.0000 0.0000 -83.7621 1.3543 28.5334 17.3829 -27.3598 -4.2618 -0.0000 0.0000 -6.8302 26.8310 24.3510 11.7808 -7.1250 0.0000 -0.0000 -2.8535 56.8508 -0.8292 -0.0000 0.0000 0.0000 90.1953 -1.5332 0.9436 -11.3995 18.8980 -1.9033 0.0000 0.0000 8.3753 -18.9072 24.7219 -8.1519 7.1250 -0.0000 -0.0000 6.4534 -4.1700 6.0060
3.8024 18.0371 24.1834 -5.0331 -1.7749 -3.6642 0.0000 0.0000 0.0000 -14.8414 -2.9563 -5.2619 11.7437 18.2802 65.1740 -0.0974 -11.9001 15.5306 0.0023 -0.3088 -0.8484 0.0000 0.0000 0.0000 29.2770 11.3708 -13.4220 -2.5503 -9.9288 28.7463 -0.1556 -1.2719 -8.0311 -0.3513 -3.8081 10.5375 2.8997 -0.6243 10.9559 2.9827 -0.2908 0.3971 1.5398 -0.1813 -5.7374 -2.0129 -2.4980 -17.0653 0.0579 -2.9219 17.3622 -0.0006 -1.5128 8.2346 -0.0000 0.0000 0.0000 -84.0961 2.1936 28.2610 17.9339 -28.0724 -4.5181 -0.0000 0.0000 -5.7467 27.9689 20.1087 10.3462 -7.1250 0.0000 -0.0000 -0.4884 52.4949 -0.0901 -0.0000 0.0000 0.0000 90.0864 -0.7803 2.2651 -11.6412 19.2644 -1.9823 0.0000 0.0000 9.1882 -16.9469 23.1724 -6.8375 7.1250 -0.0000 -0.0000 7.5445 -6.0483 6.7679
3.7760 18.0574 24.5420 -5.4606 -1.9606 -3.6964 0.0000 0.0000 0.0000 -13.9893 -3.4161 -8.0026 12.4259 18.5649 67.3324 -0.3223 -11.6873 10.7496 0.1123 -2.1609 -5.9506 0.0000 0.0000 0.0000 30.1346 11.0739 -11.7962 -2.5036 -9.8445 28.4746 -0.2071 -1.0775 -9.0582 -0.4222 -4.1706 11.5571 3.3002 -0.4396 10.9243 3.0117 0.0063 0.3659 1.2981 -0.0458 -5.7546 -2.1915 -2.5592 -16.7940 0.3878 -3.0358 17.4923 0.1276 -1.5454 8.2400 -0.0000 0.0000 0.0000 -84.3548 2.5787 28.2694 17.5954 -27.6360 -4.3599 -0.0000 0.0000 -5.4850 27.3480 22.3934 11.1464 -7.1250 0.0000 -0.0000 -1.6969 54.8575 -0.4109 -0.0000 0.0000 0.0000 89.8744 -0.6504 4.5808 -11.9383 19.7120 -2.0814 0.0000 0.0000 7.9615 -17.3897 21.1103 -6.4356 7.1250 -0.0000 -0.0000 7.1367 -8.0928 6.1098
3.7598 18.0872 24.9167 -5.3870 -2.1714 -3.7479 0.0000 0.0000 0.0000 -13.9003 -3.8129 -10.3177 12.8214 18.7167 68.5699 -0.3736 -11.0826 6.9311 0.1204 -2.2369 -6.1608 0.0000 0.0000 0.0000 30.4176 10.2863 -10.1261 -2.4010 -9.6557 27.8687 -0.2628 -0.6908 -9.9589 -0.3179 -3.6243 10.0221 3.3007 -0.2189 10.5805 2.8824 0.2646 0.5549 1.1169 0.0838 -5.3608 -2.1302 -2.6458 -16.6866 0.4367 -3.1825 17.4093 0.1183 -1.6058 8.1947 -0.0000 0.0000 0.0000 -84.5561 2.8083 28.3274 17.5067 -27.5208 -4.3188 -0.0000 0.0000 -5.4544 28.7155 18.6617 9.9427 -7.1250 0.0000 -0.0000 0.5570 51.0404 0.0829 -0.0000 0.0000 0.0000 89.6894 0.2464 5.6762 -11.9784 19.7722 -2.0950 0.0000 0.0000 7.3090 -17.3721 21.3987 -6.5118 7.1250 -0.0000 -0.0000 7.1650 -7.7999 6.1761
3.7254 18.1362 25.2647 -5.9489 -2.5999 -3.7895 0.0000 0.0000 0.0000 -12.7896 -4.0372 -13.9858 13.0590 18.8034 69.3086 -0.3694 -10.9030 6.2591 0.0040 -0.4089 -1.1234 0.0000 0.0000 0.0000 31.5177 9.9653 -8.2343 -2.2463 -9.3613 26.9321 -0.2977 -0.7263 -10.5951 -0.3544 -3.8244 10.5833 3.7381 0.0544 10.9193 2.9670 0.7124 0.4112 0.8937 0.2896 -5.6968 -2.0547 -2.7213 -16.7946 0.3412 -3.2885 18.0034 0.0553 -1.6605 8.4122 0.0000 -0.0000 0.0000 -84.7954 3.6337 28.4486 17.5289 -27.5498 -4.3291 -0.0000 0.0000 -6.1475 28.4280 20.6981 10.8315 -7.1250 0.0000 -0.0000 -0.1378 53.2299 -0.0279 0.0000 -0.0000 0.0000 89.4876 0.6128 6.6755 -12.0129 19.8240 -2.1067 0.0000 0.0000 7.0522 -18.7154 22.1325 -7.2737 7.1250 -0.0000 -0.0000 6.3646 -6.8593 5.5944
3.7142 18.1494 25.6192 -5.7562 -2.7906 -3.7094 0.0000 0.0000 0.0000 -12.8886 -4.4732 -16.7491 12.9516 18.7646 68.9750 -0.3630 -10.6195 4.4414 0.0094 -0.6245 -1.7161 0.0000 0.0000 0.0000 31.5893 9.6378 -6.9947 -2.2266 -9.3230 26.8109 -0.3621 -0.7190 -11.6506 -0.2755 -3.3763 9.3282 3.7249 0.3422 10.9298 2.7392 1.0863 0.2921 0.6038 0.4682 -5.8195 -2.1409 -2.8728 -16.6301 0.5430 -3.5227 18.1028 0.1101 -1.7563 8.4249 -0.0000 -0.0000 0.0000 -84.9161 4.4552 28.4978 17.5244 -27.5439 -4.3270 -0.0000 0.0000 -6.9540 27.3922 21.1223 10.5771 -7.1250 0.0000 -0.0000 -1.3203 53.4888 -0.2757 -0.0000 -0.0000 0.0000 89.4483 0.8888 7.9423 -12.4133 20.4216 -2.2444 0.0000 0.0000 5.9004 -18.7995 22.4386 -7.4033 7.1250 -0.0000 -0.0000 6.3344 -6.5318 5.6079
3.7063 18.1136 25.9869 -5.4820 -2.7452 -3.7536 0.0000 0.0000 0.0000 -13.1094 -5.0497 -18.1258 12.6784 18.6629 68.1235 -0.2896 -10.0450 0.1693 0.0396 -1.2844 -3.5317 0.0000 0.0000 0.0000 31.5016 9.1332 -6.0331 -2.3505 -9.5608 27.5660 -0.4957 -0.4779 -13.4821 -0.2301 -3.0872 8.5215 3.6456 0.4869 10.7263 2.4841 1.2401 0.3318 0.3581 0.5451 -5.6560 -1.9046 -2.7631 -16.5520 0.5788 -3.4421 18.1425 0.0942 -1.6983 8.4193 -0.0000 -0.0000 0.0000 -84.8687 5.0136 28.8852 17.2727 -27.2159 -4.2113 -0.0000 0.0000 -8.3245 28.9251 18.0573 9.7198 -7.1250 0.0000 -0.0000 0.8701 50.4077 0.1160 -0.0000 -0.0000 0.0000 89.2616 0.7895 10.6920 -13.4056 21.8787 -2.6025 0.0000 0.0000 4.2356 -18.0222 19.6240 -6.2358 7.1250 -0.0000 -0.0000 6.6473 -9.5365 5.4922
3.6871 18.0840 26.3253 -5.7473 -3.2059 -3.6206 0.0000 0.0000 0.0000 -12.2126 -5.9379 -20.1184 12.3780 18.5459 67.1822 -0.2423 -9.6015 -0.8448 0.0006 -0.1580 -0.4340 0.0000 0.0000 0.0000 32.2040 9.6293 -4.8625 -2.4346 -9.7180 28.0684 -0.6029 -0.7832 -14.9721 -0.1967 -2.8560 7.8782 3.9229 0.8245 10.9362 2.3851 1.7329 0.2526 0.0196 0.7747 -5.8369 -1.7901 -2.9516 -16.6292 0.5231 -3.7177 18.1446 0.0222 -1.8257 8.4337 0.0000 0.0000 0.0000 -84.7882 5.7359 30.0011 17.5483 -27.5749 -4.3381 -0.0000 0.0000 -11.4124 29.9200 18.9677 10.5950 -7.1250 0.0000 -0.0000 1.7374 51.6023 0.2826 0.0000 0.0000 0.0000 89.1714 1.0789 12.0182 -14.0927 22.8670 -2.8640 0.0000 0.0000 3.9490 -17.9245 17.9142 -5.6819 7.1250 -0.0000 -0.0000 6.6263 -11.3109 5.2340
3.6890 18.0442 26.6802 -6.0845 -3.2033 -3.7121 0.0000 0.0000 0.0000 -11.6177 -6.7254 -21.5290 11.8031 18.3062 65.3634 -0.1669 -9.0155 -2.4605 0.0225 -0.9692 -2.6639 0.0000 0.0000 0.0000 32.7603 8.9709 -3.6475 -2.4597 -9.7642 28.2165 -0.7078 -0.7022 -16.1649 -0.1944 -2.8394 7.8320 4.5014 0.8733 10.9746 2.3580 1.8638 0.3967 -0.3530 0.8267 -5.6842 -2.1896 -2.9998 -16.4587 1.1035 -3.8023 17.7842 0.2768 -1.8341 8.3034 0.0000 -0.0000 0.0000 -84.8879 6.1871 29.5109 17.3830 -27.3599 -4.2619 -0.0000 0.0000 -10.1981 29.2512 17.4477 9.5324 -7.1250 0.0000 -0.0000 1.2906 49.7860 0.1523 0.0000 -0.0000 0.0000 88.8111 1.9008 13.6749 -14.4763 23.4115 -3.0148 0.0000 0.0000 2.6504 -18.1058 17.6747 -5.6692 7.1250 -0.0000 -0.0000 6.4963 -11.5371 5.0995
3.6826 18.0097 27.0080 -6.3569 -3.2204 -3.3672 0.0000 0.0000 0.0000 -10.9653 -7.5656 -23.6621 11.0843 17.9761 63.0551 -0.0717 -8.0689 -4.0131 0.0000 -0.0127 -0.0350 0.0000 0.0000 0.0000 33.2342 8.8303 -2.9896 -2.5241 -9.8816 28.5941 -0.8311 -0.7572 -17.5154 -0.1945 -2.8402 7.8341 4.9878 1.0220 10.9036 2.2547 2.1047 0.5147 -0.7675 0.9365 -5.4897 -2.2816 -3.1372 -17.2938 1.2736 -3.9829 17.7938 0.3142 -1.9018 8.4638 0.0000 -0.0000 0.0000 -84.8592 6.0771 29.3832 17.3176 -27.2746 -4.2319 -0.0000 0.0000 -9.8105 28.7574 18.9800 10.1199 -7.1250 0.0000 -0.0000 0.5434 51.4002 0.0857 0.0000 -0.0000 0.0000 88.5641 2.7007 15.2589 -15.1856 24.4041 -3.3023 0.0000 0.0000 1.1340 -19.5270 22.1574 -7.6184 7.1250 -0.0000 -0.0000 5.8557 -6.7137 5.1586
3.6812 17.9535 27.3456 -6.5721 -3.3046 -3.4476 0.0000 0.0000 0.0000 -10.5612 -7.8671 -24.9624 10.2409 17.5431 60.2904 0.0391 -6.7561 -5.6445 0.0517 -1.4678 -4.0368 0.0000 0.0000 0.0000 33.6998 8.4859 -1.8865 -2.5720 -9.9676 28.8720 -0.9972 -0.7820 -19.1692 -0.1411 -2.4206 6.6695 5.3242 1.1364 11.3397 2.2103 2.3285 0.4973 -1.0477 1.0307 -5.7274 -2.0313 -3.0253 -16.9519 1.0459 -3.8460 17.3241 0.2226 -1.8479 8.2321 -0.0000 0.0000 0.0000 -84.9160 6.5511 28.9770 17.3775 -27.3527 -4.2593 -0.0000 0.0000 -9.2521 28.3651 21.1489 11.0230 -7.1250 0.0000 -0.0000 -0.3044 53.7113 -0.0652 -0.0000 0.0000 0.0000 88.3678 3.4607 16.0268 -15.4751 24.8038 -3.4228 0.0000 0.0000 0.8504 -20.5601 22.2749 -8.0918 7.1250 -0.0000 -0.0000 5.2155 -6.4333 4.6180
3.6804 17.9057 27.6962 -7.0052 -3.4270 -3.3132 0.0000 0.0000 0.0000 -9.9153 -8.1654 -26.0169 9.2609 16.9727 56.9880 0.1284 -5.0369 -6.8040 0.0952 -1.9894 -5.4764 0.0000 0.0000 0.0000 34.2978 8.0218 -0.7055 -2.5407 -9.9115 28.6906 -1.0943 -0.6942 -20.0343 -0.1590 -2.5695 7.0825 5.8631 1.2877 11.5258 2.2299 2.6220 0.3697 -1.3811 1.1525 -5.9291 -2.0407 -3.0837 -17.0680 1.0065 -3.9153 17.4752 0.1997 -1.8840 8.3039 -0.0000 0.0000 0.0000 -85.0514 7.4552 29.0868 17.1574 -27.0648 -4.1587 -0.0000 0.0000 -9.3454 29.1180 17.9445 9.7377 -7.1250 0.0000 -0.0000 1.0822 50.3162 0.1418 -0.0000 0.0000 0.0000 88.0187 3.7539 17.3159 -16.0710 25.6168 -3.6766 0.0000 -0.0000 -0.3555 -20.2034 21.7188 -7.7547 7.1250 -0.0000 -0.0000 5.3942 -7.0661 4.7111
3.6727 17.8821 28.0460 -7.4266 -3.6087 -3.1763 0.0000 0.0000 0.0000 -9.0732 -8.7579 -26.9089 8.0386 16.1475 52.7015 0.1604 -3.8158 -7.2017 0.0196 -0.9043 -2.4854 0.0000 0.0000 0.0000 35.0258 7.8804 0.8490 -2.4351 -9.7189 28.0711 -1.2009 -1.0372 -21.1091 -0.1531 -2.5213 6.9486 6.2916 1.4507 11.4716 2.2933 2.8807 0.5797 -1.5883 1.2805 -5.6422 -2.0818 -3.0624 -17.1552 1.1588 -3.8950 16.9209 0.2625 -1.8625 8.1368 -0.0000 -0.0000 0.0000 -85.2709 7.2528 28.5712 16.7865 -26.5755 -3.9914 -0.0000 0.0000 -8.9571 29.2218 18.1584 9.8889 -7.1250 0.0000 -0.0000 1.1535 50.5727 0.1584 -0.0000 -0.0000 0.0000 87.6391 4.7407 18.4248 -16.6591 26.4062 -3.9345 0.0000 -0.0000 -1.0240 -20.2491 21.7091 -7.7703 7.1250 -0.0000 -0.0000 5.3645 -7.0692 4.6846
3.6755 17.8440 28.3941 -7.7166 -3.6497 -2.8670 0.0000 0.0000 0.0000 -8.4882 -9.3222 -27.5637 6.6735 15.0507 47.6284 0.1484 -2.7830 -6.8471 0.0150 -0.7902 -2.1718 0.0000 0.0000 0.0000 35.4805 7.6434 2.2118 -2.3113 -9.4865 27.3294 -1.2613 -1.2976 -21.7273 -0.1334 -2.3539 6.4849 6.6556 1.5346 11.5425 2.3102 3.0543 0.4522 -1.8046 1.3490 -5.7881 -1.9635 -3.1196 -17.0727 0.9053 -3.9495 16.6215 0.1561 -1.9081 8.0149 -0.0000 -0.0000 0.0000 -85.6289 7.6421 27.7933 16.5403 -26.2478 -3.8818 -0.0000 0.0000 -7.6911 28.8166 18.9210 10.1145 -7.1250 0.0000 -0.0000 0.6143 51.3459 0.0960 -0.0000 -0.0000 0.0000 87.2892 5.0343 19.3757 -17.2713 27.2141 -4.2107 0.0000 -0.0000 -1.7832 -20.1533 22.3669 -7.9504 7.1250 -0.0000 -0.0000 5.4789 -6.4011 4.8567
3.6815 17.8270 28.7709 -7.3764 -3.4860 -2.5041 0.0000 0.0000 0.0000 -8.6867 -10.0885 -27.5266 5.2226 13.6302 41.7757 0.1311 -1.7225 -6.4567 0.0055 -0.4800 -1.3190 0.0000 0.0000 0.0000 35.1439 7.1181 3.4557 -2.1955 -9.2619 26.6181 -1.2784 -1.4779 -21.9442 -0.1267 -2.2950 6.3215 6.4553 1.6713 10.9987 2.1192 3.1446 0.5550 -1.8836 1.4128 -5.3658 -1.9316 -3.1918 -17.3629 0.9655 -4.0615 16.5697 0.1534 -1.9512 8.0506 -0.0000 -0.0000 0.0000 -85.8310 7.7489 27.0615 16.2632 -25.8762 -3.7601 -0.0000 0.0000 -6.9489 28.2356 19.4607 10.1432 -7.1250 0.0000 -0.0000 -0.0809 51.8340 -0.0136 -0.0000 -0.0000 0.0000 86.9790 6.0005 19.9353 -17.5528 27.5808 -4.3402 0.0000 -0.0000 -1.9919 -20.0238 22.3768 -7.8989 7.1250 -0.0000 -0.0000 5.5609 -6.4109 4.9291
3.6798 17.7927 29.1396 -7.9586 -3.8270 -2.0762 0.0000 0.0000 0.0000 -7.6707 -10.4927 -27.3818 3.8761 11.9936 35.7095 0.1022 -0.7370 -5.8201 0.0359 -1.2234 -3.3637 0.0000 0.0000 0.0000 35.8493 6.8398 4.8940 -2.0387 -8.9462 25.6272 -1.3173 -1.4742 -22.2648 -0.1016 -2.0558 5.6598 6.9419 1.8776 10.7728 2.2531 3.4735 0.4271 -2.0535 1.5627 -5.3302 -2.1522 -3.1792 -16.9108 1.2539 -4.0489 16.2355 0.2959 -1.9341 7.8713 0.0000 0.0000 0.0000 -86.1903 7.8848 26.1380 15.6527 -25.0475 -3.4976 -0.0000 0.0000 -6.1696 27.9442 20.8674 10.7001 -7.1250 0.0000 -0.0000 -0.6823 53.3199 -0.1396 0.0000 0.0000 0.0000 86.7006 6.6632 20.2427 -17.7006 27.7721 -4.4089 0.0000 -0.0000 -2.1530 -20.0386 22.9111 -8.0815 7.1250 -0.0000 -0.0000 5.5966 -5.8553 5.0211
3.6834 17.7382 29.5149 -8.2280 -3.8470 -1.8033 0.0000 0.0000 0.0000 -7.1908 -11.0321 -26.9170 2.7531 10.2841 29.9019 0.1091 0.0571 -6.2595 0.0970 -2.0085 -5.5292 0.0000 0.0000 0.0000 36.0887 6.1641 6.5262 -1.8698 -8.5894 24.5193 -1.4018 -0.8847 -22.7178 -0.1402 -2.4133 6.6492 7.1820 1.9973 10.4658 2.2631 3.6242 0.5551 -2.1792 1.6460 -4.9963 -1.9038 -3.2659 -17.2735 1.1672 -4.2009 15.9292 0.2059 -1.9983 7.8275 0.0000 -0.0000 0.0000 -86.3847 7.9501 25.5149 15.5523 -24.9099 -3.4552 -0.0000 0.0000 -5.0699 27.7036 23.6686 11.9034 -7.1250 0.0000 -0.0000 -1.6797 56.3104 -0.4660 0.0000 -0.0000 0.0000 86.4057 7.6511 20.7613 -17.8347 27.9450 -4.4715 0.0000 -0.0000 -2.5526 -20.2903 22.9146 -8.1916 7.1250 -0.0000 -0.0000 5.4398 -5.8118 4.8836
3.6953 17.6996 29.8930 -8.5982 -4.0265 -1.4181 0.0000 0.0000 0.0000 -6.4550 -11.6515 -26.1200 1.7836 8.4000 23.9358 0.1530 0.6298 -7.6459 0.0648 -1.6422 -4.5179 0.0000 0.0000 0.0000 36.3156 5.4001 7.7521 -1.7336 -8.2876 23.5910 -1.4381 -0.4892 -22.8612 -0.0836 -1.8653 5.1334 7.6218 2.1330 10.3001 2.3034 3.8505 0.4206 -2.4052 1.7445 -5.0010 -1.9551 -3.2091 -17.6911 1.2624 -4.1267 16.2945 0.2452 -1.9520 8.0241 0.0000 -0.0000 0.0000 -86.5737 8.4540 25.2241 14.8800 -23.9787 -3.1770 -0.0000 0.0000 -6.0669 28.5305 18.7643 9.9194 -7.1250 0.0000 -0.0000 0.3508 51.1205 0.0529 0.0000 -0.0000 0.0000 86.3378 8.2680 20.4626 -17.8314 27.9408 -4.4700 0.0000 -0.0000 -2.0277 -20.2220 22.8933 -8.1550 7.1250 -0.0000 -0.0000 5.4806 -5.8447 4.9171
3.7202 17.6795 30.2956 -8.4124 -4.2659 -1.0740 0.0000 0.0000 0.0000 -5.9968 -13.5546 -24.6000 1.0415 6.4905 18.2144 0.1116 2.7919 -7.9784 0.1097 -2.1354 -5.8800 0.0000 0.0000 0.0000 35.7453 4.4344 8.8550 -1.6397 -8.0714 22.9311 -1.4420 -0.0724 -22.7466 -0.0391 -1.2766 3.5101 7.6335 2.3089 9.7691 2.1694 4.0252 0.4138 -2.5454 1.8418 -4.6829 -1.6063 -3.2482 -18.6705 0.8009 -4.1787 17.2705 0.0040 -1.9910 8.5062 -0.0000 0.0000 0.0000 -86.7958 8.7073 24.2787 14.7708 -23.8258 -3.1328 -0.0000 0.0000 -4.1095 27.0031 23.3432 11.4157 -7.1250 0.0000 -0.0000 -2.3429 55.8086 -0.6216 -0.0000 0.0000 0.0000 86.2015 8.9213 20.3660 -17.8661 27.9854 -4.4862 0.0000 -0.0000 -1.9600 -19.7642 22.1919 -7.7288 7.1250 -0.0000 -0.0000 5.7091 -6.6421 5.0361
3.7392 17.6269 30.6888 -8.8010 -5.0653 -0.8425 0.0000 0.0000 0.0000 -4.9551 -14.2861 -23.3509 0.5807 4.8794 13.5649 0.0770 4.3476 -8.5566 0.1603 -2.5795 -7.1102 0.0000 0.0000 0.0000 35.8830 4.1047 10.1613 -1.6114 -8.0047 22.7285 -1.4932 0.7767 -22.8778 -0.0018 -0.2740 0.7530 7.9777 2.5735 9.6910 2.2124 4.4138 0.3265 -2.7348 2.0244 -4.6724 -1.2824 -3.2264 -18.2219 0.5674 -4.1914 16.9402 -0.1176 -2.0050 8.3029 -0.0000 -0.0000 0.0000 -87.0573 9.2962 23.5398 14.4704 -23.4032 -3.0124 -0.0000 0.0000 -3.8817 27.5033 21.1380 10.6335 -7.1250 0.0000 -0.0000 -1.2079 53.5277 -0.2533 -0.0000 -0.0000 0.0000 86.2593 9.2755 20.1941 -17.8059 27.9079 -4.4580 0.0000 -0.0000 -1.8723 -20.0769 22.8169 -8.0670 7.1250 -0.0000 -0.0000 5.5646 -5.9468 4.9823
3.7742 17.5740 31.1023 -8.8322 -5.2777 -0.6396 0.0000 0.0000 0.0000 -4.6249 -15.1548 -22.5276 0.3887 4.0037 11.0872 0.0496 5.8473 -9.6192 0.2829 -3.4208 -9.4526 0.0000 0.0000 0.0000 35.6240 3.6964 11.1717 -1.6707 -8.1436 23.1511 -1.5019 1.1808 -22.8285 -0.0154 0.8021 -2.2044 8.1114 2.6064 9.4240 2.2225 4.4481 0.2739 -2.7872 2.0419 -4.5657 -1.3749 -3.2236 -18.2859 0.6754 -4.1861 17.0841 -0.0684 -1.9960 8.3674 0.0000 -0.0000 0.0000 -87.3486 9.7939 23.2260 14.1140 -22.8974 -2.8723 -0.0000 0.0000 -3.9553 28.3020 20.5156 10.6872 -7.1250 0.0000 -0.0000 -0.2299 53.0050 -0.0453 0.0000 -0.0000 0.0000 86.1955 9.7508 20.1074 -17.7140 27.7894 -4.4151 0.0000 -0.0000 -1.5506 -20.0724 22.5582 -7.9795 7.1250 -0.0000 -0.0000 5.5456 -6.2154 4.9363
3.8094 17.5387 31.5069 -8.1621 -5.4654 -0.6314 0.0000 0.0000 0.0000 -5.9247 -14.1540 -22.6177 0.3819 3.9688 10.9890 0.0374 4.8535 -8.0815 0.6032 -4.9716 -13.8275 0.0000 0.0000 0.0000 34.6857 3.5190 12.0737 -1.8007 -8.4379 24.0522 -1.5067 1.5857 -22.7557 -0.0573 1.5445 -4.2485 7.5441 2.6908 9.5867 2.0340 4.5181 0.0992 -2.6957 2.0715 -4.8609 -1.4690 -3.2876 -18.2466 0.6496 -4.2474 17.3244 -0.0713 -2.0329 8.4440 -0.0000 0.0000 0.0000 -87.6498 10.4378 22.7068 13.6010 -22.1614 -2.6757 -0.0000 0.0000 -3.9058 28.5287 19.3222 10.1967 -7.1250 0.0000 -0.0000 0.2463 51.7360 0.0409 -0.0000 0.0000 0.0000 86.1522 9.8990 19.8531 -17.5521 27.5799 -4.3399 0.0000 -0.0000 -1.2131 -20.0928 22.1548 -7.8543 7.1250 -0.0000 -0.0000 5.4994 -6.6305 4.8506
3.8446 17.5064 31.9355 -7.9115 -5.3849 -0.8292 0.0000 0.0000 0.0000 -7.0143 -13.1245 -22.7926 0.4923 4.4985 12.4836 0.0672 2.9436 -6.8743 0.3779 -3.9479 -10.9300 0.0000 0.0000 0.0000 34.1760 3.0596 12.8764 -2.0059 -8.8784 25.4158 -1.4864 2.4573 -22.3858 -0.0909 1.9449 -5.3533 7.4877 2.7130 9.1437 1.9248 4.4784 0.3170 -2.7384 2.0768 -4.3809 -1.2988 -3.2974 -17.9117 0.5993 -4.2998 17.1922 -0.1151 -2.0543 8.3357 -0.0000 -0.0000 0.0000 -87.6797 10.4798 22.7343 12.9309 -21.1859 -2.4283 -0.0000 0.0000 -4.1027 26.9457 22.6775 11.0885 -7.1250 0.0000 -0.0000 -2.2068 55.0803 -0.5464 -0.0000 -0.0000 0.0000 86.3195 10.1835 19.0876 -17.4922 27.5020 -4.3122 0.0000 -0.0000 -1.0304 -20.2058 22.8273 -8.1260 7.1250 -0.0000 -0.0000 5.4850 -5.9157 4.9135
3.8802 17.4745 32.3766 -7.4522 -5.2701 -1.1840 0.0000 0.0000 0.0000 -8.3094 -12.2220 -23.6051 0.7738 5.6166 15.6759 0.0502 0.5806 -4.4867 0.5748 -4.8550 -13.4955 0.0000 0.0000 0.0000 33.5059 2.5911 13.8870 -2.2053 -9.2813 26.6791 -1.3090 3.0258 -20.8445 -0.1161 2.1964 -6.0488 7.0037 2.6729 9.2411 1.8579 4.3783 0.3649 -2.5344 2.0364 -4.4246 -1.3768 -3.3188 -18.0715 0.6562 -4.3227 17.4968 -0.0923 -2.0616 8.4703 -0.0000 -0.0000 0.0000 -87.9325 10.9349 22.1704 12.6375 -20.7537 -2.3232 -0.0000 0.0000 -3.3396 26.3826 15.3428 7.4771 -7.1250 0.0000 -0.0000 -1.1927 47.0045 -0.0590 -0.0000 -0.0000 0.0000 86.4449 10.1583 18.3487 -17.4723 27.4762 -4.3030 0.0000 -0.0000 -0.3015 -20.1426 22.8467 -8.1052 7.1250 -0.0000 -0.0000 5.5261 -5.9056 4.9519
3.9206 17.5136 32.8263 -6.7156 -5.0792 -1.5768 0.0000 0.0000 0.0000 -9.7068 -11.6952 -23.8507 1.0787 6.6015 18.5402 -0.0124 -2.9149 -1.2192 0.0975 -2.0136 -5.5433 0.0000 0.0000 0.0000 32.2941 1.8994 14.4694 -2.4756 -9.7934 28.3101 -1.0844 3.7994 -18.7823 -0.1211 2.2434 -6.1789 6.3675 2.7027 9.2112 1.7062 4.3310 0.5580 -2.3270 2.0353 -4.2428 -1.5052 -3.4935 -17.8922 0.8578 -4.5668 17.1425 -0.0276 -2.1672 8.3297 -0.0000 -0.0000 0.0000 -88.1390 10.8857 22.2010 12.1217 -19.9869 -2.1437 -0.0000 0.0000 -3.2198 28.4556 16.3545 8.6766 -7.1250 0.0000 -0.0000 0.6603 48.4365 0.0560 -0.0000 -0.0000 0.0000 86.5213 10.1749 17.3590 -17.5020 27.5147 -4.3167 0.0000 0.0000 0.3244 -19.8925 22.6183 -7.9226 7.1250 -0.0000 -0.0000 5.6633 -6.1811 5.0459
3.9533 17.5237 33.2864 -5.7152 -4.8419 -2.3024 0.0000 0.0000 0.0000 -11.1122 -12.0044 -23.3184 1.3642 7.3925 20.8836 -0.0568 -4.3570 0.4498 0.0618 -1.6043 -4.4133 0.0000 0.0000 0.0000 31.0604 1.3377 14.9360 -2.9418 -10.6002 30.9430 -0.8233 3.4990 -16.3202 -0.3087 3.5722 -9.8761 5.4328 2.7109 9.5167 1.4334 4.2561 0.5358 -2.1038 2.0063 -4.4885 -1.5753 -3.5606 -17.0151 1.0440 -4.6938 17.1528 0.0459 -2.2186 8.1871 -0.0000 0.0000 0.0000 -88.1401 11.1961 21.8539 11.5188 -19.0792 -1.9421 -0.0000 0.0000 -3.4042 27.4210 19.1194 9.6443 -7.1250 0.0000 -0.0000 -0.8435 51.3104 -0.1311 -0.0000 0.0000 0.0000 86.8610 9.3751 16.5179 -17.4633 27.4644 -4.2988 0.0000 0.0000 0.3373 -20.3182 22.5629 -8.0860 7.1250 -0.0000 -0.0000 5.3919 -6.1722 4.8028
3.9957 17.5425 33.7216 -5.2122 -4.3760 -2.5490 0.0000 0.0000 0.0000 -12.0435 -12.2138 -22.9701 1.6157 8.0150 22.7596 -0.0873 -5.2389 2.2093 0.0108 -0.6721 -1.8471 0.0000 0.0000 0.0000 30.2824 1.2044 13.9332 -3.6196 -11.6363 34.4572 -0.4615 3.4858 -12.1138 -0.2622 3.2942 -9.0988 5.0538 2.6254 9.6339 1.2931 4.1111 0.3638 -2.0345 1.9308 -4.7607 -1.6021 -3.7051 -16.7011 0.9959 -4.8890 17.5450 0.0124 -2.3175 8.2655 0.0000 0.0000 0.0000 -88.1204 11.1910 21.1317 11.0403 -18.3499 -1.7886 -0.0000 0.0000 -1.5599 28.2111 25.1400 12.8383 -7.1250 0.0000 -0.0000 -1.5833 58.0101 -0.5041 0.0000 0.0000 0.0000 87.2508 8.5380 15.3258 -17.3697 27.3426 -4.2558 0.0000 0.0000 0.5071 -20.7289 22.2038 -8.1390 7.1250 -0.0000 -0.0000 5.1033 -6.4806 4.5131
4.0396 17.5778 34.2165 -4.1700 -3.9921 -2.9744 0.0000 0.0000 0.0000 -14.0094 -11.7221 -22.2138 1.9034 8.6618 24.7430 -0.0950 -5.4572 1.8969 0.0216 -0.9485 -2.6072 0.0000 0.0000 0.0000 28.5701 0.7598 12.7501 -4.4436 -12.7284 38.3602 -0.1256 3.0638 -6.3329 -0.1724 2.6746 -7.3741 4.2370 2.6174 8.9992 0.9853 3.9566 0.5108 -1.8405 1.8845 -4.2936 -1.6377 -3.8325 -16.8331 1.0644 -5.0804 18.1214 0.0087 -2.3979 8.4889 -0.0000 0.0000 0.0000 -88.1649 10.9395 19.6502 10.5489 -17.5936 -1.6370 -0.0000 -0.0000 0.1779 24.9964 29.5516 12.9500 -7.1250 0.0000 -0.0000 -7.2485 61.8643 -2.9825 -0.0000 0.0000 0.0000 87.7904 7.8046 13.5821 -17.1622 27.0710 -4.1609 0.0000 0.0000 0.8299 -20.7732 22.6538 -8.3123 7.1250 -0.0000 -0.0000 5.1150 -6.0055 4.5705
4.1012 17.6124 34.6647 -4.1827 -3.8903 -3.0290 0.0000 0.0000 0.0000 -14.8155 -10.9166 -22.0112 2.2261 9.3220 26.8078 -0.1141 -6.0706 1.0996 0.0384 -1.2645 -3.4769 0.0000 0.0000 0.0000 27.8413 0.6173 10.5105 -5.4111 -13.8323 42.5697 0.0077 1.5717 0.7900 -0.1822 2.7493 -7.5814 4.5740 2.5800 8.6635 1.0151 3.9246 0.4700 -1.9755 1.8665 -4.1301 -1.6934 -3.8417 -16.4876 1.1080 -5.0980 18.2981 0.0351 -2.4069 8.4902 0.0000 0.0000 0.0000 -88.1905 10.9145 19.3464 10.2147 -17.0747 -1.5374 -0.0000 -0.0000 0.2388 24.1404 28.9895 12.2545 -7.1250 0.0000 -0.0000 -7.9249 61.0715 -3.1138 0.0000 0.0000 0.0000 88.0675 6.9024 12.3458 -17.1221 27.0185 -4.1427 0.0000 0.0000 0.9722 -20.5232 22.4195 -8.1252 7.1250 -0.0000 -0.0000 5.2512 -6.2887 4.6645
4.1530 17.6616 35.0984 -4.2287 -4.3726 -3.2862 0.0000 0.0000 0.0000 -15.4520 -10.3245 -21.0959 2.4851 9.8108 28.3663 -0.1113 -6.2210 0.1880 0.0035 -0.3794 -1.0424 0.0000 0.0000 0.0000 27.3963 1.2598 8.3410 -6.5855 -14.9727 47.2885 -0.1520 0.0369 7.3757 -0.0440 1.3543 -3.7241 4.8142 2.6272 8.9150 1.0825 4.0321 0.3918 -2.0681 1.9086 -4.3345 -1.8271 -3.7535 -16.2432 1.2296 -4.9777 18.5043 0.1149 -2.3473 8.5218 0.0000 0.0000 0.0000 -88.4797 10.7778 17.5613 10.0551 -16.8257 -1.4909 -0.0000 -0.0000 2.2496 23.7474 29.2615 12.1366 -7.1250 0.0000 -0.0000 -8.5314 61.2511 -3.3904 0.0000 0.0000 0.0000 88.1392 6.1853 12.0747 -16.8889 26.7111 -4.0373 0.0000 0.0000 0.6323 -20.1012 22.3935 -7.9372 7.1250 -0.0000 -0.0000 5.5137 -6.3816 4.8900
4.1938 17.7013 35.5136 -3.3058 -4.8262 -3.7652 0.0000 0.0000 0.0000 -17.1323 -10.2266 -19.3411 2.6472 10.1008 29.3037 -0.0372 -4.8257 -1.8654 0.0344 -1.1976 -3.2926 0.0000 0.0000 0.0000 26.0155 2.2614 5.7829 -7.9989 -16.1184 52.5586 -0.6128 -2.8583 14.0896 -0.0672 -1.6723 4.6008 3.9716 2.6940 9.4025 0.8662 4.0479 0.4575 -1.8523 1.9258 -4.5790 -1.5255 -3.6290 -16.4944 0.9749 -4.8297 18.7568 -0.0090 -2.2797 8.6352 -0.0000 0.0000 0.0000 -88.4078 11.2071 17.9447 10.3482 -17.2823 -1.5768 -0.0000 -0.0000 1.3174 24.9008 28.9451 12.6618 -7.1250 0.0000 -0.0000 -7.0224 61.2164 -2.7812 -0.0000 0.0000 0.0000 88.3953 5.5735 11.9448 -16.7840 26.5722 -3.9902 0.0000 0.0000 0.7276 -19.7580 22.6655 -7.8805 7.1250 -0.0000 -0.0000 5.7514 -6.1531 5.1284
4.2251 17.7331 35.8955 -2.9966 -5.1590 -3.9180 0.0000 0.0000 0.0000 -17.9133 -10.6344 -17.8227 2.7749 10.3215 30.0243 0.0192 -3.7055 -3.3835 0.0000 -0.0262 -0.0721 0.0000 0.0000 0.0000 25.4838 3.3864 2.5960 -9.5561 -17.1526 57.9943 -1.1921 -6.8316 19.5029 -0.3230 -3.6528 10.1019 3.6238 2.7141 9.7768 0.8813 4.0549 0.4740 -1.6654 1.9314 -4.7957 -1.5636 -3.5610 -16.5948 0.9409 -4.7175 18.7800 -0.0025 -2.2324 8.6598 -0.0000 -0.0000 0.0000 -88.3933 11.2750 18.7866 10.7570 -17.9149 -1.7004 -0.0000 0.0000 -0.5095 25.1071 28.0134 12.4120 -7.1250 0.0000 -0.0000 -6.3002 60.3050 -2.3573 -0.0000 -0.0000 0.0000 88.4624 5.0583 12.0399 -16.8639 26.6780 -4.0260 0.0000 0.0000 0.8628 -19.4838 22.6689 -7.7647 7.1250 -0.0000 -0.0000 5.9233 -6.1918 5.2789
4.2485 17.7509 36.2727 -2.0025 -4.9212 -4.0291 0.0000 0.0000 0.0000 -19.6003 -10.8612 -16.2653 2.8267 10.4090 30.3116 0.0717 -3.0076 -4.8902 0.0011 0.2152 0.5914 0.0000 0.0000 0.0000 24.0702 3.7161 -0.8116 -11.1271 -17.9967 63.1935 -1.2145 -9.7740 19.8502 -0.4656 -4.3765 12.1384 2.4641 2.5230 10.0077 0.7630 3.6713 0.5812 -1.1010 1.7652 -4.8962 -2.0098 -3.3886 -16.1983 1.5103 -4.4755 17.8952 0.3056 -2.0983 8.3117 -0.0000 0.0000 0.0000 -88.2620 10.8436 19.9223 10.9433 -18.2013 -1.7582 -0.0000 0.0000 -1.9808 25.2777 25.8230 11.6234 -7.1250 0.0000 -0.0000 -5.1157 58.0604 -1.6377 -0.0000 0.0000 0.0000 88.3022 4.9831 12.6784 -16.6062 26.3357 -3.9110 0.0000 0.0000 0.9761 -19.6813 22.4034 -7.7628 7.1250 -0.0000 -0.0000 5.7781 -6.4359 5.1208
4.2635 17.7647 36.6678 -0.8664 -5.0499 -4.4962 0.0000 0.0000 0.0000 -21.4261 -10.5146 -14.3563 2.8265 10.4087 30.3107 0.1228 -2.4490 -6.2241 0.0005 0.1463 0.4021 0.0000 0.0000 0.0000 22.5086 3.8548 -3.7040 -12.5639 -18.6190 67.7655 -0.6751 -10.4244 15.3398 -0.3780 -3.9486 10.9321 1.1458 2.4999 10.1152 0.5962 3.4800 0.8906 -0.5086 1.7008 -4.7065 -1.6511 -3.3131 -16.7557 1.1059 -4.3714 18.0667 0.1138 -2.0616 8.4483 0.0000 -0.0000 0.0000 -88.0068 10.3277 21.5802 11.0481 -18.3620 -1.7911 -0.0000 0.0000 -4.8862 27.8276 24.1749 12.1979 -7.1250 0.0000 -0.0000 -1.6991 56.8836 -0.4949 0.0000 -0.0000 0.0000 88.3215 5.0093 12.6447 -16.3517 25.9952 -3.7988 0.0000 0.0000 2.0630 -19.4511 23.0843 -7.8835 7.1250 -0.0000 -0.0000 5.9777 -5.7680 5.3767
4.2693 17.7657 37.0138 -0.7597 -5.1158 -4.4300 0.0000 0.0000 0.0000 -21.8670 -9.9847 -13.4692 2.8545 10.4557 30.4654 0.1720 -2.6105 -7.3665 0.0004 -0.1222 -0.3358 0.0000 0.0000 0.0000 22.2417 4.1062 -7.2952 -13.8033 -19.0533 71.6028 -0.2711 -10.5503 11.1010 -0.4843 -4.4625 12.3816 0.8318 2.4135 10.3001 0.6901 3.3369 0.8773 -0.2250 1.6358 -4.8491 -1.7775 -3.1928 -15.8418 1.1726 -4.1837 17.0530 0.2026 -1.9866 7.9480 0.0000 0.0000 0.0000 -87.7423 9.8102 22.4178 11.2484 -18.6681 -1.8547 -0.0000 0.0000 -5.7989 30.8858 20.8764 12.0327 -7.1250 0.0000 -0.0000 2.4313 53.9245 0.5337 0.0000 0.0000 0.0000 88.4565 5.1308 12.0304 -15.9233 25.4166 -3.6130 0.0000 0.0000 3.4493 -19.5456 22.8538 -7.8505 7.1250 -0.0000 -0.0000 5.8998 -5.9913 5.2805
4.2783 17.7799 37.4047 -0.5183 -5.1202 -4.8749 0.0000 0.0000 0.0000 -22.6636 -9.0263 -11.4682 2.8402 10.4318 30.3865 0.2499 -2.5163 -8.9068 0.0095 -0.6308 -1.7335 0.0000 0.0000 0.0000 21.8007 4.0654 -9.7354 -14.7012 -19.3131 74.3350 0.0677 -10.0737 5.8750 -0.4120 -4.1201 11.4149 0.5054 2.2397 10.4798 0.7258 3.0700 1.0251 0.0288 1.5112 -4.8155 -2.0668 -2.9289 -15.5527 1.7969 -3.8829 17.0823 0.4950 -1.8024 7.9217 -0.0000 0.0000 0.0000 -87.3698 9.3364 23.0616 11.4101 -18.9142 -1.9067 -0.0000 0.0000 -5.6760 28.4289 18.3923 9.6930 -7.1250 0.0000 -0.0000 0.3136 50.6912 0.0440 -0.0000 0.0000 0.0000 88.6426 4.6663 11.9510 -15.9044 25.3909 -3.6049 0.0000 0.0000 3.7927 -19.9116 22.3809 -7.8527 7.1250 -0.0000 -0.0000 5.6318 -6.4239 4.9911
4.3005 17.7946 37.7459 0.5697 -4.6052 -4.6099 0.0000 0.0000 0.0000 -24.2836 -8.9914 -10.4156 2.7617 10.2989 29.9501 0.2902 -2.6034 -9.6098 0.0000 -0.0417 -0.1145 0.0000 0.0000 0.0000 20.1526 4.2076 -13.2966 -15.3667 -19.4773 76.3389 0.1764 -8.8505 1.9037 -0.2089 -2.9428 8.1195 -0.3789 1.9684 10.1923 0.4099 2.5914 1.1191 0.2775 1.2902 -4.5811 -1.6963 -2.7550 -16.0436 1.3336 -3.6388 17.4192 0.3006 -1.7034 8.0992 -0.0000 -0.0000 0.0000 -86.9785 8.2099 22.9822 11.5580 -19.1385 -1.9550 -0.0000 0.0000 -4.0454 27.6459 20.2483 10.2752 -7.1250 0.0000 -0.0000 -0.8527 52.5860 -0.1592 -0.0000 -0.0000 0.0000 88.9239 5.0094 11.1914 -15.5409 24.8943 -3.4504 0.0000 0.0000 4.3124 -20.4129 22.1898 -8.0007 7.1250 -0.0000 -0.0000 5.3009 -6.5447 4.6827
4.2865 17.8087 38.1169 0.0691 -4.6624 -4.9910 0.0000 0.0000 0.0000 -23.9906 -8.1952 -8.6869 2.7268 10.2391 29.7544 0.3669 -2.7544 -10.8242 0.0032 0.3643 1.0010 0.0000 0.0000 0.0000 20.9802 4.8795 -15.4684 -15.7113 -19.5532 77.3705 0.2348 -8.9182 -0.5773 -0.2639 -3.3047 9.1283 -0.1902 1.7166 10.3356 0.6871 2.2906 1.2355 0.4997 1.1400 -4.5404 -1.5801 -2.6759 -15.7383 1.2210 -3.5457 17.6673 0.2576 -1.6642 8.1221 0.0000 -0.0000 0.0000 -86.5179 7.5343 23.5793 11.7965 -19.4987 -2.0339 -0.0000 0.0000 -3.6792 27.1628 23.8518 11.7218 -7.1250 0.0000 -0.0000 -2.3274 56.3893 -0.6502 0.0000 -0.0000 0.0000 89.1680 4.7478 10.9872 -15.4309 24.7430 -3.4043 0.0000 0.0000 4.5308 -20.1185 21.5372 -7.6589 7.1250 -0.0000 -0.0000 5.4336 -7.2675 4.7244
4.2906 17.7934 38.4465 0.6566 -4.3745 -4.6867 0.0000 0.0000 0.0000 -24.9352 -7.8959 -7.6352 2.7028 10.1977 29.6194 0.4431 -2.7450 -11.9302 0.0028 0.3391 0.9317 0.0000 0.0000 0.0000 20.1801 5.6017 -18.6791 -15.8727 -19.5866 77.8522 0.1963 -7.8793 -1.9295 -0.1383 -2.3965 6.6027 -0.8728 1.4849 10.4294 0.5966 1.9014 1.0075 0.8386 0.9609 -4.8453 -1.6736 -2.5284 -15.3464 1.3630 -3.3571 17.7317 0.3465 -1.5692 8.0756 -0.0000 0.0000 0.0000 -85.8931 6.5129 24.2387 11.7576 -19.4402 -2.0209 -0.0000 0.0000 -4.0128 26.7730 20.3169 9.9365 -7.1250 0.0000 -0.0000 -1.7689 52.4952 -0.3264 -0.0000 0.0000 0.0000 89.4732 3.9596 10.8472 -15.7471 25.1766 -3.5377 0.0000 0.0000 3.5686 -19.2036 20.1161 -6.8310 7.1250 -0.0000 -0.0000 5.9152 -8.8725 4.9593
4.3043 17.8019 38.8261 1.2810 -3.8249 -4.8518 0.0000 0.0000 0.0000 -26.0849 -7.4955 -5.9149 2.6889 10.1735 29.5405 0.5420 -2.7888 -13.2316 0.0011 0.2130 0.5853 0.0000 0.0000 0.0000 19.2245 5.8083 -20.8428 -15.6843 -19.5475 77.2897 0.1264 -6.3152 -2.8847 -0.2758 -3.3781 9.3331 -1.3444 1.1746 10.3059 0.5031 1.4319 1.1650 1.0789 0.7356 -4.6099 -1.4244 -2.3320 -15.4959 0.9637 -3.0646 17.8426 0.2043 -1.4528 8.1236 -0.0000 -0.0000 0.0000 -85.3701 5.6758 25.7973 12.0489 -19.8779 -2.1189 -0.0000 0.0000 -4.6246 29.2393 17.5892 9.6013 -7.1250 0.0000 -0.0000 1.2580 49.9416 0.1533 -0.0000 -0.0000 0.0000 89.6148 3.7044 10.5878 -15.8339 25.2949 -3.5747 0.0000 0.0000 3.0059 -19.9041 22.4055 -7.8577 7.1250 -0.0000 -0.0000 5.6385 -6.3996 4.9997
4.3039 17.7711 39.1586 0.6650 -3.7030 -4.7340 0.0000 0.0000 0.0000 -25.5909 -7.0999 -5.1828 2.7749 10.3215 30.0242 0.6448 -3.0148 -14.4428 0.0032 0.3654 1.0041 0.0000 0.0000 0.0000 20.0069 6.7942 -23.0290 -15.2538 -19.4511 76.0000 0.0581 -5.1501 -4.9423 -0.1386 -2.3993 6.6104 -0.7342 0.9744 10.7805 0.7734 1.2470 0.9110 1.0341 0.6382 -5.1280 -1.4090 -2.2551 -15.0539 0.7012 -2.9119 17.5856 0.1386 -1.4090 7.9529 -0.0000 -0.0000 0.0000 -84.8644 4.8139 25.9650 12.0764 -19.9191 -2.1282 -0.0000 0.0000 -2.2953 30.8897 15.5124 9.0902 -7.1250 0.0000 -0.0000 3.1402 47.8778 0.2232 -0.0000 -0.0000 0.0000 89.7425 2.6672 10.6561 -16.1886 25.7757 -3.7276 0.0000 0.0000 1.8777 -19.3508 20.8956 -7.1395 7.1250 -0.0000 -0.0000 5.8737 -8.0447 5.0210
4.2994 17.7448 39.4841 0.6038 -3.3959 -4.4131 0.0000 0.0000 0.0000 -25.6616 -6.7949 -4.4842 2.7984 10.3614 30.1552 0.7314 -3.2922 -15.3773 0.0015 0.2497 0.6862 0.0000 0.0000 0.0000 19.9989 7.7634 -25.4059 -14.6207 -19.2916 74.0915 -0.0339 -4.1778 -7.1550 -0.0946 -1.9841 5.4616 -0.7936 0.7215 10.6924 0.8466 0.9082 0.9303 1.1962 0.4729 -5.0523 -3.3551 -3.1877 -14.7281 2.7015 -4.1456 17.3209 0.9849 -1.9297 7.9097 0.0000 0.0000 0.0000 -84.1088 3.5660 27.9488 12.1048 -19.9617 -2.1379 -0.0000 0.0000 -5.2146 31.1488 13.3344 7.9356 -7.1250 0.0000 -0.0000 3.5565 45.4299 0.0378 0.0000 0.0000 0.0000 89.8035 2.4723 11.0989 -16.2141 25.8100 -3.7387 0.0000 0.0000 1.2890 -19.5102 20.9586 -7.2230 7.1250 -0.0000 -0.0000 5.7765 -7.9568 4.9471
4.3041 17.7294 39.8441 1.3526 -2.8218 -4.3539 0.0000 0.0000 0.0000 -26.8175 -6.3319 -2.8646 2.6616 10.1260 29.3856 0.7988 -3.1953 -16.1084 0.0015 -0.2541 -0.6981 0.0000 0.0000 0.0000 18.8883 8.0046 -27.1957 -13.7357 -19.0319 71.3957 -0.1382 -3.1666 -8.9269 -0.0569 -1.5387 4.2323 -1.4323 0.4655 10.6751 0.6809 0.4837 0.9560 1.4467 0.2751 -5.0076 -3.5515 -3.1703 -14.5318 2.9448 -4.1245 17.0640 1.1032 -1.9118 7.7988 -0.0000 -0.0000 0.0000 -83.7007 2.4915 27.6470 12.1952 -20.0968 -2.1689 -0.0000 0.0000 -3.6108 33.7430 11.4872 7.5776 -7.1250 0.0000 -0.0000 6.0512 43.6306 -0.2053 -0.0000 -0.0000 0.0000 89.8575 1.8882 11.5480 -16.4717 26.1561 -3.8516 0.0000 0.0000 0.9028 -19.3199 20.8905 -7.1257 7.1250 -0.0000 -0.0000 5.8930 -8.0544 5.0366
4.2941 17.7056 40.1939 1.7795 -2.4798 -4.4203 0.0000 0.0000 0.0000 -27.4683 -5.7269 -1.3649 2.5564 9.9397 28.7817 0.8807 -3.3293 -16.9247 0.0045 -0.4334 -1.1909 0.0000 0.0000 0.0000 18.3543 8.5334 -28.5531 -12.5941 -18.6307 67.8600 -0.1986 -3.0842 -10.1392 -0.0206 -0.9266 2.5470 -2.0038 0.2556 10.6097 0.6410 0.1375 1.2087 1.7784 0.1101 -4.6952 -2.9196 -3.0709 -15.2127 2.0944 -3.9586 17.6889 0.7258 -1.8666 8.0900 -0.0000 -0.0000 0.0000 -83.2003 1.0072 27.1306 12.4630 -20.4954 -2.2618 -0.0000 0.0000 -2.1405 31.9702 15.1184 9.2459 -7.1250 0.0000 -0.0000 4.2291 47.5999 0.2718 -0.0000 -0.0000 0.0000 90.0192 1.5287 11.8273 -16.7478 26.5241 -3.9741 0.0000 0.0000 0.4122 -19.4567 22.2577 -7.6214 7.1250 -0.0000 -0.0000 5.9077 -6.6205 5.2157
4.2780 17.7028 40.5246 1.0203 -2.3364 -4.2254 0.0000 0.0000 0.0000 -26.6478 -5.1101 -0.2213 2.4537 9.7532 28.1812 0.9346 -3.6409 -17.4089 0.0066 -0.5261 -1.4455 0.0000 0.0000 0.0000 19.2305 9.4021 -29.5263 -11.2054 -18.0341 63.4467 -0.2309 -3.6356 -11.1629 -0.0037 -0.3926 1.0788 -1.4821 0.0664 11.1688 0.9949 -0.0416 0.9919 1.8837 0.0221 -5.2262 -3.1944 -3.1704 -15.1618 2.4605 -4.1056 17.6233 0.8763 -1.9188 8.0772 0.0000 0.0000 0.0000 -82.5677 -0.0230 28.4157 12.7719 -20.9522 -2.3711 -0.0000 0.0000 -3.7495 31.8963 17.5566 10.6325 -7.1250 0.0000 -0.0000 3.9464 50.3766 0.5237 0.0000 0.0000 0.0000 90.0178 0.4767 12.3049 -17.2688 27.2108 -4.2095 0.0000 0.0000 0.4559 -19.6769 22.5158 -7.7975 7.1250 -0.0000 -0.0000 5.7900 -6.3204 5.1444
4.2798 17.6971 40.8771 2.1539 -1.5700 -3.8663 0.0000 0.0000 0.0000 -27.9890 -4.5727 1.3399 2.2273 9.3242 26.8149 0.9730 -4.3277 -17.6945 0.0001 -0.0735 -0.2019 0.0000 0.0000 0.0000 17.6362 9.3838 -30.7070 -9.7337 -17.2574 58.5945 -0.2247 -4.1605 -11.4714 -0.0039 -0.4021 1.1049 -2.4997 -0.2120 10.9657 0.7467 -0.5458 1.0354 2.2733 -0.2097 -5.0380 -3.2686 -3.0362 -14.9256 2.6400 -3.9306 17.0007 0.9732 -1.8271 7.8283 0.0000 -0.0000 0.0000 -82.0559 -1.5537 29.0453 12.7122 -20.8641 -2.3498 -0.0000 0.0000 -4.5686 28.6427 19.9450 10.5540 -7.1250 0.0000 -0.0000 0.2430 52.4439 0.0445 0.0000 -0.0000 0.0000 89.9977 0.2130 12.4710 -17.4164 27.4035 -4.2772 0.0000 0.0000 0.3278 -19.4144 22.3427 -7.6309 7.1250 -0.0000 -0.0000 5.9409 -6.5390 5.2547
4.2620 17.6939 41.2362 2.8649 -1.2420 -3.6141 0.0000 0.0000 0.0000 -28.7183 -3.6115 3.1430 1.9472 8.7552 25.0325 0.9772 -5.1089 -17.6720 0.0202 0.9181 2.5234 0.0000 0.0000 0.0000 16.6658 9.9732 -31.1380 -8.1639 -16.2385 53.1509 -0.1780 -5.4776 -11.8271 -0.0020 -0.2868 0.7881 -3.5101 -0.3964 10.8447 0.6906 -0.9108 1.1129 2.8368 -0.3741 -4.8535 -3.0536 -2.9458 -15.3027 2.4735 -3.8087 16.8546 0.8925 -1.7684 7.8348 0.0000 -0.0000 0.0000 -81.6790 -2.4601 29.2286 13.2271 -21.6191 -2.5364 -0.0000 0.0000 -5.9846 28.8388 18.7011 10.0125 -7.1250 0.0000 -0.0000 0.6754 51.1064 0.1016 0.0000 -0.0000 0.0000 89.8844 0.2117 12.9436 -17.0587 26.9351 -4.1139 0.0000 -0.0000 -0.1505 -19.3099 22.1640 -7.5302 7.1250 -0.0000 -0.0000 5.9927 -6.7392 5.2777
4.2486 17.6848 41.5750 2.9547 -0.8181 -2.9159 0.0000 0.0000 0.0000 -28.7571 -3.0183 4.2003 1.7161 8.2478 23.4694 0.9800 -5.3738 -17.6834 0.0358 1.2213 3.3578 0.0000 0.0000 0.0000 16.2955 10.5912 -31.6416 -6.4863 -14.8836 46.9037 -0.0510 -6.9136 -10.9934 -0.0057 -0.4859 1.3352 -3.5612 -0.5732 10.5310 0.6790 -1.1440 0.8912 2.8838 -0.4841 -4.8931 -2.8346 -2.7642 -14.4428 2.5353 -3.6256 16.0326 0.9102 -1.6723 7.4044 -0.0000 -0.0000 0.0000 -81.0364 -3.4029 31.9674 13.4235 -21.9045 -2.6092 -0.0000 0.0000 -11.9856 34.3263 15.1794 10.1370 -7.1250 0.0000 -0.0000 6.5473 48.0572 0.4958 -0.0000 -0.0000 0.0000 90.0901 -0.0923 12.3103 -17.0713 26.9516 -4.1196 0.0000 0.0000 1.0532 -18.9144 20.9781 -6.9938 7.1250 -0.0000 -0.0000 6.1575 -8.0210 5.2694
4.2273 17.6907 41.9304 2.9878 -0.4942 -2.3493 0.0000 0.0000 0.0000 -28.6012 -1.9476 5.2317 1.4783 7.6825 21.7537 0.9517 -5.5991 -17.4123 0.0018 0.2777 0.7630 0.0000 0.0000 0.0000 15.9053 11.7681 -31.3382 -4.8019 -13.1572 39.9599 0.1188 -8.8372 -10.0350 -0.0060 -0.5019 1.3790 -3.7549 -0.7665 10.2733 0.7698 -1.4101 0.8053 3.1210 -0.6112 -4.8123 -2.9716 -3.0173 -15.3065 2.5671 -3.9462 16.9006 0.8941 -1.8191 7.8550 0.0000 -0.0000 0.0000 -80.6717 -4.7359 29.5526 13.8915 -22.5794 -2.7863 -0.0000 0.0000 -6.2556 30.3876 21.9368 12.3566 -7.1250 0.0000 -0.0000 1.6893 54.9988 0.4149 0.0000 -0.0000 0.0000 90.2230 -0.5292 12.2236 -16.9520 26.7944 -4.0657 0.0000 0.0000 0.3595 -18.3186 21.0165 -6.7714 7.1250 -0.0000 -0.0000 6.5396 -8.0639 5.5951
4.2016 17.6859 42.3089 2.9148 -0.0701 -2.0993 0.0000 0.0000 0.0000 -28.3022 -0.8123 7.0807 1.2389 7.0580 19.8874 0.9545 -5.6948 -17.4354 0.0313 -1.1423 -3.1406 0.0000 0.0000 0.0000 15.7010 12.6334 -30.1397 -3.3024 -11.1692 32.8526 0.2366 -10.3336 -9.9208 -0.0013 -0.2350 0.6457 -3.9765 -0.9789 10.5594 0.9938 -1.7205 0.6402 3.5364 -0.7471 -5.1074 -3.2041 -2.8783 -15.7065 2.7280 -3.7270 17.1678 1.0053 -1.7093 8.0159 -0.0000 0.0000 0.0000 -80.4418 -5.7099 29.8615 14.0485 -22.8039 -2.8469 -0.0000 0.0000 -6.9668 29.5100 20.1016 11.0081 -7.1250 0.0000 -0.0000 1.1157 52.7848 0.2137 -0.0000 0.0000 0.0000 90.1550 -0.1745 10.5565 -15.9378 25.4362 -3.6192 0.0000 0.0000 2.7368 -17.6713 21.3328 -6.6109 7.1250 -0.0000 -0.0000 6.9712 -7.8272 6.0026
4.1795 17.6783 42.6858 2.8181 0.3983 -1.6869 0.0000 0.0000 0.0000 -27.8506 0.2721 8.8568 0.9987 6.3597 17.8316 0.9014 -6.4606 -16.9358 0.0638 -1.6297 -4.4834 0.0000 0.0000 0.0000 15.0620 14.2716 -28.9386 -2.1394 -9.1506 26.2675 0.3184 -11.8931 -11.3381 -0.0366 1.2355 -3.3970 -3.8509 -1.0918 9.7132 1.0353 -1.8192 0.7538 3.4926 -0.8158 -4.5084 -3.6655 -3.1178 -15.3420 3.4296 -4.0913 16.9384 1.2760 -1.8474 7.9124 -0.0000 0.0000 0.0000 -80.1356 -6.9305 30.2768 14.2813 -23.1354 -2.9377 -0.0000 0.0000 -7.2433 29.0440 20.4328 10.9715 -7.1250 0.0000 -0.0000 0.5634 53.0595 0.1117 -0.0000 0.0000 0.0000 90.2766 -0.2464 9.6671 -15.5012 24.8396 -3.4337 0.0000 0.0000 2.7059 -17.6220 22.0152 -6.7902 7.1250 -0.0000 -0.0000 7.0454 -7.1351 6.1637
4.1620 17.6636 43.0695 3.5246 1.3954 -1.4296 0.0000 0.0000 0.0000 -28.3360 0.6943 11.0336 0.7878 5.6660 15.8184 0.8170 -7.2815 -16.1719 0.0670 -1.6701 -4.5947 0.0000 0.0000 0.0000 13.2934 15.5292 -27.4903 -1.3182 -7.2719 20.5235 0.3105 -12.7475 -13.3518 -0.0399 1.2893 -3.5452 -4.4538 -1.3718 9.4547 0.8848 -2.2558 0.5774 3.7253 -1.0186 -4.4936 -3.7611 -3.1831 -14.5460 3.5923 -4.2091 16.6474 1.3421 -1.9048 7.6858 -0.0000 0.0000 0.0000 -79.9559 -7.3529 30.8627 14.6728 -23.6883 -3.0933 -0.0000 0.0000 -7.8908 29.2470 20.4562 11.0729 -7.1250 0.0000 -0.0000 0.7716 53.1254 0.1542 -0.0000 0.0000 0.0000 90.4001 -1.0796 8.9892 -15.3110 24.5775 -3.3542 0.0000 0.0000 2.4064 -17.7589 21.3267 -6.6438 7.1250 -0.0000 -0.0000 6.9151 -7.8215 5.9544
4.1283 17.6496 43.4532 3.5327 1.9681 -1.1005 0.0000 0.0000 0.0000 -27.9464 1.0443 12.4566 0.6956 5.3314 14.8563 0.7448 -8.0690 -15.5520 0.0868 -1.9008 -5.2315 0.0000 0.0000 0.0000 11.9601 18.3952 -25.9187 -0.8088 -5.7394 16.0300 0.2845 -14.1335 -16.4162 -0.0026 0.3277 -0.9004 -4.7377 -1.5779 9.5095 1.0370 -2.5565 0.5234 4.0859 -1.1581 -4.5329 -3.7336 -3.3138 -15.4010 3.6700 -4.3918 16.9592 1.3311 -1.9700 7.9486 0.0000 0.0000 0.0000 -79.9159 -8.2384 30.8195 14.9910 -24.1336 -3.2223 -0.0000 0.0000 -7.5667 29.0207 19.6961 10.5908 -7.1250 0.0000 -0.0000 0.6827 52.2414 0.1217 0.0000 0.0000 0.0000 90.4919 -1.1232 7.8861 -14.8770 23.9745 -3.1758 0.0000 0.0000 3.2846 -17.4434 21.6709 -6.6185 7.1250 -0.0000 -0.0000 7.1364 -7.5119 6.1917
4.0999 17.6103 43.8377 3.0116 2.3413 -1.0621 0.0000 0.0000 0.0000 -27.0160 1.2947 13.4435 0.7455 5.5152 15.3840 0.7210 -8.8069 -15.4325 0.1640 -2.6091 -7.1922 0.0000 0.0000 0.0000 12.3053 19.0905 -24.9762 -0.6131 -5.0116 13.9417 0.1401 -14.0185 -18.2280 -0.0492 1.4309 -3.9352 -4.3246 -1.7096 9.6356 1.2655 -2.6751 0.8787 4.1023 -1.2388 -4.2263 -3.4967 -3.2889 -16.7501 3.5440 -4.3539 17.2132 1.2375 -1.9303 8.2623 0.0000 0.0000 0.0000 -79.7072 -9.8619 31.3026 15.0585 -24.2276 -3.2499 -0.0000 0.0000 -8.0304 28.9313 17.4940 9.4339 -7.1250 0.0000 -0.0000 0.9642 49.7826 0.1137 0.0000 0.0000 0.0000 90.6178 -0.7609 7.8927 -14.7683 23.8224 -3.1318 0.0000 0.0000 2.1866 -17.9029 21.3441 -6.7060 7.1250 -0.0000 -0.0000 6.8248 -7.7840 5.8806
4.0787 17.5618 44.2169 3.2339 2.6471 -0.9350 0.0000 0.0000 0.0000 -26.9887 1.3640 14.3189 0.8460 5.8666 16.3979 0.7678 -9.1069 -15.9335 0.2996 -3.5194 -9.7283 0.0000 0.0000 0.0000 13.2756 16.0702 -26.4599 -0.7441 -5.5104 15.3702 0.0640 -11.2735 -15.0876 -0.1579 2.5605 -7.0574 -4.4761 -1.7312 9.6991 1.2361 -2.7277 0.6833 4.1724 -1.2516 -4.4558 -3.3672 -3.1606 -15.7034 3.4945 -4.2133 16.6580 1.2304 -1.8766 7.8826 -0.0000 0.0000 0.0000 -79.6876 -10.1463 32.2510 15.2914 -24.5505 -3.3461 -0.0000 0.0000 -8.7895 30.4171 18.2744 10.4311 -7.1250 0.0000 -0.0000 2.3506 50.9183 0.3429 -0.0000 0.0000 0.0000 90.7368 -1.9827 6.9242 -15.1090 24.2977 -3.2707 0.0000 0.0000 3.6353 -18.6671 20.7619 -6.8292 7.1250 -0.0000 -0.0000 6.3010 -8.2784 5.3615
4.0452 17.5047 44.6098 3.6592 2.1953 -1.2031 0.0000 0.0000 0.0000 -27.5114 1.1019 15.3088 0.9741 6.2832 17.6085 0.6717 -9.3064 -15.0460 0.1886 -2.7972 -7.7147 0.0000 0.0000 0.0000 14.2601 13.9355 -27.7653 -1.0594 -6.5442 18.3718 -0.0380 -8.2313 -12.4643 -0.0214 0.9440 -2.5948 -5.0113 -1.4656 10.0542 1.1718 -2.4526 0.7424 4.3867 -1.1019 -4.6013 -3.2742 -3.2124 -15.5584 3.4143 -4.2884 16.4610 1.1821 -1.9171 7.7906 -0.0000 0.0000 0.0000 -79.8239 -10.5052 32.8077 15.5570 -24.9164 -3.4572 -0.0000 0.0000 -8.7041 33.0841 19.0690 12.0160 -7.1250 0.0000 -0.0000 5.0232 52.3305 0.9083 -0.0000 0.0000 0.0000 90.7812 -2.0297 5.9087 -14.3410 23.2201 -2.9612 0.0000 0.0000 3.4535 -18.0111 25.7651 -8.0443 7.1250 -0.0000 -0.0000 7.0909 -3.2479 6.7303
4.0143 17.4668 45.0386 2.8668 1.8063 -1.4293 0.0000 0.0000 0.0000 -26.7300 0.7593 15.9899 1.1626 6.8451 19.2572 0.4456 -10.3180 -12.9940 0.1497 -2.4931 -6.8704 0.0000 0.0000 0.0000 16.0397 13.5906 -27.9102 -1.4427 -7.5934 21.4859 -0.0332 -7.4809 -11.3688 -0.0216 0.9485 -2.6071 -4.3113 -1.3986 9.7645 1.4055 -2.2585 0.9250 4.1947 -1.0309 -4.2865 -3.6585 -3.4978 -15.7672 4.0017 -4.7026 16.5908 1.3880 -2.0770 7.9100 0.0000 -0.0000 0.0000 -79.8893 -10.7594 33.2520 15.8115 -25.2644 -3.5651 -0.0000 0.0000 -8.4906 30.7166 18.1891 10.5071 -7.1250 0.0000 -0.0000 2.6682 50.8773 0.3866 0.0000 -0.0000 0.0000 90.9938 -2.4254 5.1898 -14.2439 23.0823 -2.9230 0.0000 0.0000 4.4647 -18.6542 21.2513 -6.9762 7.1250 -0.0000 -0.0000 6.3416 -7.7756 5.4597
3.9786 17.4783 45.4688 2.3360 1.7731 -1.2691 0.0000 0.0000 0.0000 -26.1066 0.6208 16.4467 1.4166 7.5273 21.2872 0.4868 -9.5007 -13.1863 1.3989 -7.4821 -21.1518 0.0000 0.0000 0.0000 16.6781 14.6586 -28.0716 -1.8297 -8.5020 24.2494 0.0665 -7.3303 -8.7723 -0.0076 -0.5612 1.5423 -3.8095 -1.4616 9.7766 1.6146 -2.2820 0.6278 4.1420 -1.0355 -4.6131 -3.7032 -3.5875 -15.9481 3.7951 -4.7901 17.1617 1.3127 -2.1356 8.1315 -0.0000 0.0000 0.0000 -80.1685 -10.1143 33.5711 16.1949 -25.7843 -3.7304 -0.0000 0.0000 -7.9541 32.3434 17.5517 10.8112 -7.1250 0.0000 -0.0000 4.4031 50.4529 0.5927 -0.0000 0.0000 0.0000 91.0034 -2.6892 3.9697 -13.2697 21.6811 -2.5521 0.0000 0.0000 4.6563 -19.0914 23.8974 -7.9814 7.1250 -0.0000 -0.0000 6.2689 -4.9871 5.7354
3.9421 17.4892 45.9100 2.0756 1.8564 -1.3624 0.0000 0.0000 0.0000 -25.6929 0.2917 16.6781 1.7866 8.4066 23.9559 0.1646 -10.7703 -9.8775 0.7929 -5.6840 -15.8704 0.0000 0.0000 0.0000 16.6362 16.3306 -27.6698 -2.1196 -9.1110 26.1431 0.1453 -7.9202 -7.3264 -0.0007 0.1766 -0.4852 -3.6157 -1.5752 9.6732 1.7753 -2.3989 0.8361 4.2057 -1.1075 -4.3265 -3.5759 -3.3401 -16.3018 3.7315 -4.4430 16.8077 1.3083 -1.9668 8.0571 0.0000 -0.0000 0.0000 -80.5086 -10.0743 33.5231 16.6120 -26.3435 -3.9136 -0.0000 0.0000 -7.2006 33.3351 17.8610 11.4057 -7.1250 0.0000 -0.0000 5.3960 50.9935 0.7988 0.0000 -0.0000 0.0000 90.8119 -2.4877 4.0498 -12.9193 21.1688 -2.4241 0.0000 0.0000 4.8717 -19.2068 22.9322 -7.7301 7.1250 -0.0000 -0.0000 6.1177 -5.9624 5.4812
3.9079 17.5244 46.3630 1.3492 1.5364 -1.5848 0.0000 0.0000 0.0000 -24.8253 0.4020 14.9424 2.4104 9.6731 27.9245 -0.1510 -12.1854 -6.2900 1.6617 -8.1228 -23.0875 0.0000 0.0000 0.0000 17.6685 17.1624 -26.6428 -2.2817 -9.4297 27.1488 0.0571 -5.2799 -5.2812 -0.0030 -0.3531 0.9702 -2.9968 -1.6179 9.4133 2.0916 -2.3682 1.0919 4.1647 -1.1153 -3.9287 -3.3820 -3.2085 -17.0879 3.2027 -4.1997 17.4688 1.1188 -1.8796 8.3917 -0.0000 -0.0000 0.0000 -81.0667 -9.9056 33.1140 16.8338 -26.6381 -4.0125 -0.0000 0.0000 -6.5716 34.2389 17.5946 11.6252 -7.1250 0.0000 -0.0000 6.3513 50.8584 0.9200 -0.0000 -0.0000 0.0000 90.7741 -1.9054 2.5595 -12.3016 20.2554 -2.2056 0.0000 0.0000 6.8976 -19.0286 22.2579 -7.4427 7.1250 -0.0000 -0.0000 6.1768 -6.6841 5.4484
3.8870 17.5779 46.8227 0.6607 1.0080 -1.7980 0.0000 0.0000 0.0000 -23.8653 0.4369 13.0385 3.2398 11.0735 32.5282 -0.5052 -13.2099 0.2308 1.5274 -7.8032 -22.1178 0.0000 0.0000 0.0000 19.1956 16.8496 -25.6766 -2.4756 -9.7934 28.3102 0.0560 -4.4462 -3.1956 -0.1765 -2.7065 7.4627 -2.1500 -1.6511 9.9320 2.2862 -2.3197 0.5370 3.9230 -1.0762 -4.8288 -3.3324 -2.9714 -16.3128 2.9238 -3.8643 17.8285 1.0671 -1.7545 8.3562 -0.0000 0.0000 0.0000 -81.6256 -7.9933 32.8758 17.1375 -27.0387 -4.1497 -0.0000 0.0000 -6.6428 32.8382 17.0830 10.7353 -7.1250 0.0000 -0.0000 4.9484 50.0059 0.6120 -0.0000 0.0000 0.0000 90.7379 -2.5468 1.1202 -11.6220 19.2353 -1.9760 0.0000 0.0000 8.2817 -18.9164 22.1155 -7.3515 7.1250 -0.0000 -0.0000 6.2369 -6.8473 5.4822
3.8870 17.5779 46.8227 0.6607 1.0080 -1.7980 0.0000 0.0000 0.0000 -23.8653 0.4369 13.0385 3.2398 11.0735 32.5282 -0.5052 -13.2099 0.2308 1.5274 -7.8032 -22.1178 0.0000 0.0000 0.0000 19.1956 16.8496 -25.6766 -2.4756 -9.7934 28.3102 0.0560 -4.4462 -3.1956 -0.1765 -2.7065 7.4627 -2.1500 -1.6511 9.9320 2.2862 -2.3197 0.5370 3.9230 -1.0762 -4.8288 -3.3324 -2.9714 -16.3128 2.9238 -3.8643 17.8285 1.0671 -1.7545 8.3562 -0.0000 0.0000 0.0000 -81.6256 -7.9933 32.8758 17.1375 -27.0387 -4.1497 -0.0000 0.0000 -6.6428 32.8382 17.0830 10.7353 -7.1250 0.0000 -0.0000 4.9484 50.0059 0.6120 -0.0000 0.0000 0.0000 90.7379 -2.5468 1.1202 -11.6220 19.2353 -1.9760 0.0000 0.0000 8.2817 -18.9164 22.1155 -7.3515 7.1250 -0.0000 -0.0000 6.2369 -6.8473 5.4822
3.8870 17.5779 46.8227 0.6607 1.0080 -1.7980 0.0000 0.0000 0.0000 -23.8653 0.4369 13.0385 3.2398 11.0735 32.5282 -0.5052 -13.2099 0.2308 1.5274 -7.8032 -22.1178 0.0000 0.0000 0.0000 19.1956 16.8496 -25.6766 -2.4756 -9.7934 28.3102 0.0560 -4.4462 -3.1956 -0.1765 -2.7065 7.4627 -2.1500 -1.6511 9.9320 2.2862 -2.3197 0.5370 3.9230 -1.0762 -4.8288 -3.3324 -2.9714 -16.3128 2.9238 -3.8643 17.8285 1.0671 -1.7545 8.3562 -0.0000 0.0000 0.0000 -81.6256 -7.9933 32.8758 17.1375 -27.0387 -4.1497 -0.0000 0.0000 -6.6428 32.8382 17.0830 10.7353 -7.1250 0.0000 -0.0000 4.9484 50.0059 0.6120 -0.0000 0.0000 0.0000 90.7379 -2.5468 1.1202 -11.6220 19.2353 -1.9760 0.0000 0.0000 8.2817 -18.9164 22.1155 -7.3515 7.1250 -0.0000 -0.0000 6.2369 -6.8473 5.4822
3.8870 17.5779 46.8227 0.6607 1.0080 -1.7980 0.0000 0.0000 0.0000 -23.8653 0.4369 13.0385 3.2398 11.0735 32.5282 -0.5052 -13.2099 0.2308 1.5274 -7.8032 -22.1178 0.0000 0.0000 0.0000 19.1956 16.8496 -25.6766 -2.4756 -9.7934 28.3102 0.0560 -4.4462 -3.1956 -0.1765 -2.7065 7.4627 -2.1500 -1.6511 9.9320 2.2862 -2.3197 0.5370 3.9230 -1.0762 -4.8288 -3.3324 -2.9714 -16.3128 2.9238 -3.8643 17.8285 1.0671 -1.7545 8.3562 -0.0000 0.0000 0.0000 -81.6256 -7.9933 32.8758 17.1375 -27.0387 -4.1497 -0.0000 0.0000 -6.6428 32.8382 17.0830 10.7353 -7.1250 0.0000 -0.0000 4.9484 50.0059 0.6120 -0.0000 0.0000 0.0000 90.7379 -2.5468 1.1202 -11.6220 19.2353 -1.9760 0.0000 0.0000 8.2817 -18.9164 22.1155 -7.3515 7.1250 -0.0000 -0.0000 6.2369 -6.8473 5.4822
3.8870 17.5779 46.8227 0.6607 1.0080 -1.7980 0.0000 0.0000 0.0000 -23.8653 0.4369 13.0385 3.2398 11.0735 32.5282 -0.5052 -13.2099 0.2308 1.5274 -7.8032 -22.1178 0.0000 0.0000 0.0000 19.1956 16.8496 -25.6766 -2.4756 -9.7934 28.3102 0.0560 -4.4462 -3.1956 -0.1765 -2.7065 7.4627 -2.1500 -1.6511 9.9320 2.2862 -2.3197 0.5370 3.9230 -1.0762 -4.8288 -3.3324 -2.9714 -16.3128 2.9238 -3.8643 17.8285 1.0671 -1.7545 8.3562 -0.0000 0.0000 0.0000 -81.6256 -7.9933 32.8758 17.1375 -27.0387 -4.1497 -0.0000 0.0000 -6.6428 32.8382 17.0830 10.7353 -7.1250 0.0000 -0.0000 4.9484 50.0059 0.6120 -0.0000 0.0000 0.0000 90.7379 -2.5468 1.1202 -11.6220 19.2353 -1.9760 0.0000 0.0000 8.2817 -18.9164 22.1155 -7.3515 7.1250 -0.0000 -0.0000 6.2369 -6.8473 5.4822
3.8870 17.5779 46.8227 0.6607 1.0080 -1.7980 0.0000 0.0000 0.0000 -23.8653 0.4369 13.0385 3.2398 11.0735 32.5282 -0.5052 -13.2099 0.2308 1.5274 -7.8032 -22.1178 0.0000 0.0000 0.0000 19.1956 16.8496 -25.6766 -2.4756 -9.7934 28.3102 0.0560 -4.4462 -3.1956 -0.1765 -2.7065 7.4627 -2.1500 -1.6511 9.9320 2.2862 -2.3197 0.5370 3.9230 -1.0762 -4.8288 -3.3324 -2.9714 -16.3128 2.9238 -3.8643 17.8285 1.0671 -1.7545 8.3562 -0.0000 0.0000 0.0000 -81.6256 -7.9933 32.8758 17.1375 -27.0387 -4.1497 -0.0000 0.0000 -6.6428 32.8382 17.0830 10.7353 -7.1250 0.0000 -0.0000 4.9484 50.0059 0.6120 -0.0000 0.0000 0.0000 90.7379 -2.5468 1.1202 -11.6220 19.2353 -1.9760 0.0000 0.0000 8.2817 -18.9164 22.1155 -7.3515 7.1250 -0.0000 -0.0000 6.2369 -6.8473 5.4822
3.8870 17.5779 46.8227 0.6607 1.0080 -1.7980 0.0000 0.0000 0.0000 -23.8653 0.4369 13.0385 3.2398 11.0735 32.5282 -0.5052 -13.2099 0.2308 1.5274 -7.8032 -22.1178 0.0000 0.0000 0.0000 19.1956 16.8496 -25.6766 -2.4756 -9.7934 28.3102 0.0560 -4.4462 -3.1956 -0.1765 -2.7065 7.4627 -2.1500 -1.6511 9.9320 2.2862 -2.3197 0.5370 3.9230 -1.0762 -4.8288 -3.3324 -2.9714 -16.3128 2.9238 -3.8643 17.8285 1.0671 -1.7545 8.3562 -0.0000 0.0000 0.0000 -81.6256 -7.9933 32.8758 17.1375 -27.0387 -4.1497 -0.0000 0.0000 -6.6428 32.8382 17.0830 10.7353 -7.1250 0.0000 -0.0000 4.9484 50.0059 0.6120 -0.0000 0.0000 0.0000 90.7379 -2.5468 1.1202 -11.6220 19.2353 -1.9760 0.0000 0.0000 8.2817 -18.9164 22.1155 -7.3515 7.1250 -0.0000 -0.0000 6.2369 -6.8473 5.4822
3.8870 17.5779 46.8227 0.6607 1.0080 -1.7980 0.0000 0.0000 0.0000 -23.8653 0.4369 13.0385 3.2398 11.0735 32.5282 -0.5052 -13.2099 0.2308 1.5274 -7.8032 -22.1178 0.0000 0.0000 0.0000 19.1956 16.8496 -25.6766 -2.4756 -9.7934 28.3102 0.0560 -4.4462 -3.1956 -0.1765 -2.7065 7.4627 -2.1500 -1.6511 9.9320 2.2862 -2.3197 0.5370 3.9230 -1.0762 -4.8288 -3.3324 -2.9714 -16.3128 2.9238 -3.8643 17.8285 1.0671 -1.7545 8.3562 -0.0000 0.0000 0.0000 -81.6256 -7.9933 32.8758 17.1375 -27.0387 -4.1497 -0.0000 0.0000 -6.6428 32.8382 17.0830 10.7353 -7.1250 0.0000 -0.0000 4.9484 50.0059 0.6120 -0.0000 0.0000 0.0000 90.7379 -2.5468 1.1202 -11.6220 19.2353 -1.9760 0.0000 0.0000 8.2817 -18.9164 22.1155 -7.3515 7.1250 -0.0000 -0.0000 6.2369 -6.8473 5.4822
3.8870 17.5779 46.8227 0.6607 1.0080 -1.7980 0.0000 0.0000 0.0000 -23.8653 0.4369 13.0385 3.2398 11.0735 32.5282 -0.5052 -13.2099 0.2308 1.5274 -7.8032 -22.1178 0.0000 0.0000 0.0000 19.1956 16.8496 -25.6766 -2.4756 -9.7934 28.3102 0.0560 -4.4462 -3.1956 -0.1765 -2.7065 7.4627 -2.1500 -1.6511 9.9320 2.2862 -2.3197 0.5370 3.9230 -1.0762 -4.8288 -3.3324 -2.9714 -16.3128 2.9238 -3.8643 17.8285 1.0671 -1.7545 8.3562 -0.0000 0.0000 0.0000 -81.6256 -7.9933 32.8758 17.1375 -27.0387 -4.1497 -0.0000 0.0000 -6.6428 32.8382 17.0830 10.7353 -7.1250 0.0000 -0.0000 4.9484 50.0059 0.6120 -0.0000 0.0000 0.0000 90.7379 -2.5468 1.1202 -11.6220 19.2353 -1.9760 0.0000 0.0000 8.2817 -18.9164 22.1155 -7.3515 7.1250 -0.0000 -0.0000 6.2369 -6.8473 5.4822
3.8870 17.5779 46.8227 0.6607 1.0080 -1.7980 0.0000 0.0000 0.0000 -23.8653 0.4369 13.0385 3.2398 11.0735 32.5282 -0.5052 -13.2099 0.2308 1.5274 -7.8032 -22.1178 0.0000 0.0000 0.0000 19.1956 16.8496 -25.6766 -2.4756 -9.7934 28.3102 0.0560 -4.4462 -3.1956 -0.1765 -2.7065 7.4627 -2.1500 -1.6511 9.9320 2.2862 -2.3197 0.5370 3.9230 -1.0762 -4.8288 -3.3324 -2.9714 -16.3128 2.9238 -3.8643 17.8285 1.0671 -1.7545 8.3562 -0.0000 0.0000 0.0000 -81.6256 -7.9933 32.8758 17.1375 -27.0387 -4.1497 -0.0000 0.0000 -6.6428 32.8382 17.0830 10.7353 -7.1250 0.0000 -0.0000 4.9484 50.0059 0.6120 -0.0000 0.0000 0.0000 90.7379 -2.5468 1.1202 -11.6220 19.2353 -1.9760 0.0000 0.0000 8.2817 -18.9164 22.1155 -7.3515 7.1250 -0.0000 -0.0000 6.2369 -6.8473 5.4822
3.8870 17.5779 46.8227 0.6607 1.0080 -1.7980 0.0000 0.0000 0.0000 -23.8653 0.4369 13.0385 3.2398 11.0735 32.5282 -0.5052 -13.2099 0.2308 1.5274 -7.8032 -22.1178 0.0000 0.0000 0.0000 19.1956 16.8496 -25.6766 -2.4756 -9.7934 28.3102 0.0560 -4.4462 -3.1956 -0.1765 -2.7065 7.4627 -2.1500 -1.6511 9.9320 2.2862 -2.3197 0.5370 3.9230 -1.0762 -4.8288 -3.3324 -2.9714 -16.3128 2.9238 -3.8643 17.8285 1.0671 -1.7545 8.3562 -0.0000 0.0000 0.0000 -81.6256 -7.9933 32.8758 17.1375 -27.0387 -4.1497 -0.0000 0.0000 -6.6428 32.8382 17.0830 10.7353 -7.1250 0.0000 -0.0000 4.9484 50.0059 0.6120 -0.0000 0.0000 0.0000 90.7379 -2.5468 1.1202 -11.6220 19.2353 -1.9760 0.0000 0.0000 8.2817 -18.9164 22.1155 -7.3515 7.1250 -0.0000 -0.0000 6.2369 -6.8473 5.4822
3.8870 17.5779 46.8227 0.6607 1.0080 -1.7980 0.0000 0.0000 0.0000 -23.8653 0.4369 13.0385 3.2398 11.0735 32.5282 -0.5052 -13.2099 0.2308 1.5274 -7.8032 -22.1178 0.0000 0.0000 0.0000 19.1956 16.8496 -25.6766 -2.4756 -9.7934 28.3102 0.0560 -4.4462 -3.1956 -0.1765 -2.7065 7.4627 -2.1500 -1.6511 9.9320 2.2862 -2.3197 0.5370 3.9230 -1.0762 -4.8288 -3.3324 -2.9714 -16.3128 2.9238 -3.8643 17.8285 1.0671 -1.7545 8.3562 -0.0000 0.0000 0.0000 -81.6256 -7.9933 32.8758 17.1375 -27.0387 -4.1497 -0.0000 0.0000 -6.6428 32.8382 17.0830 10.7353 -7.1250 0.0000 -0.0000 4.9484 50.0059 0.6120 -0.0000 0.0000 0.0000 90.7379 -2.5468 1.1202 -11.6220 19.2353 -1.9760 0.0000 0.0000 8.2817 -18.9164 22.1155 -7.3515 7.1250 -0.0000 -0.0000 6.2369 -6.8473 5.4822
3.8870 17.5779 46.8227 0.6607 1.0080 -1.7980 0.0000 0.0000 0.0000 -23.8653 0.4369 13.0385 3.2398 11.0735 32.5282 -0.5052 -13.2099 0.2308 1.5274 -7.8032 -22.1178 0.0000 0.0000 0.0000 19.1956 16.8496 -25.6766 -2.4756 -9.7934 28.3102 0.0560 -4.4462 -3.1956 -0.1765 -2.7065 7.4627 -2.1500 -1.6511 9.9320 2.2862 -2.3197 0.5370 3.9230 -1.0762 -4.8288 -3.3324 -2.9714 -16.3128 2.9238 -3.8643 17.8285 1.0671 -1.7545 8.3562 -0.0000 0.0000 0.0000 -81.6256 -7.9933 32.8758 17.1375 -27.0387 -4.1497 -0.0000 0.0000 -6.6428 32.8382 17.0830 10.7353 -7.1250 0.0000 -0.0000 4.9484 50.0059 0.6120 -0.0000 0.0000 0.0000 90.7379 -2.5468 1.1202 -11.6220 19.2353 -1.9760 0.0000 0.0000 8.2817 -18.9164 22.1155 -7.3515 7.1250 -0.0000 -0.0000 6.2369 -6.8473 5.4822
3.8870 17.5779 46.8227 0.6607 1.0080 -1.7980 0.0000 0.0000 0.0000 -23.8653 0.4369 13.0385 3.2398 11.0735 32.5282 -0.5052 -13.2099 0.2308 1.5274 -7.8032 -22.1178 0.0000 0.0000 0.0000 19.1956 16.8496 -25.6766 -2.4756 -9.7934 28.3102 0.0560 -4.4462 -3.1956 -0.1765 -2.7065 7.4627 -2.1500 -1.6511 9.9320 2.2862 -2.3197 0.5370 3.9230 -1.0762 -4.8288 -3.3324 -2.9714 -16.3128 2.9238 -3.8643 17.8285 1.0671 -1.7545 8.3562 -0.0000 0.0000 0.0000 -81.6256 -7.9933 32.8758 17.1375 -27.0387 -4.1497 -0.0000 0.0000 -6.6428 32.8382 17.0830 10.7353 -7.1250 0.0000 -0.0000 4.9484 50.0059 0.6120 -0.0000 0.0000 0.0000 90.7379 -2.5468 1.1202 -11.6220 19.2353 -1.9760 0.0000 0.0000 8.2817 -18.9164 22.1155 -7.3515 7.1250 -0.0000 -0.0000 6.2369 -6.8473 5.4822
3.8870 17.5779 46.8227 0.6607 1.0080 -1.7980 0.0000 0.0000 0.0000 -23.8653 0.4369 13.0385 3.2398 11.0735 32.5282 -0.5052 -13.2099 0.2308 1.5274 -7.8032 -22.1178 0.0000 0.0000 0.0000 19.1956 16.8496 -25.6766 -2.4756 -9.7934 28.3102 0.0560 -4.4462 -3.1956 -0.1765 -2.7065 7.4627 -2.1500 -1.6511 9.9320 2.2862 -2.3197 0.5370 3.9230 -1.0762 -4.8288 -3.3324 -2.9714 -16.3128 2.9238 -3.8643 17.8285 1.0671 -1.7545 8.3562 -0.0000 0.0000 0.0000 -81.6256 -7.9933 32.8758 17.1375 -27.0387 -4.1497 -0.0000 0.0000 -6.6428 32.8382 17.0830 10.7353 -7.1250 0.0000 -0.0000 4.9484 50.0059 0.6120 -0.0000 0.0000 0.0000 90.7379 -2.5468 1.1202 -11.6220 19.2353 -1.9760 0.0000 0.0000 8.2817 -18.9164 22.1155 -7.3515 7.1250 -0.0000 -0.0000 6.2369 -6.8473 5.4822
3.8870 17.5779 46.8227 0.6607 1.0080 -1.7980 0.0000 0.0000 0.0000 -23.8653 0.4369 13.0385 3.2398 11.0735 32.5282 -0.5052 -13.2099 0.2308 1.5274 -7.8032 -22.1178 0.0000 0.0000 0.0000 19.1956 16.8496 -25.6766 -2.4756 -9.7934 28.3102 0.0560 -4.4462 -3.1956 -0.1765 -2.7065 7.4627 -2.1500 -1.6511 9.9320 2.2862 -2.3197 0.5370 3.9230 -1.0762 -4.8288 -3.3324 -2.9714 -16.3128 2.9238 -3.8643 17.8285 1.0671 -1.7545 8.3562 -0.0000 0.0000 0.0000 -81.6256 -7.9933 32.8758 17.1375 -27.0387 -4.1497 -0.0000 0.0000 -6.6428 32.8382 17.0830 10.7353 -7.1250 0.0000 -0.0000 4.9484 50.0059 0.6120 -0.0000 0.0000 0.0000 90.7379 -2.5468 1.1202 -11.6220 19.2353 -1.9760 0.0000 0.0000 8.2817 -18.9164 22.1155 -7.3515 7.1250 -0.0000 -0.0000 6.2369 -6.8473 5.4822
3.8870 17.5779 46.8227 0.6607 1.0080 -1.7980 0.0000 0.0000 0.0000 -23.8653 0.4369 13.0385 3.2398 11.0735 32.5282 -0.5052 -13.2099 0.2308 1.5274 -7.8032 -22.1178 0.0000 0.0000 0.0000 19.1956 16.8496 -25.6766 -2.4756 -9.7934 28.3102 0.0560 -4.4462 -3.1956 -0.1765 -2.7065 7.4627 -2.1500 -1.6511 9.9320 2.2862 -2.3197 0.5370 3.9230 -1.0762 -4.8288 -3.3324 -2.9714 -16.3128 2.9238 -3.8643 17.8285 1.0671 -1.7545 8.3562 -0.0000 0.0000 0.0000 -81.6256 -7.9933 32.8758 17.1375 -27.0387 -4.1497 -0.0000 0.0000 -6.6428 32.8382 17.0830 10.7353 -7.1250 0.0000 -0.0000 4.9484 50.0059 0.6120 -0.0000 0.0000 0.0000 90.7379 -2.5468 1.1202 -11.6220 19.2353 -1.9760 0.0000 0.0000 8.2817 -18.9164 22.1155 -7.3515 7.1250 -0.0000 -0.0000 6.2369 -6.8473 5.4822
3.8870 17.5779 46.8227 0.6607 1.0080 -1.7980 0.0000 0.0000 0.0000 -23.8653 0.4369 13.0385 3.2398 11.0735 32.5282 -0.5052 -13.2099 0.2308 1.5274 -7.8032 -22.1178 0.0000 0.0000 0.0000 19.1956 16.8496 -25.6766 -2.4756 -9.7934 28.3102 0.0560 -4.4462 -3.1956 -0.1765 -2.7065 7.4627 -2.1500 -1.6511 9.9320 2.2862 -2.3197 0.5370 3.9230 -1.0762 -4.8288 -3.3324 -2.9714 -16.3128 2.9238 -3.8643 17.8285 1.0671 -1.7545 8.3562 -0.0000 0.0000 0.0000 -81.6256 -7.9933 32.8758 17.1375 -27.0387 -4.1497 -0.0000 0.0000 -6.6428 32.8382 17.0830 10.7353 -7.1250 0.0000 -0.0000 4.9484 50.0059 0.6120 -0.0000 0.0000 0.0000 90.7379 -2.5468 1.1202 -11.6220 19.2353 -1.9760 0.0000 0.0000 8.2817 -18.9164 22.1155 -7.3515 7.1250 -0.0000 -0.0000 6.2369 -6.8473 5.4822
3.8870 17.5779 46.8227 0.6607 1.0080 -1.7980 0.0000 0.0000 0.0000 -23.8653 0.4369 13.0385 3.2398 11.0735 32.5282 -0.5052 -13.2099 0.2308 1.5274 -7.8032 -22.1178 0.0000 0.0000 0.0000 19.1956 16.8496 -25.6766 -2.4756 -9.7934 28.3102 0.0560 -4.4462 -3.1956 -0.1765 -2.7065 7.4627 -2.1500 -1.6511 9.9320 2.2862 -2.3197 0.5370 3.9230 -1.0762 -4.8288 -3.3324 -2.9714 -16.3128 2.9238 -3.8643 17.8285 1.0671 -1.7545 8.3562 -0.0000 0.0000 0.0000 -81.6256 -7.9933 32.8758 17.1375 -27.0387 -4.1497 -0.0000 0.0000 -6.6428 32.8382 17.0830 10.7353 -7.1250 0.0000 -0.0000 4.9484 50.0059 0.6120 -0.0000 0.0000 0.0000 90.7379 -2.5468 1.1202 -11.6220 19.2353 -1.9760 0.0000 0.0000 8.2817 -18.9164 22.1155 -7.3515 7.1250 -0.0000 -0.0000 6.2369 -6.8473 5.4822
3.8870 17.5779 46.8227 0.6607 1.0080 -1.7980 0.0000 0.0000 0.0000 -23.8653 0.4369 13.0385 3.2398 11.0735 32.5282 -0.5052 -13.2099 0.2308 1.5274 -7.8032 -22.1178 0.0000 0.0000 0.0000 19.1956 16.8496 -25.6766 -2.4756 -9.7934 28.3102 0.0560 -4.4462 -3.1956 -0.1765 -2.7065 7.4627 -2.1500 -1.6511 9.9320 2.2862 -2.3197 0.5370 3.9230 -1.0762 -4.8288 -3.3324 -2.9714 -16.3128 2.9238 -3.8643 17.8285 1.0671 -1.7545 8.3562 -0.0000 0.0000 0.0000 -81.6256 -7.9933 32.8758 17.1375 -27.0387 -4.1497 -0.0000 0.0000 -6.6428 32.8382 17.0830 10.7353 -7.1250 0.0000 -0.0000 4.9484 50.0059 0.6120 -0.0000 0.0000 0.0000 90.7379 -2.5468 1.1202 -11.6220 19.2353 -1.9760 0.0000 0.0000 8.2817 -18.9164 22.1155 -7.3515 7.1250 -0.0000 -0.0000 6.2369 -6.8473 5.4822
3.8870 17.5779 46.8227 0.6607 1.0080 -1.7980 0.0000 0.0000 0.0000 -23.8653 0.4369 13.0385 3.2398 11.0735 32.5282 -0.5052 -13.2099 0.2308 1.5274 -7.8032 -22.1178 0.0000 0.0000 0.0000 19.1956 16.8496 -25.6766 -2.4756 -9.7934 28.3102 0.0560 -4.4462 -3.1956 -0.1765 -2.7065 7.4627 -2.1500 -1.6511 9.9320 2.2862 -2.3197 0.5370 3.9230 -1.0762 -4.8288 -3.3324 -2.9714 -16.3128 2.9238 -3.8643 17.8285 1.0671 -1.7545 8.3562 -0.0000 0.0000 0.0000 -81.6256 -7.9933 32.8758 17.1375 -27.0387 -4.1497 -0.0000 0.0000 -6.6428 32.8382 17.0830 10.7353 -7.1250 0.0000 -0.0000 4.9484 50.0059 0.6120 -0.0000 0.0000 0.0000 90.7379 -2.5468 1.1202 -11.6220 19.2353 -1.9760 0.0000 0.0000 8.2817 -18.9164 22.1155 -7.3515 7.1250 -0.0000 -0.0000 6.2369 -6.8473 5.4822
3.8870 17.5779 46.8227 0.6607 1.0080 -1.7980 0.0000 0.0000 0.0000 -23.8653 0.4369 13.0385 3.2398 11.0735 32.5282 -0.5052 -13.2099 0.2308 1.5274 -7.8032 -22.1178 0.0000 0.0000 0.0000 19.1956 16.8496 -25.6766 -2.4756 -9.7934 28.3102 0.0560 -4.4462 -3.1956 -0.1765 -2.7065 7.4627 -2.1500 -1.6511 9.9320 2.2862 -2.3197 0.5370 3.9230 -1.0762 -4.8288 -3.3324 -2.9714 -16.3128 2.9238 -3.8643 17.8285 1.0671 -1.7545 8.3562 -0.0000 0.0000 0.0000 -81.6256 -7.9933 32.8758 17.1375 -27.0387 -4.1497 -0.0000 0.0000 -6.6428 32.8382 17.0830 10.7353 -7.1250 0.0000 -0.0000 4.9484 50.0059 0.6120 -0.0000 0.0000 0.0000 90.7379 -2.5468 1.1202 -11.6220 19.2353 -1.9760 0.0000 0.0000 8.2817 -18.9164 22.1155 -7.3515 7.1250 -0.0000 -0.0000 6.2369 -6.8473 5.4822
3.8870 17.5779 46.8227 0.6607 1.0080 -1.7980 0.0000 0.0000 0.0000 -23.8653 0.4369 13.0385 3.2398 11.0735 32.5282 -0.5052 -13.2099 0.2308 1.5274 -7.8032 -22.1178 0.0000 0.0000 0.0000 19.1956 16.8496 -25.6766 -2.4756 -9.7934 28.3102 0.0560 -4.4462 -3.1956 -0.1765 -2.7065 7.4627 -2.1500 -1.6511 9.9320 2.2862 -2.3197 0.5370 3.9230 -1.0762 -4.8288 -3.3324 -2.9714 -16.3128 2.9238 -3.8643 17.8285 1.0671 -1.7545 8.3562 -0.0000 0.0000 0.0000 -81.6256 -7.9933 32.8758 17.1375 -27.0387 -4.1497 -0.0000 0.0000 -6.6428 32.8382 17.0830 10.7353 -7.1250 0.0000 -0.0000 4.9484 50.0059 0.6120 -0.0000 0.0000 0.0000 90.7379 -2.5468 1.1202 -11.6220 19.2353 -1.9760 0.0000 0.0000 8.2817 -18.9164 22.1155 -7.3515 7.1250 -0.0000 -0.0000 6.2369 -6.8473 5.4822
3.8870 17.5779 46.8227 0.6607 1.0080 -1.7980 0.0000 0.0000 0.0000 -23.8653 0.4369 13.0385 3.2398 11.0735 32.5282 -0.5052 -13.2099 0.2308 1.5274 -7.8032 -22.1178 0.0000 0.0000 0.0000 19.1956 16.8496 -25.6766 -2.4756 -9.7934 28.3102 0.0560 -4.4462 -3.1956 -0.1765 -2.7065 7.4627 -2.1500 -1.6511 9.9320 2.2862 -2.3197 0.5370 3.9230 -1.0762 -4.8288 -3.3324 -2.9714 -16.3128 2.9238 -3.8643 17.8285 1.0671 -1.7545 8.3562 -0.0000 0.0000 0.0000 -81.6256 -7.9933 32.8758 17.1375 -27.0387 -4.1497 -0.0000 0.0000 -6.6428 32.8382 17.0830 10.7353 -7.1250 0.0000 -0.0000 4.9484 50.0059 0.6120 -0.0000 0.0000 0.0000 90.7379 -2.5468 1.1202 -11.6220 19.2353 -1.9760 0.0000 0.0000 8.2817 -18.9164 22.1155 -7.3515 7.1250 -0.0000 -0.0000 6.2369 -6.8473 5.4822
3.8870 17.5779 46.8227 0.6607 1.0080 -1.7980 0.0000 0.0000 0.0000 -23.8653 0.4369 13.0385 3.2398 11.0735 32.5282 -0.5052 -13.2099 0.2308 1.5274 -7.8032 -22.1178 0.0000 0.0000 0.0000 19.1956 16.8496 -25.6766 -2.4756 -9.7934 28.3102 0.0560 -4.4462 -3.1956 -0.1765 -2.7065 7.4627 -2.1500 -1.6511 9.9320 2.2862 -2.3197 0.5370 3.9230 -1.0762 -4.8288 -3.3324 -2.9714 -16.3128 2.9238 -3.8643 17.8285 1.0671 -1.7545 8.3562 -0.0000 0.0000 0.0000 -81.6256 -7.9933 32.8758 17.1375 -27.0387 -4.1497 -0.0000 0.0000 -6.6428 32.8382 17.0830 10.7353 -7.1250 0.0000 -0.0000 4.9484 50.0059 0.6120 -0.0000 0.0000 0.0000 90.7379 -2.5468 1.1202 -11.6220 19.2353 -1.9760 0.0000 0.0000 8.2817 -18.9164 22.1155 -7.3515 7.1250 -0.0000 -0.0000 6.2369 -6.8473 5.4822
