HIERARCHY
ROOT Hips
{
	OFFSET 0.00000 0.00000 0.00000
	CHANNELS 6 Xposition Yposition Zposition Zrotation Yrotation Xrotation 
	JOINT LHipJoint
	{
		OFFSET 0 0 0
		CHANNELS 3 Zrotation Yrotation Xrotation
		JOINT LeftUpLeg
		{
			OFFSET 1.77779 -1.88989 0.48267
			CHANNELS 3 Zrotation Yrotation Xrotation
			JOINT LeftLeg
			{
				OFFSET 2.53442 -6.96327 0.00000
				CHANNELS 3 Zrotation Yrotation Xrotation
				JOINT LeftFoot
				{
					OFFSET 2.71068 -7.44755 0.00000
					CHANNELS 3 Zrotation Yrotation Xrotation
					JOINT LeftToeBase
					{
						OFFSET 0.17992 -0.49431 2.22524
						CHANNELS 3 Zrotation Yrotation Xrotation
						End Site
						{
							OFFSET 0.00000 -0.00000 1.14687
						}
					}
				}
			}
		}
	}
	JOINT RHipJoint
	{
		OFFSET 0 0 0
		CHANNELS 3 Zrotation Yrotation Xrotation
		JOINT RightUpLeg
		{
			OFFSET -1.58469 -1.88989 0.48267
			CHANNELS 3 Zrotation Yrotation Xrotation
			JOINT RightLeg
			{
				OFFSET -2.60386 -7.15404 0.00000
				CHANNELS 3 Zrotation Yrotation Xrotation
				JOINT RightFoot
				{
					OFFSET -2.73334 -7.50979 0.00000
					CHANNELS 3 Zrotation Yrotation Xrotation
					JOINT RightToeBase
					{
						OFFSET -0.25618 -0.70384 2.21822
						CHANNELS 3 Zrotation Yrotation Xrotation
						End Site
						{
							OFFSET -0.00000 -0.00000 1.16381
						}
					}
				}
			}
		}
	}
	JOINT LowerBack
	{
		OFFSET 0 0 0
		CHANNELS 3 Zrotation Yrotation Xrotation
		JOINT Spine
		{
			OFFSET 0.03410 2.01612 -0.22230
			CHANNELS 3 Zrotation Yrotation Xrotation
			JOINT Spine1
			{
				OFFSET 0.03465 2.03012 0.00937
				CHANNELS 3 Zrotation Yrotation Xrotation
				JOINT Neck
				{
					OFFSET 0 0 0
					CHANNELS 3 Zrotation Yrotation Xrotation
					JOINT Neck1
					{
						OFFSET -0.00219 1.70459 0.20857
						CHANNELS 3 Zrotation Yrotation Xrotation
						JOINT Head
						{
							OFFSET 0.02518 1.72339 -0.22179
							CHANNELS 3 Zrotation Yrotation Xrotation
							End Site
							{
								OFFSET 0.00282 1.74122 -0.09823
							}
						}
					}
				}
				JOINT LeftShoulder
				{
					OFFSET 0 0 0
					CHANNELS 3 Zrotation Yrotation Xrotation
					JOINT LeftArm
					{
						OFFSET 3.36358 1.00547 -0.37661
						CHANNELS 3 Zrotation Yrotation Xrotation
						JOINT LeftForeArm
						{
							OFFSET 5.06507 -0.00000 0.00000
							CHANNELS 3 Zrotation Yrotation Xrotation
							JOINT LeftHand
							{
								OFFSET 3.60196 -0.00000 0.00000
								CHANNELS 3 Zrotation Yrotation Xrotation
								JOINT LeftFingerBase
								{
									OFFSET 0 0 0
									CHANNELS 3 Zrotation Yrotation Xrotation
									JOINT LeftHandIndex1
									{
										OFFSET 0.45035 -0.00000 0.00000
										CHANNELS 3 Zrotation Yrotation Xrotation
										End Site
										{
											OFFSET 0.36308 -0.00000 0.00000
										}
									}
								}
								JOINT LThumb
								{
									OFFSET 0 0 0
									CHANNELS 3 Zrotation Yrotation Xrotation
									End Site
									{
										OFFSET 0.36862 -0.00000 0.36862
									}
								}
							}
						}
					}
				}
				JOINT RightShoulder
				{
					OFFSET 0 0 0
					CHANNELS 3 Zrotation Yrotation Xrotation
					JOINT RightArm
					{
						OFFSET -3.50159 0.80383 -0.71526
						CHANNELS 3 Zrotation Yrotation Xrotation
						JOINT RightForeArm
						{
							OFFSET -5.36394 -0.00000 0.00000
							CHANNELS 3 Zrotation Yrotation Xrotation
							JOINT RightHand
							{
								OFFSET -3.58035 -0.00000 0.00000
								CHANNELS 3 Zrotation Yrotation Xrotation
								JOINT RightFingerBase
								{
									OFFSET 0 0 0
									CHANNELS 3 Zrotation Yrotation Xrotation
									JOINT RightHandIndex1
									{
										OFFSET -0.66375 -0.00000 0.00000
										CHANNELS 3 Zrotation Yrotation Xrotation
										End Site
										{
											OFFSET -0.53513 -0.00000 0.00000
										}
									}
								}
								JOINT RThumb
								{
									OFFSET 0 0 0
									CHANNELS 3 Zrotation Yrotation Xrotation
									End Site
									{
										OFFSET -0.54330 -0.00000 0.54330
									}
								}
							}
						}
					}
				}
			}
		}
	}
}
MOTION
Frames: 108
Frame Time: 0.0166667
0.3861 16.9038 -30.4282 0.0000 0.0000 0.0000 0.0000 0.0000 0.0000 -21.0000 0.0000 0.0000 0.0000 0.0000 0.0000 0.0000 0.0000 0.0000 0.0000 0.0000 0.0000 0.0000 0.0000 0.0000 21.0000 0.0000 0.0000 0.0000 0.0000 0.0000 0.0000 0.0000 0.0000 0.0000 0.0000 0.0000 0.0000 0.0000 0.0000 0.0000 0.0000 0.0000 0.0000 0.0000 0.0000 0.0000 0.0000 -16.0000 0.0000 0.0000 21.0000 0.0000 0.0000 11.0000 0.0000 0.0000 0.0000 -8.0000 0.0000 0.0000 0.0000 0.0000 0.0000 0.0000 0.0000 0.0000 0.0000 0.0000 0.0000 0.0000 0.0000 0.0000 0.0000 0.0000 0.0000 0.0000 0.0000 0.0000 8.0000 0.0000 0.0000 0.0000 0.0000 0.0000 0.0000 0.0000 0.0000 0.0000 0.0000 0.0000 0.0000 0.0000 0.0000 0.0000 0.0000 0.0000
0.5593 17.8099 -25.3001 -5.3610 3.3225 6.7282 0.0000 0.0000 0.0000 -8.7820 -16.0162 -42.0614 15.1395 19.4239 75.6567 -0.0537 -7.3043 -3.7739 0.0595 -1.5734 -4.3280 0.0000 0.0000 0.0000 36.0610 7.6007 1.4233 -3.8602 -11.9721 35.6333 -0.3098 -1.2205 -11.0295 -0.2156 2.9894 -8.2494 5.5557 2.4286 14.5598 2.2335 4.4318 -1.3099 -1.7061 1.9045 -9.3723 -1.8425 -4.7156 -18.6075 2.9088 -6.1437 5.4585 0.6325 -2.8520 4.7550 -0.0000 -0.0000 0.0000 -84.5063 34.4424 42.8045 121.7158 -55.8351 -87.0827 -0.0000 0.0000 -30.3185 27.1991 3.2935 1.6911 -7.1250 0.0000 -0.0000 0.4805 33.6813 -0.1334 -0.0000 -0.0000 0.0000 86.0643 0.1179 45.5413 -125.2130 54.7527 -89.9581 0.0000 -0.0000 -10.6127 -31.6606 33.7894 -18.9295 7.1250 -0.0000 -0.0000 0.4841 8.1928 0.5482
0.6064 18.0317 -24.3045 -4.8539 4.0765 6.5341 0.0000 0.0000 0.0000 -9.9083 -17.6557 -40.6687 12.4378 18.5697 67.3701 0.0059 -7.7356 -5.5470 0.1661 -2.6258 -7.2386 0.0000 0.0000 0.0000 34.9067 4.6031 3.4590 -3.4639 -11.4107 33.6778 0.0071 -1.7999 -1.7208 -0.0880 1.9131 -5.2656 5.8285 2.3926 14.0310 1.9332 4.3514 -1.1508 -2.1292 1.8657 -8.8543 -1.7048 -4.7019 -18.8323 2.8965 -6.1565 5.6025 0.5996 -2.8514 4.8308 0.0000 -0.0000 0.0000 -85.6717 35.6783 40.9867 121.4267 -55.9176 -86.8433 -0.0000 0.0000 -29.6053 27.3454 3.2333 1.6707 -7.1250 0.0000 -0.0000 0.6013 33.6183 -0.1678 0.0000 -0.0000 0.0000 86.0279 0.6836 45.8927 -126.0879 54.4564 -90.6713 0.0000 -0.0000 -10.3742 -31.2383 36.1357 -19.6808 7.1250 -0.0000 -0.0000 1.2530 10.5083 1.4609
0.6406 18.2395 -23.2895 -4.3678 4.4861 5.9695 0.0000 0.0000 0.0000 -11.1512 -18.4534 -38.2676 9.6004 17.1789 58.1441 -0.0036 -9.0512 -6.2783 0.2323 -3.1022 -8.5633 0.0000 0.0000 0.0000 33.4764 1.2971 5.9874 -3.0281 -10.7403 31.4090 -0.1967 -3.3662 7.8929 -0.0437 1.3497 -3.7116 5.8055 2.5286 13.7026 1.6488 4.4576 -0.8268 -2.4122 1.9376 -8.2818 -1.4983 -4.8834 -19.3778 2.9155 -6.4578 6.1137 0.5254 -2.9795 5.0770 -0.0000 -0.0000 0.0000 -86.6304 36.4404 39.1908 120.6742 -56.1276 -86.2193 -0.0000 0.0000 -28.9446 27.7557 2.3052 1.2126 -7.1250 0.0000 -0.0000 0.9452 32.5833 -0.2875 -0.0000 -0.0000 0.0000 86.1234 1.6495 45.5706 -126.1367 54.4396 -90.7110 0.0000 -0.0000 -11.8061 -28.5947 39.5744 -19.1506 7.1250 -0.0000 -0.0000 3.4470 13.2208 4.1506
0.6740 18.4131 -22.2680 -3.6274 4.6355 5.6414 0.0000 0.0000 0.0000 -12.6906 -18.7844 -35.6188 6.8672 15.2190 48.3703 -0.1054 -10.2216 -5.2842 0.1014 -2.0538 -5.6544 0.0000 0.0000 0.0000 31.7674 -0.9032 8.2687 -2.7257 -10.2372 29.7483 -0.8196 -5.5869 16.1382 -0.0546 -1.5079 4.1476 5.2503 2.7108 12.9220 1.4875 4.5523 -1.0204 -2.2516 2.0111 -8.0665 -1.6538 -4.9342 -17.3022 2.9832 -6.5272 6.0646 0.6089 -3.0383 4.7483 -0.0000 -0.0000 0.0000 -87.8653 38.2791 37.5543 120.5212 -56.1695 -86.0922 -0.0000 0.0000 -28.3370 31.1947 4.0050 2.4216 -7.1250 0.0000 -0.0000 3.7715 34.6397 -0.9609 -0.0000 -0.0000 0.0000 85.8932 0.7553 46.5044 -125.7942 54.5571 -90.4321 0.0000 -0.0000 -8.9815 -30.0326 43.7342 -21.7843 7.1250 -0.0000 -0.0000 3.8449 17.7876 4.8445
0.6958 18.5434 -21.2570 -3.2219 4.6394 5.5946 0.0000 0.0000 0.0000 -13.5084 -19.1070 -32.9969 4.5183 12.8199 38.6981 -0.2616 -10.5179 -1.9166 0.1233 -2.2636 -6.2346 0.0000 0.0000 0.0000 31.0312 -1.1349 10.0016 -2.7422 -10.2656 29.8412 -1.7203 -9.1656 23.5134 -0.0269 -1.0594 2.9122 5.0009 2.9262 12.3284 1.2461 4.7531 -1.2406 -2.3748 2.1162 -7.9495 -1.4522 -5.1342 -16.7702 2.8734 -6.8578 6.7709 0.5146 -3.2003 4.8824 -0.0000 0.0000 0.0000 -88.2383 39.3772 36.5904 120.3451 -56.2173 -85.9459 -0.0000 0.0000 -27.7819 36.3189 6.5896 4.8218 -7.1250 0.0000 -0.0000 8.2057 38.0209 -1.4215 -0.0000 0.0000 0.0000 86.0625 -0.1789 46.6926 -126.0035 54.4855 -90.6026 0.0000 -0.0000 -9.5638 -28.0285 41.0571 -19.2722 7.1250 -0.0000 -0.0000 4.0972 14.5394 5.0056
0.7019 18.6203 -20.2704 -3.7011 4.1669 5.6909 0.0000 0.0000 0.0000 -13.3715 -18.3595 -31.0892 2.7732 10.3185 30.0144 -0.3008 -9.6842 2.9934 0.0949 -1.9864 -5.4681 0.0000 0.0000 0.0000 31.6113 0.0011 11.0683 -3.0716 -10.8100 31.6419 -2.1037 -12.9188 26.2710 -0.1791 -2.7257 7.5161 5.2333 3.2233 11.9406 1.2980 5.1741 -1.4756 -2.5041 2.3096 -7.9377 -1.2561 -5.1982 -16.6683 2.7584 -6.9922 7.3052 0.4302 -3.2628 5.0256 -0.0000 0.0000 0.0000 -88.4444 40.1649 36.1100 121.0739 -56.0169 -86.5509 -0.0000 0.0000 -27.0144 34.6466 6.2933 4.3320 -7.1250 0.0000 -0.0000 6.7498 37.5379 -1.2465 -0.0000 0.0000 0.0000 86.2826 -0.5718 47.3570 -125.6707 54.5990 -90.3315 0.0000 -0.0000 -9.5423 -28.2383 35.2100 -17.2053 7.1250 -0.0000 -0.0000 2.6404 8.6788 3.0116
0.7217 18.6478 -19.2832 -4.3492 4.0802 5.7903 0.0000 0.0000 0.0000 -13.1053 -17.7587 -29.7787 1.7442 8.3115 23.6643 -0.1838 -8.3493 6.7976 0.0046 -0.4380 -1.2034 0.0000 0.0000 0.0000 32.3376 0.5714 11.3328 -3.6818 -11.7245 34.7643 -2.0278 -13.6244 25.9029 -0.8321 -5.8193 16.2610 5.9356 3.2971 11.5222 1.3840 5.3563 -1.5769 -2.8048 2.3757 -7.7420 -1.2731 -5.1688 -17.2103 2.7000 -6.9620 8.0607 0.3929 -3.2363 5.3479 -0.0000 0.0000 0.0000 -88.4621 40.4432 36.0971 122.1032 -55.7230 -87.4029 -0.0000 0.0000 -26.5658 33.8715 6.5790 4.3978 -7.1250 0.0000 -0.0000 6.0946 37.8240 -1.0815 -0.0000 0.0000 0.0000 86.4580 -0.6286 47.9431 -124.8079 54.8864 -89.6269 0.0000 -0.0000 -9.5727 -28.5701 35.0994 -17.3858 7.1250 -0.0000 -0.0000 2.4388 8.6572 2.7805
0.7343 18.6244 -18.3222 -5.1166 3.7353 5.5562 0.0000 0.0000 0.0000 -13.4630 -15.7287 -28.7333 1.2654 7.1303 20.1020 -0.2355 -8.9001 5.8406 0.2469 -3.1973 -8.8286 0.0000 0.0000 0.0000 33.2342 1.4802 11.2242 -4.6359 -12.9617 39.2253 -1.6974 -13.1183 23.7516 -1.4057 -7.4996 21.2042 6.4552 3.3260 11.2437 1.6590 5.4628 -1.5086 -2.7943 2.4235 -7.4825 -1.5370 -4.9954 -16.9239 2.9798 -6.7180 8.3054 0.5483 -3.1052 5.3947 0.0000 -0.0000 0.0000 -88.9935 40.3107 36.0211 122.8742 -55.4941 -88.0392 -0.0000 0.0000 -25.8884 33.0823 6.2998 4.0888 -7.1250 0.0000 -0.0000 5.4091 37.4367 -1.0104 0.0000 -0.0000 0.0000 86.6342 -1.0566 48.6763 -124.1195 55.1084 -89.0630 0.0000 -0.0000 -9.9118 -28.1612 35.6987 -17.3474 7.1250 -0.0000 -0.0000 2.7857 9.1597 3.1971
0.7416 18.5238 -17.3661 -5.2918 3.0548 5.2139 0.0000 0.0000 0.0000 -14.1270 -14.2036 -28.1417 1.0974 6.6567 18.7022 -0.1622 -7.4540 5.0749 0.5530 -4.7638 -13.2360 0.0000 0.0000 0.0000 33.5248 2.7212 10.7205 -5.9818 -14.4107 44.9086 -1.2014 -13.7184 20.4784 -1.2964 -7.2138 20.3505 6.3791 3.3780 11.3494 1.6869 5.5146 -1.2390 -2.7279 2.4662 -7.2569 -1.3788 -4.8289 -17.2801 2.9773 -6.5176 8.0777 0.5377 -3.0011 5.3703 0.0000 -0.0000 0.0000 -89.2456 39.7343 36.1436 123.8791 -55.1844 -88.8658 -0.0000 0.0000 -25.0652 29.4200 1.9880 1.1207 -7.1250 0.0000 -0.0000 2.2896 32.2563 -0.7148 0.0000 -0.0000 0.0000 86.9823 -1.2194 49.3534 -123.0034 55.4550 -88.1456 0.0000 -0.0000 -9.4549 -28.2200 34.6838 -16.9814 7.1250 -0.0000 -0.0000 2.5400 8.1316 2.8764
0.7393 18.3863 -16.4290 -4.9407 2.9660 4.7011 0.0000 0.0000 0.0000 -15.3468 -12.9349 -27.4519 1.1100 6.6936 18.8107 -0.2342 -9.0564 6.5307 0.5797 -4.8754 -13.5536 0.0000 0.0000 0.0000 33.1667 3.3548 9.3165 -7.6651 -15.8673 51.3471 -0.9099 -13.6726 18.2735 -0.4052 -4.0867 11.3208 5.7330 3.2563 11.5351 1.6180 5.2480 -0.8274 -2.3996 2.3771 -6.9909 -1.3406 -4.6539 -17.8088 3.1531 -6.3048 7.9762 0.5980 -2.8774 5.4233 0.0000 -0.0000 0.0000 -89.3454 38.2421 36.7792 123.9542 -55.1607 -88.9274 -0.0000 0.0000 -24.3412 29.2426 2.0442 1.1441 -7.1250 0.0000 -0.0000 2.1470 32.3174 -0.6670 0.0000 -0.0000 0.0000 87.5902 -1.2629 49.4367 -121.4919 55.8991 -86.8973 0.0000 -0.0000 -9.6437 -27.3840 35.7962 -16.8557 7.1250 -0.0000 -0.0000 3.2208 9.0462 3.6925
0.7217 18.1906 -15.4925 -3.9740 3.2626 4.1003 0.0000 0.0000 0.0000 -17.2246 -11.6818 -27.0961 1.3704 7.4087 20.9320 -0.3653 -11.0996 7.4678 0.1186 -2.2206 -6.1158 0.0000 0.0000 0.0000 31.8855 3.2483 7.3688 -9.5799 -17.1667 58.0746 -0.6696 -13.5034 16.2469 -0.5461 -4.7344 13.1526 4.6911 3.0730 12.1661 1.1488 4.8670 -0.8842 -2.3011 2.2037 -7.4797 -1.1989 -4.6764 -16.9919 3.4962 -6.4104 7.7855 0.6918 -2.9121 5.2438 0.0000 0.0000 0.0000 -88.2953 37.4034 38.4424 124.3193 -55.0446 -89.2269 -0.0000 0.0000 -24.0853 30.4214 2.1232 1.2463 -7.1250 0.0000 -0.0000 3.1009 32.4312 -0.9555 0.0000 0.0000 0.0000 88.6313 -2.3099 49.6586 -119.0445 56.5592 -84.8628 0.0000 -0.0000 -7.1560 -28.2920 33.5779 -16.5782 7.1250 -0.0000 -0.0000 2.2746 7.0069 2.5370
0.7022 17.9689 -14.5749 -3.4199 3.4638 3.3159 0.0000 0.0000 0.0000 -18.4644 -10.4499 -27.3049 2.1533 9.1784 26.3549 -0.5402 -13.1832 1.9279 0.0135 0.7493 2.0592 0.0000 0.0000 0.0000 30.6680 3.1223 4.8833 -11.6492 -18.2384 64.8723 -0.3323 -13.3353 13.0586 -1.1335 -6.7616 19.0111 3.8610 2.8196 12.8826 0.9863 4.4204 -0.6090 -1.9687 2.0127 -7.6674 -1.3003 -4.6231 -16.7447 3.7798 -6.3404 7.4751 0.8117 -2.8687 5.1187 0.0000 0.0000 0.0000 -87.7188 35.3056 39.9958 124.2126 -55.0787 -89.1394 -0.0000 0.0000 -24.4476 28.7178 1.7673 0.9680 -7.1250 0.0000 -0.0000 1.7213 31.9917 -0.5482 0.0000 0.0000 0.0000 89.1387 -2.6578 49.7080 -116.4370 57.1869 -82.6789 0.0000 -0.0000 -8.1282 -28.1252 32.6194 -16.0735 7.1250 -0.0000 -0.0000 2.1772 5.9652 2.3933
0.7025 17.7290 -13.6739 -3.0432 4.2665 2.6456 0.0000 0.0000 0.0000 -19.6157 -9.8555 -26.8314 3.3740 11.2772 33.2205 -0.3296 -14.5457 -5.8489 0.0000 0.0008 0.0022 0.0000 0.0000 0.0000 29.2809 2.1332 1.6262 -13.7203 -19.0270 71.3485 -0.1862 -12.1518 10.8773 -0.8492 -5.8775 16.4295 3.3590 2.2230 13.4951 0.9869 3.5616 -0.1590 -1.5465 1.6206 -7.6068 -1.4224 -4.5384 -17.2258 3.8320 -6.2021 7.4666 0.8510 -2.7946 5.1948 -0.0000 -0.0000 0.0000 -87.4760 32.5984 41.6167 124.3391 -55.0382 -89.2431 -0.0000 0.0000 -24.5704 29.5811 1.9967 1.1330 -7.1250 0.0000 -0.0000 2.4198 32.2693 -0.7547 -0.0000 -0.0000 0.0000 89.3689 -2.5217 50.2800 -112.6442 57.9710 -79.4769 0.0000 -0.0000 -8.3127 -28.9189 31.8965 -16.2731 7.1250 -0.0000 -0.0000 1.5950 5.4216 1.7393
0.7214 17.5388 -12.8079 -1.2333 5.0595 2.1450 0.0000 0.0000 0.0000 -21.8308 -10.9610 -25.9376 4.6445 12.9719 39.2632 0.1480 -12.5005 -10.6227 0.0948 1.9856 5.4658 0.0000 0.0000 0.0000 25.8473 1.0957 -2.4059 -15.8862 -19.5893 77.8925 -0.0154 -10.5575 7.6441 -0.8144 -5.7588 16.0861 1.8248 1.7275 14.8630 0.3395 2.6358 0.1129 -1.2377 1.2079 -8.1630 -1.1291 -4.5088 -18.1966 3.8523 -6.2414 7.8343 0.7845 -2.7832 5.4583 0.0000 0.0000 0.0000 -86.6305 29.0696 43.7075 123.7332 -55.2302 -88.7460 -0.0000 0.0000 -24.8717 30.4589 0.7113 0.4183 -7.1250 0.0000 -0.0000 3.0929 30.7967 -1.0746 0.0000 0.0000 0.0000 90.3550 -3.9444 49.2753 -110.4477 58.3597 -77.6107 0.0000 -0.0000 -8.5070 -30.7813 38.2159 -20.2289 7.1250 -0.0000 -0.0000 1.9978 12.5021 2.3842
0.6662 17.3078 -12.0247 1.1356 2.3813 2.3910 0.0000 0.0000 0.0000 -24.5127 -9.0769 -25.4134 5.5746 14.0030 43.2496 0.7245 -10.7114 -15.8733 0.0225 -0.9688 -2.6630 0.0000 0.0000 0.0000 21.6788 4.0544 -7.7399 -18.3232 -19.9325 85.0921 0.0578 -9.1641 5.3070 -0.5186 -4.6157 12.8156 -1.8646 2.5950 16.2079 -0.2525 3.0651 0.0923 0.0551 1.5454 -9.0939 -1.4380 -4.4315 -19.1003 4.2899 -6.1145 7.8588 0.9674 -2.6832 5.6314 -0.0000 0.0000 0.0000 -86.2019 24.3884 45.3857 122.1599 -55.7064 -87.4498 -0.0000 0.0000 -26.2388 30.5018 1.4755 0.8690 -7.1250 0.0000 -0.0000 3.1495 31.6823 -1.0274 -0.0000 0.0000 0.0000 90.7667 -4.7334 49.5342 -106.1662 58.9891 -73.9528 0.0000 -0.0000 -9.8552 -28.5303 31.6743 -15.9320 7.1250 -0.0000 -0.0000 1.7695 5.0847 1.9202
0.6710 17.1594 -11.2089 2.1201 2.1360 2.8243 0.0000 0.0000 0.0000 -25.6632 -8.8320 -24.0247 6.0994 14.5240 45.3794 1.1185 -10.2081 -19.1458 0.0196 -0.9030 -2.4818 0.0000 0.0000 0.0000 19.0172 4.7180 -13.9519 -20.0878 -19.9998 90.2566 0.1132 -8.0143 2.7929 -0.5831 -4.8896 13.5939 -2.6221 2.3675 16.4019 -0.7303 2.5706 0.1814 0.0815 1.3292 -9.1073 -1.3045 -4.3932 -19.1908 4.4138 -6.0737 7.0460 0.9967 -2.6628 5.3865 -0.0000 0.0000 0.0000 -85.3634 18.8367 47.3176 120.0469 -56.2974 -85.6979 -0.0000 0.0000 -27.3460 31.0333 1.4533 0.8742 -7.1250 0.0000 -0.0000 3.5751 31.6632 -1.1683 -0.0000 0.0000 0.0000 91.2429 -6.3242 49.0015 -102.9374 59.3580 -71.1799 0.0000 -0.0000 -9.4486 -28.2819 30.0955 -15.0986 7.1250 -0.0000 -0.0000 1.6172 3.3589 1.7099
0.6858 17.0964 -10.3928 1.6964 1.5499 3.2631 0.0000 0.0000 0.0000 -25.4571 -7.7489 -21.8383 6.3385 14.7485 46.3255 1.4609 -10.0577 -21.7348 0.0006 0.1603 0.4405 0.0000 0.0000 0.0000 18.3570 5.9011 -19.9779 -21.0752 -19.9723 93.1451 0.1440 -7.3513 0.5104 -0.6087 -4.9939 13.8912 -2.0324 2.1912 16.3349 -0.7571 2.4507 0.3923 -0.2424 1.2439 -8.8082 -1.0259 -4.3428 -19.9171 4.2279 -6.0459 6.9654 0.8858 -2.6461 5.4584 0.0000 0.0000 0.0000 -84.7685 13.7658 48.8697 119.5270 -56.4347 -85.2651 -0.0000 0.0000 -26.7980 34.8273 3.0813 2.1417 -7.1250 0.0000 -0.0000 6.7257 33.6754 -1.8787 0.0000 0.0000 0.0000 91.5818 -8.1610 47.4861 -101.3432 59.5082 -69.8072 0.0000 -0.0000 -8.7980 -26.6083 32.6091 -15.1075 7.1250 -0.0000 -0.0000 3.0172 5.5611 3.2997
0.6995 17.0616 -9.5466 1.6577 0.8520 3.9338 0.0000 0.0000 0.0000 -25.9170 -6.5110 -19.2591 6.3609 14.7692 46.4136 1.7955 -9.2754 -24.0298 0.0005 -0.1490 -0.4093 0.0000 0.0000 0.0000 17.3574 7.1203 -25.7048 -21.4849 -19.9471 94.3452 0.1209 -6.1556 -2.0909 -0.0668 -1.6676 4.5878 -2.3265 1.6810 15.9045 -0.3306 1.7720 0.4210 0.5564 0.9395 -8.5473 -1.9276 -3.8893 -20.9896 4.3622 -5.2329 7.4251 1.1386 -2.2442 5.7779 0.0000 -0.0000 0.0000 -85.9482 9.3557 48.2030 119.6806 -56.3944 -85.3930 -0.0000 0.0000 -25.0501 31.9904 1.8178 1.1351 -7.1250 0.0000 -0.0000 4.3573 32.1030 -1.3788 0.0000 -0.0000 0.0000 90.1056 -10.1236 48.4535 -102.3578 59.4150 -70.6811 0.0000 -0.0000 -9.1088 -26.6904 33.4316 -15.4816 7.1250 -0.0000 -0.0000 3.1253 6.4326 3.4607
0.7164 17.0698 -8.6900 1.7478 0.7941 4.4350 0.0000 0.0000 0.0000 -26.6368 -5.9019 -15.9969 6.0861 14.5112 45.3261 1.8745 -7.2816 -24.5808 0.1138 -2.1751 -5.9897 0.0000 0.0000 0.0000 16.5440 7.5226 -30.8646 -21.2741 -19.9610 93.7275 0.0642 -4.9788 -4.1068 -0.0698 -1.7045 4.6897 -2.2495 1.1822 15.2792 -0.3126 1.1442 0.3133 0.6865 0.6346 -8.2917 -1.8564 -3.7783 -20.7590 4.2864 -5.1144 7.8076 1.1165 -2.1890 5.8572 0.0000 0.0000 0.0000 -86.1306 6.1082 48.3632 122.1992 -55.6948 -87.4823 -0.0000 0.0000 -24.0306 28.7455 3.1747 1.7400 -7.1250 0.0000 -0.0000 1.7481 33.5959 -0.4890 0.0000 0.0000 0.0000 89.1495 -12.2421 48.9132 -104.9369 59.1400 -72.8983 0.0000 -0.0000 -10.4683 -26.0855 33.8327 -15.2475 7.1250 -0.0000 -0.0000 3.5332 6.6913 3.9279
0.7176 17.1669 -7.8145 2.2598 0.7052 4.4346 0.0000 0.0000 0.0000 -27.6930 -4.9612 -11.7481 5.6117 14.0412 43.4027 1.6924 -6.5609 -23.3533 0.2985 -3.5130 -9.7103 0.0000 0.0000 0.0000 15.6576 7.8004 -34.5535 -20.3375 -19.9973 90.9868 -0.0284 -3.6443 -6.3367 -0.0282 -1.0837 2.9793 -2.8621 0.7187 15.7212 -0.2883 0.4009 -0.1201 1.2201 0.3141 -8.9954 -1.7576 -3.4622 -19.8093 4.2671 -4.7358 8.0073 1.1467 -2.0147 5.7584 0.0000 -0.0000 0.0000 -86.5222 4.6972 48.1080 125.9309 -54.5104 -90.5434 -0.0000 0.0000 -25.5878 28.8859 1.9656 1.0841 -7.1250 0.0000 -0.0000 1.8584 32.2208 -0.5816 0.0000 -0.0000 0.0000 87.6977 -14.8886 49.8618 -108.5327 58.6616 -75.9777 0.0000 -0.0000 -12.3828 -25.3056 34.0464 -14.8269 7.1250 -0.0000 -0.0000 4.0000 6.7149 4.4506
0.7093 17.3297 -6.9064 2.0645 0.7919 4.7164 0.0000 0.0000 0.0000 -27.6908 -4.3959 -7.8766 5.0969 13.4920 41.2395 1.2066 -7.3331 -19.6257 0.3159 -3.6128 -9.9898 0.0000 0.0000 0.0000 15.9752 8.1839 -37.5809 -18.7406 -19.9619 86.3155 -0.1001 -2.7922 -7.6796 -0.0117 -0.6999 1.9233 -3.0053 0.1400 15.7312 0.1182 -0.3619 -0.4703 1.9182 -0.0249 -9.3476 -1.4910 -3.1363 -19.3216 3.7399 -4.3066 8.1056 0.9872 -1.8454 5.6803 -0.0000 0.0000 0.0000 -87.0933 3.3241 47.6313 129.5001 -53.1951 -93.4261 -0.0000 0.0000 -28.4876 30.4065 0.2492 0.1463 -7.1250 0.0000 -0.0000 3.0364 30.2615 -1.0938 -0.0000 0.0000 0.0000 85.9700 -17.7084 50.5846 -112.7384 57.9533 -79.5567 0.0000 -0.0000 -13.3123 -24.3654 34.1213 -14.2544 7.1250 -0.0000 -0.0000 4.5282 6.5615 5.0309
0.6771 17.5153 -5.9863 2.1378 -1.5211 4.4524 0.0000 0.0000 0.0000 -28.0078 -1.3831 -4.2332 4.4895 12.7847 38.5680 0.5787 -7.9664 -13.8279 0.4561 -4.3323 -12.0133 0.0000 0.0000 0.0000 16.1416 10.7256 -38.8618 -16.6479 -19.7284 80.1564 -0.1852 -1.8565 -9.0303 -0.0015 -0.2468 0.6780 -4.3223 0.4664 15.9427 0.5399 -0.1393 -0.2072 3.0719 0.1483 -9.1916 -1.3309 -2.9103 -20.6244 3.3020 -3.9929 8.6083 0.8390 -1.7024 6.0246 0.0000 0.0000 0.0000 -87.5991 1.5019 46.8878 132.6869 -51.8526 -95.9556 -0.0000 0.0000 -30.6853 31.1734 0.0475 0.0287 -7.1250 0.0000 -0.0000 3.6336 30.0252 -1.3302 0.0000 0.0000 0.0000 84.2604 -18.6762 51.2340 -114.8626 57.5304 -81.3531 0.0000 -0.0000 -13.6656 -23.5003 34.1811 -13.7277 7.1250 -0.0000 -0.0000 5.0124 6.4169 5.5615
0.6682 17.7712 -4.9963 1.6342 -1.4099 5.1217 0.0000 0.0000 0.0000 -27.2010 -0.5546 -0.8652 3.8761 11.9937 35.7098 -0.0154 -8.6522 -5.7609 1.7158 -8.2471 -23.4673 0.0000 0.0000 0.0000 17.1253 11.3079 -39.9444 -14.0869 -19.1402 72.4696 -0.2598 -1.3560 -10.2202 -0.1027 2.0661 -5.6884 -3.8685 -0.1697 14.8698 0.9743 -0.8181 -0.4021 3.4241 -0.1956 -8.7356 -1.4193 -2.6996 -21.1414 3.3326 -3.7023 9.0790 0.8885 -1.5512 6.2538 0.0000 0.0000 0.0000 -87.4529 0.3026 46.4899 135.0449 -50.7465 -97.7960 -0.0000 0.0000 -31.7470 30.9597 1.1182 0.6707 -7.1250 0.0000 -0.0000 3.5051 31.2723 -1.1782 0.0000 0.0000 0.0000 83.1097 -20.5156 51.3300 -116.3740 57.2012 -82.6260 0.0000 -0.0000 -13.3353 -23.6118 34.4632 -13.8940 7.1250 -0.0000 -0.0000 5.0005 6.7299 5.5721
0.6658 17.9705 -4.0256 1.0894 -3.2161 5.0385 0.0000 0.0000 0.0000 -26.5091 2.2988 2.0653 3.3283 11.2085 32.9863 -0.3164 -9.9483 2.7729 2.3025 -9.4697 -27.2760 0.0000 0.0000 0.0000 18.0943 13.2867 -39.5410 -11.4084 -18.1292 64.1009 -0.2903 -0.2281 -10.2632 -0.2340 3.1133 -8.5945 -3.5693 -0.0479 14.5201 1.2880 -0.5650 -0.4529 3.5316 -0.0818 -8.6135 -1.4889 -2.5443 -20.8743 3.2911 -3.4736 9.1285 0.9142 -1.4494 6.2224 0.0000 -0.0000 0.0000 -87.0936 0.1282 46.1661 136.9179 -49.7936 -99.2366 -0.0000 0.0000 -31.8535 30.6530 0.5499 0.3259 -7.1250 0.0000 -0.0000 3.2416 30.6103 -1.1409 0.0000 -0.0000 0.0000 82.6230 -22.3304 50.7738 -117.0122 57.0549 -83.1620 0.0000 -0.0000 -13.0622 -22.4612 34.8414 -13.2891 7.1250 -0.0000 -0.0000 5.6922 6.8456 6.3599
0.6708 18.1749 -3.0332 1.0065 -5.1842 4.8549 0.0000 0.0000 0.0000 -26.6637 4.0335 5.5111 2.6823 10.1620 29.5030 -0.0523 -9.7043 12.9021 2.3223 -9.5074 -27.3959 0.0000 0.0000 0.0000 18.6060 14.9249 -38.4626 -8.7541 -16.6468 55.2356 -0.3122 1.3057 -10.1769 -0.2343 3.1151 -8.5993 -3.4827 0.1805 14.3352 1.3072 -0.2408 -0.6264 3.4326 0.0764 -8.7259 -1.5277 -2.5731 -20.5359 3.2191 -3.5014 9.3442 0.8960 -1.4720 6.2384 -0.0000 0.0000 0.0000 -86.2517 0.0140 46.0352 137.4748 -49.4968 -99.6610 -0.0000 0.0000 -31.5197 30.0616 0.2539 0.1469 -7.1250 0.0000 -0.0000 2.7640 30.2670 -0.9951 -0.0000 0.0000 0.0000 82.6657 -24.3493 50.0177 -117.4993 56.9403 -83.5704 0.0000 -0.0000 -12.3539 -23.0622 35.1113 -13.7598 7.1250 -0.0000 -0.0000 5.4126 7.2578 6.0787
0.7035 18.3585 -2.0222 1.6464 -5.5622 4.7713 0.0000 0.0000 0.0000 -27.7846 3.3364 9.3981 2.0961 9.0634 25.9939 0.9040 -6.5813 21.5081 0.9808 -6.3042 -17.6695 0.0000 0.0000 0.0000 18.3176 14.6796 -37.3758 -6.3907 -14.7965 46.5303 -0.3506 3.2132 -10.5418 -0.3761 3.9387 -10.9044 -3.2343 -0.1960 13.9690 1.0144 -0.7150 -0.8146 3.0726 -0.1695 -8.6865 -1.5219 -2.4749 -20.3623 3.2573 -3.3909 9.7284 0.9198 -1.4128 6.3333 0.0000 0.0000 0.0000 -85.3170 0.4671 45.7407 137.8619 -49.2868 -99.9549 -0.0000 0.0000 -30.5670 29.6738 1.5894 0.9054 -7.1250 0.0000 -0.0000 2.4877 31.8027 -0.8039 0.0000 0.0000 0.0000 82.9291 -25.6384 49.3606 -116.9344 57.0730 -83.0967 0.0000 -0.0000 -11.4243 -24.7179 35.3323 -14.9073 7.1250 -0.0000 -0.0000 4.5583 7.8811 5.1555
0.6944 18.4856 -1.0315 1.7845 -6.8792 4.7709 0.0000 0.0000 0.0000 -28.4444 3.1983 11.5287 1.9230 8.7038 24.8732 1.7042 -7.1286 28.1078 0.9373 -6.1668 -17.2693 0.0000 0.0000 0.0000 18.7529 15.7943 -35.6897 -4.3688 -12.6356 38.0193 -0.2080 3.5163 -8.1202 -1.4098 7.5100 -21.2354 -3.3882 -0.0971 13.8539 1.1261 -0.5998 -1.1762 3.2593 -0.0907 -9.0222 -1.8386 -2.5031 -19.6964 3.0104 -3.3264 10.1226 0.9020 -1.4192 6.3523 -0.0000 -0.0000 0.0000 -84.8880 1.5591 45.6565 137.9159 -49.2573 -99.9958 -0.0000 0.0000 -29.2604 28.9592 2.1642 1.1972 -7.1250 0.0000 -0.0000 1.9192 32.4489 -0.5901 -0.0000 -0.0000 0.0000 82.9371 -27.4592 48.6208 -117.4472 56.9527 -83.5268 0.0000 -0.0000 -10.9058 -24.8092 35.5652 -15.0488 7.1250 -0.0000 -0.0000 4.5532 8.1405 5.1673
0.6957 18.6062 -0.0219 2.0081 -5.2523 5.4919 0.0000 0.0000 0.0000 -28.5661 0.8173 12.4966 2.1292 9.1302 26.2036 2.1318 -7.6621 31.1778 0.5355 -4.6890 -13.0237 0.0000 0.0000 0.0000 18.8325 14.7482 -34.9726 -2.8519 -10.4514 30.4513 -0.1432 2.7364 -6.7245 -1.4655 7.6506 -21.6578 -2.5020 -0.9409 13.1710 1.0080 -1.5750 -1.8192 2.8275 -0.5952 -9.2757 -1.8060 -2.5571 -19.5988 2.8018 -3.3922 10.6767 0.8208 -1.4643 6.5127 0.0000 0.0000 0.0000 -84.1254 2.6262 46.0469 137.2895 -49.5963 -99.5200 -0.0000 0.0000 -28.6192 29.3430 1.3712 0.7707 -7.1250 0.0000 -0.0000 2.2186 31.5480 -0.7304 0.0000 0.0000 0.0000 83.6823 -28.8444 47.4650 -117.4858 56.9435 -83.5592 0.0000 -0.0000 -10.6144 -24.5861 36.1884 -15.1177 7.1250 -0.0000 -0.0000 4.7919 8.7167 5.4805
0.6543 18.6030 0.9129 2.7737 -7.8526 4.8641 0.0000 0.0000 0.0000 -30.0064 1.9721 12.7086 2.5327 9.8970 28.6440 3.2703 -6.3290 36.7777 0.0919 1.9546 5.3803 0.0000 0.0000 0.0000 19.1165 15.7680 -33.3130 -2.0564 -8.9825 25.7406 -0.0936 1.6928 -5.4379 -0.8005 5.7105 -15.9467 -4.0477 -0.1318 13.5449 0.8555 -0.7753 -1.5567 3.3786 -0.1382 -9.2443 -1.8793 -2.5868 -20.2451 2.6637 -3.3941 11.1970 0.7796 -1.4709 6.7852 0.0000 0.0000 0.0000 -83.6268 2.8533 46.1677 136.1460 -50.1946 -98.6453 -0.0000 0.0000 -28.1715 29.1278 1.6429 0.9153 -7.1250 0.0000 -0.0000 2.0499 31.8562 -0.6596 0.0000 0.0000 0.0000 84.3798 -28.9962 46.6094 -117.8848 56.8477 -83.8934 0.0000 -0.0000 -10.0837 -24.5201 35.4595 -14.8222 7.1250 -0.0000 -0.0000 4.6887 7.9614 5.3096
0.6695 18.5998 1.8752 3.4411 -5.4284 5.2284 0.0000 0.0000 0.0000 -30.3798 -0.7838 13.0321 3.2022 11.0154 32.3319 2.5502 -9.5374 34.7108 0.2997 -3.5198 -9.7296 0.0000 0.0000 0.0000 18.6618 14.0468 -33.9030 -1.8568 -8.5611 24.4318 -0.0983 -1.1592 -6.4671 -0.5171 4.6091 -12.7968 -3.4034 -1.1599 12.2104 0.6908 -1.9996 -1.2563 3.0352 -0.8015 -8.0659 -2.0328 -2.6571 -20.1858 2.4971 -3.4107 10.7879 0.7503 -1.5044 6.6416 -0.0000 -0.0000 0.0000 -83.6524 3.3919 46.2034 134.8898 -50.8223 -97.6759 -0.0000 0.0000 -27.8351 28.6645 2.4240 1.3245 -7.1250 0.0000 -0.0000 1.6818 32.7387 -0.5053 -0.0000 -0.0000 0.0000 85.0443 -28.2436 45.7513 -117.8379 56.8591 -83.8542 0.0000 -0.0000 -9.7864 -25.0811 36.1621 -15.4387 7.1250 -0.0000 -0.0000 4.5229 8.8146 5.1775
0.6620 18.5251 2.8146 3.5003 -5.5388 4.6147 0.0000 0.0000 0.0000 -30.1869 -1.0943 11.9623 4.2748 12.5174 37.5878 2.2791 -9.7938 33.3578 0.3193 -3.6321 -10.0438 0.0000 0.0000 0.0000 19.4943 13.6370 -33.5086 -2.0085 -8.8838 25.4324 0.0349 -4.1781 -4.2345 -0.6437 5.1325 -14.2869 -3.1623 -1.1629 12.4651 0.6978 -1.9696 -0.9180 2.9019 -0.8067 -7.8557 -2.5548 -2.6729 -19.7791 2.8564 -3.3420 10.2201 0.9640 -1.4684 6.4058 -0.0000 -0.0000 0.0000 -83.7795 4.0320 46.2489 132.8570 -51.7762 -96.0893 -0.0000 0.0000 -27.5885 28.9265 2.5103 1.3865 -7.1250 0.0000 -0.0000 1.8947 32.8432 -0.5645 -0.0000 -0.0000 0.0000 85.6592 -27.5042 45.1034 -117.7810 56.8728 -83.8065 0.0000 -0.0000 -9.1148 -25.5310 35.4398 -15.4805 7.1250 -0.0000 -0.0000 4.1413 8.1949 4.7008
0.6421 18.3966 3.7400 2.9884 -5.9760 3.7533 0.0000 0.0000 0.0000 -29.0614 -0.7446 10.5754 5.6403 14.0705 43.5204 2.0329 -11.0615 32.7835 0.1997 -2.8776 -7.9380 0.0000 0.0000 0.0000 21.1057 13.2059 -32.4916 -2.3720 -9.6015 27.6955 0.0659 -4.7128 -3.0343 -0.5426 4.7195 -13.1103 -2.6200 -1.0096 13.2234 0.8319 -1.6895 -0.6638 2.7043 -0.6889 -8.0437 -2.4430 -2.7002 -19.0970 2.6128 -3.3739 9.6399 0.8727 -1.5096 6.1030 0.0000 -0.0000 0.0000 -84.0284 4.9696 46.0963 129.9400 -53.0197 -93.7779 -0.0000 0.0000 -26.9498 28.8069 2.0055 1.1025 -7.1250 0.0000 -0.0000 1.7949 32.2648 -0.5598 0.0000 -0.0000 0.0000 86.2324 -26.3546 44.7530 -116.8955 57.0820 -83.0640 0.0000 -0.0000 -8.5539 -26.6868 34.3565 -15.8371 7.1250 -0.0000 -0.0000 3.3052 7.3843 3.7084
0.6133 18.2350 4.6546 2.6845 -7.3195 3.0262 0.0000 0.0000 0.0000 -28.0187 0.3400 8.0445 7.2445 15.5343 49.7930 2.0132 -10.3671 32.1857 0.0076 -0.5615 -1.5430 0.0000 0.0000 0.0000 22.3013 13.5097 -31.3875 -2.8914 -10.5172 30.6683 0.0215 -2.6168 -0.6291 -0.4734 4.4125 -12.2403 -2.7147 -0.4944 13.8340 1.0085 -1.0182 -0.3461 2.8237 -0.3584 -8.0855 -2.4612 -2.5974 -19.1809 2.4071 -3.2017 9.7475 0.8269 -1.4432 6.1431 -0.0000 0.0000 0.0000 -84.4457 5.9079 45.7673 126.6753 -54.2515 -91.1486 -0.0000 0.0000 -25.9891 29.4521 2.5935 1.4636 -7.1250 0.0000 -0.0000 2.3224 32.9514 -0.6861 -0.0000 0.0000 0.0000 86.2669 -24.5714 44.8769 -115.8887 57.3095 -82.2177 0.0000 -0.0000 -8.1948 -25.6073 36.1068 -15.7715 7.1250 -0.0000 -0.0000 4.2316 8.8930 4.8471
0.5659 18.0161 5.5722 2.6792 -9.6589 1.0532 0.0000 0.0000 0.0000 -26.8272 3.3965 5.8867 9.1099 16.8779 56.4695 1.6621 -9.4663 29.3632 0.1506 2.5005 6.8911 0.0000 0.0000 0.0000 23.7208 13.6501 -29.0152 -3.7187 -11.7764 34.9454 0.0289 3.2745 -0.1668 -0.2666 -3.3214 9.1748 -3.4675 0.5090 15.4274 1.0487 0.1447 0.3518 3.0631 0.2294 -8.3112 -2.3991 -2.6206 -18.8133 2.3530 -3.2431 9.4265 0.8000 -1.4697 5.9800 -0.0000 0.0000 0.0000 -84.5554 6.3812 45.6634 122.7963 -55.5176 -87.9750 -0.0000 0.0000 -24.7009 30.2809 3.5798 2.0880 -7.1250 0.0000 -0.0000 3.0106 34.1116 -0.8052 -0.0000 0.0000 0.0000 86.6162 -22.4751 45.0191 -114.6142 57.5822 -81.1435 0.0000 -0.0000 -7.9580 -25.2811 35.8354 -15.4566 7.1250 -0.0000 -0.0000 4.3523 8.5338 4.9633
0.5548 17.7456 6.5009 2.1536 -8.8622 0.8834 0.0000 0.0000 0.0000 -24.7092 3.2543 2.6640 11.2779 18.0684 63.6808 0.7283 -12.5178 25.0873 0.1087 -2.1259 -5.8537 0.0000 0.0000 0.0000 24.7704 13.1545 -28.2723 -4.8526 -13.2158 40.1818 -0.0900 2.2921 -5.3361 -0.3000 -3.5216 9.7345 -2.5537 0.2204 15.4165 1.1936 -0.0627 0.2845 2.7455 0.0978 -8.3608 -2.2638 -2.5766 -18.8330 2.0273 -3.1855 10.2300 0.6762 -1.4607 6.2319 -0.0000 0.0000 0.0000 -85.2141 8.3504 45.9241 120.2561 -56.2413 -85.8719 -0.0000 0.0000 -28.0298 31.1609 0.7692 0.4651 -7.1250 0.0000 -0.0000 3.6527 30.8671 -1.2636 -0.0000 0.0000 0.0000 86.7232 -20.8591 45.5031 -113.5993 57.7873 -80.2858 0.0000 -0.0000 -7.7884 -26.1143 36.0937 -16.1078 7.1250 -0.0000 -0.0000 3.9589 9.0114 4.5401
0.4894 17.5869 7.4168 1.7085 -9.1973 0.5510 0.0000 0.0000 0.0000 -22.4482 3.7222 -1.6185 13.5543 18.9732 70.8385 0.6723 -9.0145 21.2836 0.0072 0.5479 1.5057 0.0000 0.0000 0.0000 25.8288 14.7512 -26.4220 -5.9559 -14.3855 44.8045 -0.3449 1.9480 -10.5879 -0.4544 -4.3245 11.9913 -2.5233 0.6399 15.8365 1.4155 0.5082 0.4727 2.8400 0.3751 -8.4325 -2.4875 -2.6971 -18.9716 2.2209 -3.3199 10.4386 0.7573 -1.5164 6.3318 -0.0000 -0.0000 0.0000 -85.7797 9.6659 44.9181 116.9242 -57.0753 -83.0881 -0.0000 0.0000 -25.9263 29.1967 3.8623 2.1556 -7.1250 0.0000 -0.0000 2.1178 34.3962 -0.5514 -0.0000 -0.0000 0.0000 87.1150 -18.1811 45.6538 -111.8446 58.1179 -78.7984 0.0000 -0.0000 -8.2677 -25.7299 35.7199 -15.7139 7.1250 -0.0000 -0.0000 4.0894 8.5311 4.6618
0.4523 17.3594 8.2740 -0.1607 -8.3378 0.6635 0.0000 0.0000 0.0000 -18.4819 2.8531 -6.4131 16.1309 19.6372 78.6213 0.3078 -8.8993 17.2398 0.0303 -1.1244 -3.0911 0.0000 0.0000 0.0000 28.7090 14.8709 -24.0186 -6.7127 -15.0851 47.7792 -0.6605 -1.1230 -15.7997 -0.5902 -4.9185 13.6763 -0.6079 0.5093 16.6327 1.9473 0.7310 0.5051 2.2727 0.4195 -8.8419 -2.1309 -2.7752 -19.4314 1.7940 -3.4440 10.5593 0.5433 -1.5949 6.4335 0.0000 -0.0000 0.0000 -86.2056 10.8483 44.9091 113.4214 -57.8222 -80.1352 -0.0000 0.0000 -26.1645 29.0701 3.1382 1.7432 -7.1250 0.0000 -0.0000 2.0138 33.5643 -0.5649 0.0000 -0.0000 0.0000 87.5002 -15.5391 46.0266 -110.4750 58.3551 -77.6339 0.0000 -0.0000 -9.2653 -25.8945 34.7272 -15.4587 7.1250 -0.0000 -0.0000 3.8073 7.5601 4.2840
0.4190 17.1723 9.0663 -3.6814 -7.9915 1.7351 0.0000 0.0000 0.0000 -12.2223 2.1835 -13.3305 18.6065 19.9534 85.9226 0.1006 -7.7843 13.0079 0.0093 -0.6243 -1.7155 0.0000 0.0000 0.0000 33.5377 14.8314 -22.2130 -7.1039 -15.4188 49.2663 -0.8748 -4.1439 -19.6366 -0.0540 -1.4993 4.1237 2.4675 0.4836 17.2871 3.0484 1.4216 0.2757 1.5497 0.6414 -9.4512 -1.8222 -2.8079 -19.9148 1.4386 -3.5028 10.3969 0.3682 -1.6393 6.4473 0.0000 0.0000 0.0000 -86.6474 12.2570 44.7205 109.9250 -58.4455 -77.1655 -0.0000 0.0000 -26.4611 30.1449 3.2695 1.8970 -7.1250 0.0000 -0.0000 2.8953 33.7488 -0.7998 0.0000 0.0000 0.0000 87.5345 -12.4134 46.6525 -108.8932 58.6073 -76.2855 0.0000 -0.0000 -10.1893 -25.5295 35.0749 -15.3472 7.1250 -0.0000 -0.0000 4.0716 7.8225 4.5988
0.3981 17.0680 9.9678 -3.1488 -6.5150 1.5174 0.0000 0.0000 0.0000 -11.7816 0.3245 -17.8050 20.0833 19.9998 90.2437 0.0471 -5.5276 9.1647 0.0460 1.3840 3.8060 0.0000 0.0000 0.0000 33.4016 12.7635 -19.5431 -7.3440 -15.6149 50.1638 -1.3598 -4.3422 -23.9732 -0.0578 -1.5509 4.2660 2.3501 0.3510 17.2128 2.8760 1.1957 0.4669 1.4834 0.5367 -9.1940 -1.7846 -3.0111 -20.0295 1.5435 -3.7909 9.8659 0.3663 -1.7690 6.2996 0.0000 0.0000 0.0000 -86.8610 14.0605 44.4872 108.2979 -58.6963 -75.7771 -0.0000 0.0000 -25.9238 30.7266 6.4532 3.8219 -7.1250 0.0000 -0.0000 3.3942 37.4564 -0.6310 0.0000 0.0000 0.0000 87.3910 -9.6263 47.4473 -108.4521 58.6736 -75.9088 0.0000 -0.0000 -9.6923 -26.2648 34.8621 -15.7520 7.1250 -0.0000 -0.0000 3.6329 7.7934 4.0997
0.3558 17.0397 10.8529 -2.7218 -7.1071 1.9245 0.0000 0.0000 0.0000 -11.2107 0.4391 -23.4947 20.9931 19.9763 92.9046 0.0154 -4.3796 6.8047 0.0131 0.7389 2.0307 0.0000 0.0000 0.0000 33.2054 12.3199 -16.7371 -7.3839 -15.6468 50.3118 -1.6545 -4.1884 -26.1073 -0.0002 0.0883 -0.2425 1.6171 1.0539 16.7291 2.7060 1.9431 0.6173 1.5353 0.9246 -8.7821 -1.8134 -3.1957 -20.1659 1.9247 -4.0677 9.0020 0.4677 -1.8747 6.0560 0.0000 0.0000 0.0000 -86.8161 16.0568 44.6166 107.7233 -58.7792 -75.2859 -0.0000 0.0000 -24.8548 29.6717 4.5674 2.5977 -7.1250 0.0000 -0.0000 2.5103 35.2239 -0.6033 0.0000 0.0000 0.0000 87.4465 -6.9324 47.9951 -109.4216 58.5257 -76.7363 0.0000 -0.0000 -8.6198 -25.5106 33.9096 -14.9077 7.1250 -0.0000 -0.0000 3.8626 6.6257 4.2917
0.3211 17.0432 11.7250 -2.9903 -6.3555 2.2659 0.0000 0.0000 0.0000 -10.0297 -0.8588 -29.2883 21.4883 19.9468 94.3552 -0.0394 -3.9874 3.4498 0.0608 1.5915 4.3781 0.0000 0.0000 0.0000 33.7285 10.4691 -13.4384 -7.1214 -15.4333 49.3319 -2.1404 -2.4342 -28.6076 -0.0151 -0.7943 2.1830 1.9511 1.3440 16.7532 2.6726 2.3930 0.5244 1.2009 1.1250 -8.8900 -1.9038 -3.4242 -20.4696 2.3257 -4.3920 8.6431 0.5738 -2.0006 6.0061 -0.0000 -0.0000 0.0000 -86.2797 18.3611 45.4061 109.5574 -58.5042 -76.8521 -0.0000 0.0000 -25.5033 28.5982 3.2819 1.7876 -7.1250 0.0000 -0.0000 1.6271 33.7131 -0.4505 -0.0000 -0.0000 0.0000 87.5657 -5.1650 48.4392 -111.8033 58.1253 -78.7634 0.0000 -0.0000 -7.7600 -26.1753 33.4820 -15.1717 7.1250 -0.0000 -0.0000 3.4182 6.3531 3.7818
0.3286 17.0941 12.6371 -3.3078 -5.2371 2.9077 0.0000 0.0000 0.0000 -9.5018 -2.3790 -33.9263 21.3685 19.9550 94.0041 -0.0515 -4.0516 0.9428 0.0003 0.1077 0.2958 0.0000 0.0000 0.0000 33.9429 7.8599 -10.5566 -6.7033 -15.0769 47.7431 -2.1008 -1.8357 -28.1108 -0.1750 2.6947 -7.4298 2.9785 1.2950 16.1771 2.5247 2.5031 0.1222 0.4442 1.1293 -8.9565 -1.8582 -3.6146 -20.3842 2.5142 -4.6892 8.7450 0.5944 -2.1264 6.0357 -0.0000 0.0000 0.0000 -85.6461 21.1315 46.0143 112.0862 -58.0741 -79.0036 -0.0000 0.0000 -26.2789 28.4397 2.8775 1.5574 -7.1250 0.0000 -0.0000 1.4988 33.2487 -0.4318 -0.0000 0.0000 0.0000 87.5008 -3.7800 49.5044 -114.5828 57.5887 -81.1170 0.0000 -0.0000 -9.1712 -26.1587 33.3955 -15.1280 7.1250 -0.0000 -0.0000 3.4113 6.2598 3.7693
0.3167 17.2303 13.5896 -3.9689 -5.1212 3.4358 0.0000 0.0000 0.0000 -8.9301 -3.0008 -37.5397 20.5372 19.9931 91.5709 -0.0402 -4.5202 -1.3255 0.0362 -1.2281 -3.3766 0.0000 0.0000 0.0000 34.4425 6.1984 -6.8920 -6.1529 -14.5749 45.5925 -1.7843 -0.9483 -25.6205 -0.3217 3.6459 -10.0827 4.0122 1.7392 15.3955 2.4712 3.2422 -0.0470 -0.3426 1.4436 -8.6325 -2.2260 -3.9423 -20.6812 3.0732 -5.1143 9.1424 0.7761 -2.2901 6.2460 0.0000 -0.0000 0.0000 -84.9558 23.3567 46.7318 114.1974 -57.6677 -80.7914 -0.0000 0.0000 -27.4895 26.7217 1.4710 0.7404 -7.1250 0.0000 -0.0000 0.1181 31.6265 -0.0386 0.0000 -0.0000 0.0000 87.4385 -2.6231 49.9837 -117.0882 57.0372 -83.2258 0.0000 -0.0000 -9.7074 -27.5099 33.3323 -15.9695 7.1250 -0.0000 -0.0000 2.6554 6.5431 2.9437
0.3015 17.4320 14.5126 -4.1396 -3.8170 3.8159 0.0000 0.0000 0.0000 -9.1194 -5.3030 -40.4941 19.0417 19.9780 87.1972 -0.0462 -5.3736 -2.0768 0.0772 -1.7920 -4.9311 0.0000 0.0000 0.0000 34.2877 4.2364 -3.7796 -5.5238 -13.9504 43.0391 -1.1897 0.1806 -20.5708 -0.4245 4.1814 -11.5876 4.6907 1.7258 15.1460 2.2432 3.3206 -0.2471 -0.9785 1.4445 -8.6556 -1.9563 -4.1351 -21.3464 3.1411 -5.4572 9.5339 0.7017 -2.4266 6.4821 0.0000 -0.0000 0.0000 -84.4599 25.4610 46.7197 116.1573 -57.2499 -82.4438 -0.0000 0.0000 -27.8941 26.3822 0.8500 0.4216 -7.1250 0.0000 -0.0000 -0.1481 30.9286 0.0509 0.0000 -0.0000 0.0000 87.6107 -1.6392 50.3563 -119.7524 56.3756 -85.4528 0.0000 -0.0000 -9.7777 -27.7929 32.9395 -15.9924 7.1250 -0.0000 -0.0000 2.4231 6.2103 2.6733
0.2665 17.6381 15.5023 -4.4363 -3.5554 3.8717 0.0000 0.0000 0.0000 -9.4603 -6.0861 -41.8257 17.1010 19.7973 81.4962 -0.0771 -6.7128 -2.4186 0.2153 -2.9874 -8.2438 0.0000 0.0000 0.0000 34.0612 2.7808 0.1000 -4.8081 -13.1644 39.9871 -0.5064 0.7048 -13.2172 -0.3451 3.7745 -10.4432 4.9782 2.1250 14.5166 2.1555 3.8616 -0.4481 -1.3250 1.6946 -8.4677 -1.7891 -4.3814 -20.6225 3.0073 -5.8159 9.2527 0.6056 -2.6172 6.2756 0.0000 0.0000 0.0000 -84.3019 28.0101 46.2962 117.4085 -56.9619 -83.4944 -0.0000 0.0000 -28.2071 26.4116 2.7081 1.3442 -7.1250 0.0000 -0.0000 -0.1509 33.0028 0.0443 0.0000 0.0000 0.0000 87.5934 -1.3140 50.4800 -121.4521 55.9104 -86.8644 0.0000 -0.0000 -9.4395 -26.0114 31.8775 -14.4509 7.1250 -0.0000 -0.0000 3.2191 4.6543 3.4750
0.2515 17.9207 16.5752 -4.4534 -3.1914 3.9409 0.0000 0.0000 0.0000 -10.4466 -6.8962 -41.6708 14.6031 19.2868 74.0381 -0.1148 -8.3057 -3.0939 0.2586 -3.2719 -9.0366 0.0000 0.0000 0.0000 33.1064 1.1171 4.2361 -3.9029 -12.0300 35.8383 -0.0379 1.4432 -3.4609 -0.0795 1.8193 -5.0065 5.3175 2.3919 13.1864 1.9901 4.1757 -0.6510 -1.6898 1.8469 -7.8788 -2.0821 -4.5061 -19.7913 3.4723 -5.9943 9.4353 0.7933 -2.6821 6.2320 -0.0000 0.0000 0.0000 -84.6144 30.5200 45.3414 117.9282 -56.8372 -83.9297 -0.0000 0.0000 -27.9652 28.1544 11.9885 6.3431 -7.1250 0.0000 -0.0000 0.8690 43.5195 -0.0318 -0.0000 0.0000 0.0000 87.4119 -1.4231 50.6648 -122.4224 55.6291 -87.6666 0.0000 -0.0000 -8.7456 -24.8581 32.3552 -13.9252 7.1250 -0.0000 -0.0000 3.9479 4.8694 4.2785
0.2366 18.1421 17.6275 -4.2103 -1.3051 3.4790 0.0000 0.0000 0.0000 -11.7579 -8.9721 -40.5488 11.9048 18.3501 65.6869 -0.2478 -10.2876 -1.9481 0.3441 -3.7695 -10.4290 0.0000 0.0000 0.0000 32.1630 -1.1609 8.2157 -3.0125 -10.7152 31.3252 -0.1612 -0.9258 7.3132 -0.0957 1.9953 -5.4927 5.6180 2.1727 12.2743 1.8027 3.8531 -0.7231 -1.9516 1.6901 -7.4255 -1.7454 -4.7386 -19.6144 2.9766 -6.3464 10.0360 0.5384 -2.8764 6.3783 -0.0000 -0.0000 0.0000 -84.7534 33.0870 44.4222 118.9457 -56.5844 -84.7803 -0.0000 0.0000 -27.9513 28.7524 1.0288 0.5644 -7.1250 0.0000 -0.0000 1.7413 31.1505 -0.5897 -0.0000 -0.0000 0.0000 87.2315 -1.7513 51.0366 -122.6072 55.5742 -87.8191 0.0000 -0.0000 -9.3295 -25.2057 33.5743 -14.5902 7.1250 -0.0000 -0.0000 3.9689 6.2064 4.3848
0.2196 18.3253 18.6762 -4.0751 -0.2301 3.5732 0.0000 0.0000 0.0000 -12.7968 -10.3901 -39.4829 9.2288 16.9527 56.8781 -0.4117 -12.0144 0.0171 0.4752 -4.4210 -12.2641 0.0000 0.0000 0.0000 31.6352 -1.2230 11.7485 -2.4177 -9.6867 27.9682 -0.8403 -4.4758 16.3935 -0.0085 0.5945 -1.6335 5.8538 2.2207 11.2800 1.5412 3.8724 -1.0149 -2.3187 1.6919 -7.1384 -2.0828 -4.9107 -19.7117 3.5124 -6.6127 11.0907 0.7180 -2.9545 6.7748 0.0000 -0.0000 0.0000 -84.5720 35.0595 43.8156 120.2529 -56.2422 -85.8692 -0.0000 0.0000 -27.7437 30.3516 3.3931 1.9849 -7.1250 0.0000 -0.0000 3.0665 33.8984 -0.8360 0.0000 -0.0000 0.0000 87.2028 -2.2574 50.9926 -123.4250 55.3260 -88.4926 0.0000 -0.0000 -8.4584 -26.4860 34.6976 -15.8355 7.1250 -0.0000 -0.0000 3.4810 7.6822 3.9218
0.2087 18.4699 19.7199 -3.5992 0.5253 3.5703 0.0000 0.0000 0.0000 -14.5500 -11.0942 -37.8597 6.8002 15.1613 48.1145 -0.5756 -13.3896 3.2824 0.5627 -4.8044 -13.3516 0.0000 0.0000 0.0000 31.1634 -0.4017 14.5957 -2.2223 -9.3145 26.7843 -1.6696 -6.0835 23.2232 -0.0135 -0.7506 2.0629 5.7897 2.2977 10.4321 1.1122 3.8971 -1.4818 -2.7069 1.6919 -7.1265 -2.3821 -5.0040 -18.4070 4.0618 -6.7952 11.5487 0.9425 -3.0186 6.7476 -0.0000 -0.0000 0.0000 -84.1716 37.3634 43.2050 121.6968 -55.8406 -87.0669 -0.0000 0.0000 -28.2758 29.9952 4.7841 2.7562 -7.1250 0.0000 -0.0000 2.7800 35.4882 -0.6503 -0.0000 -0.0000 0.0000 87.2718 -3.5407 51.2627 -124.2965 55.0519 -89.2081 0.0000 -0.0000 -8.1683 -26.3155 34.0735 -15.4872 7.1250 -0.0000 -0.0000 3.4529 6.9974 3.8545
0.1804 18.5551 20.7046 -4.1859 1.5695 3.9392 0.0000 0.0000 0.0000 -14.9231 -11.6291 -36.8315 4.8256 13.1847 40.0639 -0.7228 -14.8593 5.9250 0.3950 -4.0353 -11.1759 0.0000 0.0000 0.0000 32.6761 1.3975 15.8604 -2.4706 -9.7843 28.2811 -1.9593 -7.0122 25.1658 -0.2939 -3.4864 9.6359 6.5702 2.2049 9.8005 1.0033 3.8373 -1.8855 -3.2244 1.6205 -7.1498 -2.2404 -5.1313 -18.3060 4.1258 -7.0434 12.1154 0.9078 -3.1178 6.9211 0.0000 -0.0000 0.0000 -83.9995 39.1539 42.3701 123.4759 -55.3102 -88.5345 -0.0000 0.0000 -28.3758 29.0869 2.8698 1.5954 -7.1250 0.0000 -0.0000 2.0268 33.2580 -0.5836 0.0000 -0.0000 0.0000 87.2380 -3.9648 51.8456 -124.9090 54.8532 -89.7096 0.0000 -0.0000 -8.2651 -25.6773 33.7811 -14.9666 7.1250 -0.0000 -0.0000 3.7475 6.5355 4.1581
0.1399 18.5841 21.6936 -4.7594 1.6848 4.0358 0.0000 0.0000 0.0000 -15.4983 -10.9194 -35.6934 3.3214 11.1980 32.9506 -0.7363 -15.1814 8.2573 0.0848 -1.8779 -5.1684 0.0000 0.0000 0.0000 34.1409 3.2325 16.7867 -3.0504 -10.7762 31.5287 -1.6395 -8.2635 22.9306 -0.2802 -3.4044 9.4067 6.9770 2.3862 9.7527 0.9566 4.1504 -2.3662 -3.5575 1.7267 -7.5805 -2.2356 -5.2086 -17.8547 4.2208 -7.1907 12.4646 0.9266 -3.1811 6.9684 -0.0000 -0.0000 0.0000 -83.7102 41.0191 41.9820 125.7913 -54.5581 -90.4297 -0.0000 0.0000 -28.0782 28.8312 2.5990 1.4298 -7.1250 0.0000 -0.0000 1.8176 32.9421 -0.5372 -0.0000 -0.0000 0.0000 87.2382 -4.7874 52.4106 -125.3645 54.7022 -90.0817 0.0000 -0.0000 -8.5319 -25.5360 34.0911 -14.9911 7.1250 -0.0000 -0.0000 3.8823 6.8181 4.3251
0.1115 18.5928 22.6733 -4.7577 1.4440 4.1458 0.0000 0.0000 0.0000 -17.3317 -9.1442 -34.7042 2.3771 9.6110 27.7261 -0.6814 -14.5405 7.2875 0.3436 -3.7667 -10.4213 0.0000 0.0000 0.0000 34.4505 4.4712 16.7835 -3.9513 -12.0954 36.0702 -1.1683 -9.4893 19.4524 -0.1619 -2.5922 7.1454 6.7096 2.6052 9.4738 0.8900 4.3799 -2.3586 -3.4943 1.8578 -7.3988 -2.3740 -5.1945 -17.8421 4.4503 -7.1626 12.2030 1.0287 -3.1582 6.8948 0.0000 -0.0000 0.0000 -84.1389 41.6122 41.0956 127.5549 -53.9353 -91.8610 -0.0000 0.0000 -27.6271 29.5816 4.1572 2.3564 -7.1250 0.0000 -0.0000 2.4359 34.7492 -0.6135 0.0000 -0.0000 0.0000 87.2350 -4.6293 52.9446 -125.2175 54.7512 -89.9617 0.0000 -0.0000 -8.3127 -25.8565 33.5911 -15.0097 7.1250 -0.0000 -0.0000 3.6138 6.3852 4.0009
0.0875 18.5514 23.6246 -4.8339 1.5336 3.6334 0.0000 0.0000 0.0000 -19.0147 -7.5675 -33.5513 1.9262 8.7107 24.8944 -0.4422 -11.8757 6.6424 0.9359 -6.1622 -17.2559 0.0000 0.0000 0.0000 34.5638 4.6329 16.0439 -5.2006 -13.6062 41.6822 -0.7057 -10.7058 15.6981 -0.2107 -2.9555 8.1548 6.6774 2.6421 9.9286 0.8490 4.4458 -2.1086 -3.5496 1.8954 -7.3826 -2.5474 -5.1644 -17.6180 4.6817 -7.0892 11.5846 1.1501 -3.1249 6.6701 0.0000 0.0000 0.0000 -84.4954 41.6616 40.6152 129.0764 -53.3613 -93.0865 -0.0000 0.0000 -27.0006 29.3806 3.7302 2.0978 -7.1250 0.0000 -0.0000 2.2696 34.2520 -0.5990 0.0000 0.0000 0.0000 87.2935 -4.6243 53.0240 -124.7383 54.9091 -89.5700 0.0000 -0.0000 -8.3682 -26.3149 32.9655 -15.0617 7.1250 -0.0000 -0.0000 3.2455 5.8557 3.5652
0.0452 18.4488 24.5830 -4.9673 1.5344 2.8293 0.0000 0.0000 0.0000 -20.2732 -5.9893 -31.9848 1.7250 8.2681 23.5313 -0.3905 -11.3021 6.9651 0.9489 -6.2036 -17.3762 0.0000 0.0000 0.0000 34.5110 4.5035 14.7890 -6.7981 -15.1595 48.1066 -0.3571 -12.3293 12.8441 -0.5353 -4.6879 13.0204 6.4741 2.7218 10.6830 0.8871 4.5725 -1.7963 -3.4534 1.9676 -7.4830 -2.9085 -5.1776 -17.9326 4.9807 -7.0524 11.4431 1.3020 -3.0939 6.7000 0.0000 -0.0000 0.0000 -84.6715 41.0322 40.6453 129.6962 -53.1173 -93.5831 -0.0000 0.0000 -26.2735 29.3462 2.7504 1.5454 -7.1250 0.0000 -0.0000 2.2376 33.1285 -0.6514 0.0000 -0.0000 0.0000 87.3413 -4.3604 53.0335 -123.4945 55.3045 -88.5497 0.0000 -0.0000 -8.1721 -26.4297 32.6739 -15.0207 7.1250 -0.0000 -0.0000 3.1283 5.5830 3.4227
-0.0031 18.2910 25.5225 -4.8223 2.3327 2.0645 0.0000 0.0000 0.0000 -21.3675 -5.5807 -30.3360 1.7100 8.2340 23.4271 -0.5044 -12.9961 8.7455 0.6826 -5.2826 -14.7162 0.0000 0.0000 0.0000 33.5348 3.0970 12.2265 -8.6895 -16.6037 55.0100 -0.2311 -13.0127 11.8422 -0.3224 -3.6499 10.0936 5.9697 2.5481 11.0469 0.8832 4.2812 -1.4286 -3.1423 1.8585 -7.3577 -2.9317 -5.2016 -17.6107 5.0197 -7.0707 11.0291 1.3267 -3.1131 6.5161 0.0000 0.0000 0.0000 -85.0065 39.8082 40.6947 129.7919 -53.0791 -93.6596 -0.0000 0.0000 -25.7724 29.7546 2.8407 1.6228 -7.1250 0.0000 -0.0000 2.5713 33.2431 -0.7416 0.0000 0.0000 0.0000 87.3848 -3.9390 52.9445 -121.8046 55.8096 -87.1561 0.0000 -0.0000 -8.1216 -26.5418 31.7585 -14.7299 7.1250 -0.0000 -0.0000 2.9003 4.6618 3.1303
-0.0564 18.0734 26.4678 -4.8285 3.2336 1.2583 0.0000 0.0000 0.0000 -22.0486 -5.2428 -28.6636 1.8676 8.5848 24.5048 -0.7037 -15.1920 9.9273 0.4703 -4.3986 -12.2008 0.0000 0.0000 0.0000 32.2879 1.2139 9.3266 -10.7276 -17.7992 61.8939 -0.0530 -14.0069 10.4517 -0.1942 -2.8378 7.8274 5.5236 2.2819 11.6023 0.8768 3.8933 -1.2049 -2.8634 1.6860 -7.4970 -2.6071 -5.0585 -17.4491 4.9391 -6.9492 11.0790 1.2662 -3.0495 6.4864 0.0000 0.0000 0.0000 -85.0180 38.5647 41.1078 129.7753 -53.0857 -93.6463 -0.0000 0.0000 -25.3880 29.7045 3.2969 1.8792 -7.1250 0.0000 -0.0000 2.5343 33.7662 -0.6988 0.0000 0.0000 0.0000 87.8226 -4.1269 52.4114 -119.3059 56.4921 -85.0807 0.0000 -0.0000 -7.9226 -26.2936 32.9428 -15.0395 7.1250 -0.0000 -0.0000 3.2531 5.8269 3.5721
-0.0906 17.8441 27.4157 -4.5774 3.8566 0.7154 0.0000 0.0000 0.0000 -22.4937 -5.7380 -27.7291 2.5094 9.8550 28.5085 -1.0330 -17.6689 7.6571 0.1660 2.6245 7.2350 0.0000 0.0000 0.0000 30.3200 -0.4744 6.0742 -12.8198 -18.7161 68.5648 0.1799 -14.6257 8.0726 -0.2168 -2.9977 8.2723 4.8387 2.0671 12.0472 0.8373 3.5395 -1.3177 -2.4892 1.5253 -7.9391 -2.3797 -4.9646 -16.9446 4.7448 -6.8816 11.5878 1.1813 -3.0239 6.5488 -0.0000 -0.0000 0.0000 -85.2031 37.5318 41.5859 129.4946 -53.1973 -93.4217 -0.0000 0.0000 -24.7678 30.1579 2.5609 1.4871 -7.1250 0.0000 -0.0000 2.8958 32.9314 -0.8572 -0.0000 -0.0000 0.0000 88.1411 -5.5206 51.8883 -117.3109 56.9849 -83.4125 0.0000 -0.0000 -7.3754 -26.6544 32.5191 -15.1010 7.1250 -0.0000 -0.0000 2.9750 5.4796 3.2496
-0.1330 17.5737 28.3378 -4.8126 4.0531 0.0758 0.0000 0.0000 0.0000 -22.5829 -5.6543 -26.5570 3.6430 11.6696 34.5730 -0.8077 -17.6674 -2.1969 0.1611 2.5858 7.1275 0.0000 0.0000 0.0000 28.8688 -1.7187 2.5852 -14.9546 -19.3784 75.1000 0.4168 -14.9363 4.9033 -0.2135 -2.9748 8.2086 4.4453 1.8890 12.6661 0.9953 3.2813 -1.0512 -2.0772 1.4204 -8.0541 -2.6662 -4.9706 -16.8730 5.1719 -6.8893 11.5437 1.3642 -3.0058 6.5500 -0.0000 0.0000 0.0000 -85.7390 35.5381 42.0559 129.5461 -53.1769 -93.4629 -0.0000 0.0000 -23.9253 29.8517 3.6229 2.0769 -7.1250 0.0000 -0.0000 2.6575 34.1459 -0.7084 -0.0000 0.0000 0.0000 88.6026 -6.2244 50.9072 -114.9840 57.5048 -81.4555 0.0000 -0.0000 -6.8023 -26.9020 34.6356 -16.0859 7.1250 -0.0000 -0.0000 3.2433 7.7275 3.6554
-0.1494 17.3323 29.2231 -4.1181 4.3293 0.1480 0.0000 0.0000 0.0000 -23.5278 -7.1232 -25.7140 4.8229 13.1815 40.0517 -0.1482 -14.7104 -8.5556 0.5357 4.6899 13.0263 0.0000 0.0000 0.0000 26.2415 -2.3458 -1.8573 -17.1359 -19.8022 81.5993 0.4200 -13.3829 2.5868 -0.2484 -3.2068 8.8551 3.5684 1.5855 13.3680 0.6929 2.7421 -0.8247 -1.8281 1.1866 -8.2665 -2.5009 -4.8300 -18.7545 5.3615 -6.7911 12.4714 1.3667 -2.8807 7.1636 0.0000 -0.0000 0.0000 -86.3050 32.1759 42.3939 128.7793 -53.4761 -92.8480 -0.0000 0.0000 -23.5482 29.0829 2.7048 1.5035 -7.1250 0.0000 -0.0000 2.0228 33.0694 -0.5917 0.0000 -0.0000 0.0000 88.8704 -5.5156 51.0055 -111.2549 58.2222 -78.2974 0.0000 -0.0000 -6.0798 -25.8820 32.4163 -14.5792 7.1250 -0.0000 -0.0000 3.3867 5.1803 3.6849
-0.1733 17.0744 30.0840 -2.2085 3.5267 0.5712 0.0000 0.0000 0.0000 -26.1742 -7.3880 -24.0653 5.6864 14.1174 43.7096 0.7259 -10.1347 -15.7473 0.0281 1.0825 2.9759 0.0000 0.0000 0.0000 22.1600 -1.4078 -7.2928 -19.4137 -19.9918 88.2857 0.2825 -10.6108 1.4187 -0.1425 -2.4324 6.7023 1.2192 1.7977 13.5435 0.1119 2.5996 -0.7658 -1.1018 1.2053 -8.3832 -2.1629 -4.7039 -19.0362 5.2942 -6.6855 12.3366 1.2998 -2.8173 7.1486 0.0000 0.0000 0.0000 -86.6744 28.9335 43.1874 128.0233 -53.7623 -92.2392 -0.0000 0.0000 -24.4498 28.3898 2.1523 1.1628 -7.1250 0.0000 -0.0000 1.4586 32.4236 -0.4493 0.0000 0.0000 0.0000 89.3759 -5.8182 50.5767 -107.8766 58.7574 -75.4170 0.0000 -0.0000 -5.8706 -25.8871 32.5757 -14.6434 7.1250 -0.0000 -0.0000 3.4123 5.3462 3.7218
-0.2014 16.8843 30.8974 -0.0296 3.1737 0.0497 0.0000 0.0000 0.0000 -28.6922 -8.1640 -21.2037 6.3095 14.7217 46.2114 1.1532 -8.7971 -19.2635 0.1131 2.1685 5.9716 0.0000 0.0000 0.0000 17.8356 -0.9858 -12.1074 -21.2973 -19.9596 93.7956 0.1572 -7.2815 -0.5685 -0.0610 -1.5943 4.3856 -1.2147 1.8646 15.1891 -0.4761 2.2157 -0.4017 -0.3264 1.1079 -9.0029 -2.2442 -4.7294 -19.2131 5.4449 -6.6628 11.3323 1.3685 -2.8133 6.8575 0.0000 -0.0000 0.0000 -86.8317 24.5112 44.2998 127.1931 -54.0667 -91.5683 -0.0000 0.0000 -26.4641 29.9054 3.7520 2.1554 -7.1250 0.0000 -0.0000 2.7026 34.2964 -0.7105 0.0000 -0.0000 0.0000 89.8248 -6.7965 49.8222 -105.6305 59.0564 -73.4935 0.0000 -0.0000 -5.8673 -25.7673 32.5901 -14.5743 7.1250 -0.0000 -0.0000 3.4816 5.3316 3.7968
-0.2296 16.7566 31.6955 0.1168 2.2768 0.3409 0.0000 0.0000 0.0000 -28.8836 -7.2692 -19.4485 6.7786 15.1426 48.0319 1.5460 -8.6028 -22.2650 0.1393 2.4056 6.6280 0.0000 0.0000 0.0000 16.6157 1.1008 -18.2608 -22.6270 -19.8337 97.7014 0.0934 -5.4161 -1.7694 -0.0645 -1.6383 4.5072 -1.7460 2.0028 15.6889 -0.5506 2.2869 -0.0963 -0.1326 1.1620 -8.9720 -2.0865 -4.6744 -19.8911 5.5508 -6.5905 10.5165 1.3808 -2.7657 6.6993 -0.0000 0.0000 0.0000 -86.9131 19.4857 45.6632 126.4243 -54.3396 -90.9448 -0.0000 0.0000 -27.8051 29.4166 5.5773 3.1367 -7.1250 0.0000 -0.0000 2.2887 36.3680 -0.4861 -0.0000 0.0000 0.0000 90.5408 -8.2868 48.4765 -105.5261 59.0693 -73.4040 0.0000 -0.0000 -5.8170 -25.2054 31.9474 -13.9853 7.1250 -0.0000 -0.0000 3.6838 4.5316 3.9713
-0.2420 16.7119 32.5364 -0.2512 1.0511 0.8369 0.0000 0.0000 0.0000 -28.7278 -5.1777 -17.4254 6.9047 15.2511 48.5128 1.9114 -7.6940 -24.8129 0.0593 1.5715 4.3227 0.0000 0.0000 0.0000 16.2034 3.8207 -24.4826 -23.2711 -19.7415 99.6037 0.0278 -4.0444 -4.4099 -0.1680 -2.6406 7.2796 -1.7802 2.1708 15.4150 -0.4109 2.5239 0.1105 -0.0026 1.2799 -8.6036 -2.0988 -4.5746 -20.5812 5.6813 -6.4425 10.1379 1.4344 -2.6778 6.6876 -0.0000 0.0000 0.0000 -87.2319 14.8620 46.5301 125.8789 -54.5282 -90.5011 -0.0000 0.0000 -27.5749 28.7743 2.7488 1.5086 -7.1250 0.0000 -0.0000 1.7716 33.1114 -0.5164 -0.0000 0.0000 0.0000 90.5742 -9.9966 47.7761 -106.5074 58.9449 -74.2452 0.0000 -0.0000 -6.8289 -24.5475 31.7448 -13.5121 7.1250 -0.0000 -0.0000 4.0199 4.1673 4.3117
-0.2564 16.7201 33.3953 -0.3828 0.2740 1.4395 0.0000 0.0000 0.0000 -28.8250 -3.6658 -14.6277 6.6316 15.0137 47.4669 1.9703 -7.6467 -25.2068 0.1201 2.2338 6.1523 0.0000 0.0000 0.0000 15.9298 5.8939 -29.8352 -23.2328 -19.7476 99.4903 -0.0163 -3.3966 -5.5771 -0.0032 -0.3657 1.0048 -1.9946 1.9799 15.3855 -0.4003 2.2309 -0.1774 0.1906 1.1505 -8.9043 -1.9976 -4.3008 -20.4343 5.7862 -6.1077 9.9306 1.4961 -2.5108 6.5847 -0.0000 0.0000 0.0000 -87.6744 11.6966 46.3677 126.8874 -54.1763 -91.3206 -0.0000 0.0000 -25.8935 28.2599 2.9303 1.5741 -7.1250 0.0000 -0.0000 1.3519 33.3036 -0.3877 -0.0000 0.0000 0.0000 90.3840 -12.0381 48.0458 -107.1108 58.8643 -74.7619 0.0000 -0.0000 -7.3275 -24.9475 32.0195 -13.8554 7.1250 -0.0000 -0.0000 3.8408 4.5446 4.1421
-0.2387 16.7794 34.2667 -0.2650 0.7183 1.7788 0.0000 0.0000 0.0000 -29.3205 -3.2754 -10.2526 6.1062 14.5305 45.4064 1.8024 -7.2772 -24.0883 0.0216 0.9484 2.6068 0.0000 0.0000 0.0000 15.3738 6.4663 -34.0908 -22.5430 -19.8442 97.4538 -0.0463 -3.0511 -6.3060 -0.0414 -1.3137 3.6125 -1.9363 1.1736 15.3569 -0.2994 1.1815 -0.2023 0.5070 0.6468 -8.8912 -2.0276 -4.0446 -21.2058 5.5469 -5.7474 10.5970 1.4529 -2.3328 6.9040 -0.0000 0.0000 0.0000 -88.4177 9.2995 46.0833 129.0357 -53.3771 -93.0538 -0.0000 0.0000 -24.1412 28.9394 1.6518 0.9131 -7.1250 0.0000 -0.0000 1.8985 31.8635 -0.6105 -0.0000 0.0000 0.0000 89.3545 -13.3656 48.9969 -108.6861 58.6387 -76.1086 0.0000 -0.0000 -8.6861 -24.4942 32.1097 -13.6134 7.1250 -0.0000 -0.0000 4.1103 4.5308 4.4332
-0.2373 16.9605 35.2129 -0.0125 1.9569 1.8920 0.0000 0.0000 0.0000 -29.6399 -3.1664 -5.5631 5.5041 13.9300 42.9577 1.4053 -7.5848 -21.2010 0.0655 -1.6511 -4.5424 0.0000 0.0000 0.0000 15.2136 6.2406 -36.9206 -21.1095 -19.9705 93.2454 -0.1163 -2.5714 -7.9233 -0.0031 -0.3621 0.9949 -2.2671 0.1462 15.2278 -0.0088 -0.2136 -0.3864 1.3245 0.0017 -8.9789 -2.2568 -3.6697 -20.6363 5.2452 -5.1332 10.5389 1.4732 -2.0875 6.7645 0.0000 0.0000 0.0000 -88.9178 7.2399 45.6400 131.3673 -52.4289 -94.9137 -0.0000 0.0000 -25.7867 29.1660 1.6467 0.9188 -7.1250 0.0000 -0.0000 2.0806 31.8610 -0.6692 0.0000 0.0000 0.0000 88.1524 -15.8717 49.6091 -111.5106 58.1774 -78.5148 0.0000 -0.0000 -9.7155 -23.3505 33.0077 -13.2341 7.1250 -0.0000 -0.0000 4.8976 5.1865 5.3390
-0.2434 17.1504 36.1714 -0.5538 1.6867 2.1877 0.0000 0.0000 0.0000 -29.0016 -1.4481 -1.4522 4.8305 13.1904 40.0853 0.9560 -6.5273 -17.4445 0.7837 -5.6515 -15.7765 0.0000 0.0000 0.0000 16.1241 8.0914 -39.0308 -19.1890 -19.9842 87.6281 -0.1627 -2.5584 -9.0093 -0.0250 -1.0216 2.8083 -2.2332 -0.3385 14.5922 0.5559 -0.7855 -0.4135 2.0323 -0.2657 -8.6164 -2.0764 -3.3541 -21.2465 4.4549 -4.6488 11.1166 1.2365 -1.9022 7.0057 -0.0000 -0.0000 0.0000 -89.1810 5.1387 45.3645 133.2227 -51.6101 -96.3762 -0.0000 0.0000 -28.2944 29.2394 1.0206 0.5713 -7.1250 0.0000 -0.0000 2.1297 31.1452 -0.7217 -0.0000 -0.0000 0.0000 86.7279 -17.6634 50.2564 -112.9743 57.9085 -79.7566 0.0000 -0.0000 -10.7467 -22.9565 33.3604 -13.1120 7.1250 -0.0000 -0.0000 5.1738 5.4562 5.6645
-0.2254 17.3800 37.1595 -0.4340 1.6835 2.5934 0.0000 0.0000 0.0000 -28.8157 -0.1934 2.2088 4.0900 12.2792 36.7270 0.2912 -8.4069 -10.5170 1.2787 -7.1664 -20.2093 0.0000 0.0000 0.0000 16.2659 9.3185 -39.9545 -16.7823 -19.7499 80.5542 -0.2407 -1.5268 -9.9551 -0.0001 0.0607 -0.1666 -2.4049 -0.9011 14.0386 0.8003 -1.5332 -0.8129 2.5447 -0.6076 -8.6861 -1.5093 -2.8252 -21.2996 3.4704 -3.9587 11.7661 0.9048 -1.6307 7.1693 -0.0000 -0.0000 0.0000 -88.8882 4.1470 44.9866 135.1098 -50.7146 -97.8463 -0.0000 0.0000 -30.6743 30.1685 1.1591 0.6737 -7.1250 0.0000 -0.0000 2.8744 31.3126 -0.9630 -0.0000 -0.0000 0.0000 85.6404 -20.3072 50.5610 -114.5306 57.5995 -81.0729 0.0000 -0.0000 -11.5471 -22.1959 33.9925 -12.8499 7.1250 -0.0000 -0.0000 5.6964 5.9265 6.2839
-0.2137 17.6409 38.1766 -0.7601 0.1593 2.6526 0.0000 0.0000 0.0000 -27.9882 2.4752 5.5517 3.3244 11.2025 32.9658 -0.2580 -10.1740 -1.4139 1.6443 -8.0821 -22.9638 0.0000 0.0000 0.0000 16.9930 12.0375 -39.3660 -13.9945 -19.1124 72.1876 -0.2451 -0.6034 -9.5907 -0.0194 0.9004 -2.4748 -2.4729 -0.8736 13.3926 1.2145 -1.4594 -0.9361 2.9961 -0.5627 -8.4434 -2.0050 -2.6226 -21.3185 3.6197 -3.5854 12.2911 1.0782 -1.4555 7.3481 0.0000 0.0000 0.0000 -88.5913 3.4728 44.2384 136.3881 -50.0700 -98.8311 -0.0000 0.0000 -31.5217 29.7524 3.0218 1.7260 -7.1250 0.0000 -0.0000 2.5713 33.4513 -0.7286 0.0000 0.0000 0.0000 84.6975 -22.9404 50.3424 -115.9606 57.2936 -82.2783 0.0000 -0.0000 -11.9285 -21.6911 34.4310 -12.6751 7.1250 -0.0000 -0.0000 6.0442 6.2576 6.7026
-0.2003 17.8425 39.1939 -1.3595 -1.3248 2.7450 0.0000 0.0000 0.0000 -27.0450 4.2540 8.8955 2.6021 10.0212 29.0453 -0.2674 -10.4824 9.3605 2.4341 -9.7171 -28.0655 0.0000 0.0000 0.0000 18.0237 14.6826 -38.3777 -11.0746 -17.9714 63.0234 -0.2097 -0.0733 -8.6766 -0.1422 2.4301 -6.6960 -1.9851 -0.8693 12.8211 1.5683 -1.3374 -1.1430 3.0620 -0.5172 -8.3513 -2.2357 -2.9734 -22.4332 3.3735 -3.9846 13.9556 0.9680 -1.6524 8.0988 0.0000 -0.0000 0.0000 -87.3660 2.3180 44.0976 136.8242 -49.8429 -99.1650 -0.0000 0.0000 -31.5570 29.5787 3.9788 2.2553 -7.1250 0.0000 -0.0000 2.4334 34.5445 -0.6250 0.0000 -0.0000 0.0000 84.2207 -25.4915 49.9001 -116.5357 57.1645 -82.7619 0.0000 -0.0000 -12.0583 -22.4285 34.2954 -13.0925 7.1250 -0.0000 -0.0000 5.6186 6.2858 6.2285
-0.1896 18.0336 40.2189 -1.7324 -2.5194 3.0634 0.0000 0.0000 0.0000 -26.5233 4.6286 11.6863 2.0643 8.9987 25.7914 0.6226 -8.3918 20.2461 1.4220 -7.5411 -21.3287 0.0000 0.0000 0.0000 18.7824 16.9818 -36.8783 -8.2687 -16.3134 53.5250 -0.1700 0.1905 -7.7217 -0.2658 3.3166 -9.1614 -1.7598 -0.9256 11.8632 1.9094 -1.3401 -1.2513 3.2727 -0.5283 -7.9169 -2.9881 -2.2871 -19.6588 4.0263 -2.9304 11.4759 1.4601 -1.1771 6.8104 0.0000 -0.0000 0.0000 -86.4810 1.7368 43.4842 136.9083 -49.7986 -99.2292 -0.0000 0.0000 -31.0566 27.8399 2.9269 1.5448 -7.1250 0.0000 -0.0000 1.0092 33.2878 -0.2898 0.0000 -0.0000 0.0000 83.7758 -27.8240 49.3093 -117.2232 57.0056 -83.3390 0.0000 -0.0000 -12.4296 -22.5410 34.4199 -13.2033 7.1250 -0.0000 -0.0000 5.5778 6.4374 6.1960
-0.1644 18.1792 41.2363 -1.5149 -2.9230 3.6400 0.0000 0.0000 0.0000 -26.8755 3.6999 14.2552 1.7108 8.2357 23.4323 1.6569 -7.7788 28.1941 0.6911 -5.3146 -14.8080 0.0000 0.0000 0.0000 18.6660 18.1549 -35.8122 -5.8743 -14.3054 44.4750 -0.1367 0.3939 -6.8529 -0.6475 5.1476 -14.3299 -1.7479 -1.0905 11.2029 2.0320 -1.5418 -1.6372 3.4212 -0.6200 -7.9375 -3.0784 -2.3297 -20.1433 3.7482 -2.9247 12.1235 1.3820 -1.1949 7.0977 -0.0000 0.0000 0.0000 -85.3486 0.8878 43.4954 136.3067 -50.1120 -98.7687 -0.0000 0.0000 -31.2469 28.1418 1.5605 0.8346 -7.1250 0.0000 -0.0000 1.2571 31.7478 -0.4076 -0.0000 0.0000 0.0000 83.8336 -30.7614 47.8618 -119.1433 56.5339 -84.9451 0.0000 -0.0000 -12.0158 -22.7617 34.7955 -13.4649 7.1250 -0.0000 -0.0000 5.5210 6.8683 6.1688
-0.1321 18.2930 42.2727 -0.1831 -2.8678 3.4616 0.0000 0.0000 0.0000 -28.5208 2.5371 16.6775 1.6969 8.2040 23.3354 2.3143 -8.4797 32.7474 0.3691 -3.9026 -10.8028 0.0000 0.0000 0.0000 17.7479 17.5375 -33.9483 -3.9626 -12.1105 36.1239 -0.0977 0.5552 -5.7322 -0.8933 6.0240 -16.8541 -2.6649 -1.3030 10.6783 1.7994 -1.9623 -1.7672 3.7486 -0.7929 -7.7255 -3.2838 -2.2169 -19.6355 3.5251 -2.6927 12.1375 1.3722 -1.1202 7.0092 -0.0000 0.0000 0.0000 -84.5258 0.3160 43.4082 135.2294 -50.6556 -97.9388 -0.0000 0.0000 -30.6291 28.2594 1.6484 0.8858 -7.1250 0.0000 -0.0000 1.3520 31.8492 -0.4351 -0.0000 0.0000 0.0000 84.2402 -33.5094 46.2023 -120.5857 56.1518 -86.1457 0.0000 -0.0000 -12.2705 -22.5039 35.1641 -13.4198 7.1250 -0.0000 -0.0000 5.7241 7.1815 6.4250
-0.1095 18.3557 43.2357 -0.7301 -2.3455 3.7014 0.0000 0.0000 0.0000 -28.0315 0.7794 17.3408 2.0771 9.0248 25.8729 2.5632 -9.6940 34.8770 0.0692 -1.6966 -4.6680 0.0000 0.0000 0.0000 18.6847 17.7896 -32.4207 -2.6103 -10.0357 29.0925 -0.0398 -1.4746 -4.6167 -0.7034 5.3605 -14.9396 -1.6311 -1.6269 10.7921 1.9512 -2.2441 -1.9362 3.3829 -0.9658 -7.9807 -3.1638 -2.1653 -19.6348 3.2516 -2.6065 12.0317 1.2731 -1.0991 6.9656 -0.0000 -0.0000 0.0000 -83.7268 -0.4257 43.1424 133.6011 -51.4357 -96.6725 -0.0000 0.0000 -30.0108 27.7885 1.4335 0.7553 -7.1250 0.0000 -0.0000 0.9734 31.5991 -0.3191 -0.0000 -0.0000 0.0000 85.2003 -35.3699 44.2831 -121.4553 55.9095 -86.8670 0.0000 -0.0000 -12.2010 -22.9400 35.5333 -13.8191 7.1250 -0.0000 -0.0000 5.5529 7.6558 6.2708
-0.0895 18.3110 44.1825 -0.4377 -1.7688 3.7908 0.0000 0.0000 0.0000 -28.4108 -1.1032 16.5321 3.0297 10.7430 31.4180 2.0061 -13.4999 34.4255 0.1052 -2.0917 -5.7591 0.0000 0.0000 0.0000 19.9294 15.9307 -29.6388 -1.4413 -7.5899 21.4752 0.0197 -2.7566 -2.2591 -1.4704 7.6627 -21.6943 -1.3836 -1.7922 10.6583 1.8455 -2.4386 -1.8117 3.1531 -1.0801 -7.7710 -3.5171 -2.4626 -20.1940 3.5764 -2.9425 11.8261 1.3937 -1.2415 7.0121 -0.0000 -0.0000 0.0000 -83.5060 -1.3499 42.5517 131.7225 -52.2767 -95.1949 -0.0000 0.0000 -28.0774 26.1893 4.8109 2.3620 -7.1250 0.0000 -0.0000 -0.3976 35.3378 0.0944 -0.0000 -0.0000 0.0000 86.6275 -36.5328 41.7924 -122.4145 55.6314 -87.6601 0.0000 -0.0000 -12.2090 -23.3182 35.8833 -14.1791 7.1250 -0.0000 -0.0000 5.4125 8.0988 6.1467
-0.0933 18.1667 45.0826 0.1366 -2.1170 3.6605 0.0000 0.0000 0.0000 -28.8916 -2.0007 15.1579 4.1692 12.3822 37.0979 1.9449 -13.3132 33.9367 0.0019 -0.2788 -0.7660 0.0000 0.0000 0.0000 17.6391 20.1155 -29.4638 -1.0177 -6.4182 18.0027 0.1224 -6.5282 -4.5929 -1.3797 -7.4328 21.0041 -2.1462 -1.6377 11.9921 1.8057 -2.3594 -2.3795 3.6103 -0.9670 -9.1342 -3.6576 -2.3162 -18.6657 3.5363 -2.7299 10.9833 1.4365 -1.1680 6.4810 -0.0000 -0.0000 0.0000 -83.7269 -0.2881 42.3803 129.6837 -53.1223 -93.5731 -0.0000 0.0000 -29.0256 27.7042 2.0812 1.0925 -7.1250 0.0000 -0.0000 0.9047 32.3293 -0.2807 -0.0000 -0.0000 0.0000 87.6855 -38.2792 39.9412 -123.5407 55.2901 -88.5878 0.0000 -0.0000 -12.2392 -23.2622 36.1351 -14.2248 7.1250 -0.0000 -0.0000 5.4883 8.3395 6.2531
-0.0541 18.1325 46.0776 0.2797 -1.8605 2.3894 0.0000 0.0000 0.0000 -28.6107 -1.6702 15.5027 5.2033 13.6091 41.6937 1.6949 -15.7081 34.4869 0.0010 0.1994 0.5477 0.0000 0.0000 0.0000 20.9914 15.1812 -28.2730 -1.4738 -7.6713 21.7201 0.0109 -2.1601 -1.9683 -1.1493 6.8072 -19.1454 -1.8084 -1.8444 11.8902 1.7200 -2.5870 -1.0461 3.3167 -1.1454 -7.6316 -3.4677 -2.3659 -20.1577 3.2259 -2.7424 10.7788 1.2949 -1.1790 6.6501 -0.0000 -0.0000 0.0000 -84.0387 -1.7307 41.2716 126.8085 -54.2043 -91.2566 -0.0000 0.0000 -28.8117 29.2676 1.4576 0.8167 -7.1250 0.0000 -0.0000 2.1594 31.6460 -0.7058 -0.0000 -0.0000 0.0000 88.2791 -36.7120 39.0113 -123.2486 55.3802 -88.3475 0.0000 -0.0000 -12.5799 -23.4871 35.5381 -14.1751 7.1250 -0.0000 -0.0000 5.2592 7.7901 5.9470
-0.0381 18.0138 47.0397 0.6635 -2.8559 1.5455 0.0000 0.0000 0.0000 -28.2798 -0.5655 14.0061 6.4816 14.8793 46.8852 2.1628 -14.9119 36.3697 0.1612 2.5867 7.1300 0.0000 0.0000 0.0000 21.5424 15.0297 -29.6515 -2.3368 -9.5349 27.4835 -0.0064 0.3492 -1.4229 -1.0312 6.4591 -18.1225 -2.1555 -1.5094 12.6011 1.5735 -2.2125 -0.8811 3.3158 -0.9473 -7.8777 -3.7122 -2.6864 -20.1456 3.5278 -3.1599 10.9508 1.3840 -1.3627 6.7281 -0.0000 0.0000 0.0000 -84.7294 -0.8552 40.3814 124.0262 -55.1380 -88.9865 -0.0000 0.0000 -28.4994 30.7513 -0.8882 -0.5284 -7.1250 0.0000 -0.0000 3.2626 28.9399 -1.2783 -0.0000 0.0000 0.0000 88.7147 -36.2764 38.3518 -122.5556 55.5896 -87.7765 0.0000 -0.0000 -12.6747 -23.9831 35.7175 -14.5589 7.1250 -0.0000 -0.0000 5.0254 8.0914 5.7032
-0.0195 17.9133 47.4914 0.6306 -3.3660 1.3139 0.0000 0.0000 0.0000 -27.8027 -0.1273 12.3953 7.4604 15.7077 50.5950 2.2216 -14.7605 36.5590 0.0664 1.6628 4.5746 0.0000 0.0000 0.0000 22.3009 14.3130 -29.5411 -2.5479 -9.9244 28.7324 0.0054 1.6579 -0.4823 -0.5475 4.7403 -13.1694 -1.9231 -1.3504 12.9496 1.5094 -1.9755 -1.0332 3.0894 -0.8334 -8.2672 -3.5722 -2.5151 -19.0653 3.2739 -2.9582 10.7023 1.3099 -1.2941 6.4580 -0.0000 -0.0000 0.0000 -84.9872 0.0571 40.1364 122.8165 -55.5115 -87.9917 -0.0000 0.0000 -28.3741 29.8433 3.1694 1.8168 -7.1250 0.0000 -0.0000 2.6470 33.6239 -0.7391 -0.0000 -0.0000 0.0000 88.9249 -36.1338 38.1308 -121.8916 55.7844 -87.2280 0.0000 -0.0000 -12.5936 -24.3514 35.7860 -14.8240 7.1250 -0.0000 -0.0000 4.8407 8.2509 5.5036
-0.0195 17.9133 47.4914 0.6306 -3.3660 1.3139 0.0000 0.0000 0.0000 -27.8027 -0.1273 12.3953 7.4604 15.7077 50.5950 2.2216 -14.7605 36.5590 0.0664 1.6628 4.5746 0.0000 0.0000 0.0000 22.3009 14.3130 -29.5411 -2.5479 -9.9244 28.7324 0.0054 1.6579 -0.4823 -0.5475 4.7403 -13.1694 -1.9231 -1.3504 12.9496 1.5094 -1.9755 -1.0332 3.0894 -0.8334 -8.2672 -3.5722 -2.5151 -19.0653 3.2739 -2.9582 10.7023 1.3099 -1.2941 6.4580 -0.0000 -0.0000 0.0000 -84.9872 0.0571 40.1364 122.8165 -55.5115 -87.9917 -0.0000 0.0000 -28.3741 29.8433 3.1694 1.8168 -7.1250 0.0000 -0.0000 2.6470 33.6239 -0.7391 -0.0000 -0.0000 0.0000 88.9249 -36.1338 38.1308 -121.8916 55.7844 -87.2280 0.0000 -0.0000 -12.5936 -24.3514 35.7860 -14.8240 7.1250 -0.0000 -0.0000 4.8407 8.2509 5.5036
-0.0195 17.9133 47.4914 0.6306 -3.3660 1.3139 0.0000 0.0000 0.0000 -27.8027 -0.1273 12.3953 7.4604 15.7077 50.5950 2.2216 -14.7605 36.5590 0.0664 1.6628 4.5746 0.0000 0.0000 0.0000 22.3009 14.3130 -29.5411 -2.5479 -9.9244 28.7324 0.0054 1.6579 -0.4823 -0.5475 4.7403 -13.1694 -1.9231 -1.3504 12.9496 1.5094 -1.9755 -1.0332 3.0894 -0.8334 -8.2672 -3.5722 -2.5151 -19.0653 3.2739 -2.9582 10.7023 1.3099 -1.2941 6.4580 -0.0000 -0.0000 0.0000 -84.9872 0.0571 40.1364 122.8165 -55.5115 -87.9917 -0.0000 0.0000 -28.3741 29.8433 3.1694 1.8168 -7.1250 0.0000 -0.0000 2.6470 33.6239 -0.7391 -0.0000 -0.0000 0.0000 88.9249 -36.1338 38.1308 -121.8916 55.7844 -87.2280 0.0000 -0.0000 -12.5936 -24.3514 35.7860 -14.8240 7.1250 -0.0000 -0.0000 4.8407 8.2509 5.5036
-0.0195 17.9133 47.4914 0.6306 -3.3660 1.3139 0.0000 0.0000 0.0000 -27.8027 -0.1273 12.3953 7.4604 15.7077 50.5950 2.2216 -14.7605 36.5590 0.0664 1.6628 4.5746 0.0000 0.0000 0.0000 22.3009 14.3130 -29.5411 -2.5479 -9.9244 28.7324 0.0054 1.6579 -0.4823 -0.5475 4.7403 -13.1694 -1.9231 -1.3504 12.9496 1.5094 -1.9755 -1.0332 3.0894 -0.8334 -8.2672 -3.5722 -2.5151 -19.0653 3.2739 -2.9582 10.7023 1.3099 -1.2941 6.4580 -0.0000 -0.0000 0.0000 -84.9872 0.0571 40.1364 122.8165 -55.5115 -87.9917 -0.0000 0.0000 -28.3741 29.8433 3.1694 1.8168 -7.1250 0.0000 -0.0000 2.6470 33.6239 -0.7391 -0.0000 -0.0000 0.0000 88.9249 -36.1338 38.1308 -121.8916 55.7844 -87.2280 0.0000 -0.0000 -12.5936 -24.3514 35.7860 -14.8240 7.1250 -0.0000 -0.0000 4.8407 8.2509 5.5036
-0.0195 17.9133 47.4914 0.6306 -3.3660 1.3139 0.0000 0.0000 0.0000 -27.8027 -0.1273 12.3953 7.4604 15.7077 50.5950 2.2216 -14.7605 36.5590 0.0664 1.6628 4.5746 0.0000 0.0000 0.0000 22.3009 14.3130 -29.5411 -2.5479 -9.9244 28.7324 0.0054 1.6579 -0.4823 -0.5475 4.7403 -13.1694 -1.9231 -1.3504 12.9496 1.5094 -1.9755 -1.0332 3.0894 -0.8334 -8.2672 -3.5722 -2.5151 -19.0653 3.2739 -2.9582 10.7023 1.3099 -1.2941 6.4580 -0.0000 -0.0000 0.0000 -84.9872 0.0571 40.1364 122.8165 -55.5115 -87.9917 -0.0000 0.0000 -28.3741 29.8433 3.1694 1.8168 -7.1250 0.0000 -0.0000 2.6470 33.6239 -0.7391 -0.0000 -0.0000 0.0000 88.9249 -36.1338 38.1308 -121.8916 55.7844 -87.2280 0.0000 -0.0000 -12.5936 -24.3514 35.7860 -14.8240 7.1250 -0.0000 -0.0000 4.8407 8.2509 5.5036
-0.0195 17.9133 47.4914 0.6306 -3.3660 1.3139 0.0000 0.0000 0.0000 -27.8027 -0.1273 12.3953 7.4604 15.7077 50.5950 2.2216 -14.7605 36.5590 0.0664 1.6628 4.5746 0.0000 0.0000 0.0000 22.3009 14.3130 -29.5411 -2.5479 -9.9244 28.7324 0.0054 1.6579 -0.4823 -0.5475 4.7403 -13.1694 -1.9231 -1.3504 12.9496 1.5094 -1.9755 -1.0332 3.0894 -0.8334 -8.2672 -3.5722 -2.5151 -19.0653 3.2739 -2.9582 10.7023 1.3099 -1.2941 6.4580 -0.0000 -0.0000 0.0000 -84.9872 0.0571 40.1364 122.8165 -55.5115 -87.9917 -0.0000 0.0000 -28.3741 29.8433 3.1694 1.8168 -7.1250 0.0000 -0.0000 2.6470 33.6239 -0.7391 -0.0000 -0.0000 0.0000 88.9249 -36.1338 38.1308 -121.8916 55.7844 -87.2280 0.0000 -0.0000 -12.5936 -24.3514 35.7860 -14.8240 7.1250 -0.0000 -0.0000 4.8407 8.2509 5.5036
-0.0195 17.9133 47.4914 0.6306 -3.3660 1.3139 0.0000 0.0000 0.0000 -27.8027 -0.1273 12.3953 7.4604 15.7077 50.5950 2.2216 -14.7605 36.5590 0.0664 1.6628 4.5746 0.0000 0.0000 0.0000 22.3009 14.3130 -29.5411 -2.5479 -9.9244 28.7324 0.0054 1.6579 -0.4823 -0.5475 4.7403 -13.1694 -1.9231 -1.3504 12.9496 1.5094 -1.9755 -1.0332 3.0894 -0.8334 -8.2672 -3.5722 -2.5151 -19.0653 3.2739 -2.9582 10.7023 1.3099 -1.2941 6.4580 -0.0000 -0.0000 0.0000 -84.9872 0.0571 40.1364 122.8165 -55.5115 -87.9917 -0.0000 0.0000 -28.3741 29.8433 3.1694 1.8168 -7.1250 0.0000 -0.0000 2.6470 33.6239 -0.7391 -0.0000 -0.0000 0.0000 88.9249 -36.1338 38.1308 -121.8916 55.7844 -87.2280 0.0000 -0.0000 -12.5936 -24.3514 35.7860 -14.8240 7.1250 -0.0000 -0.0000 4.8407 8.2509 5.5036
-0.0195 17.9133 47.4914 0.6306 -3.3660 1.3139 0.0000 0.0000 0.0000 -27.8027 -0.1273 12.3953 7.4604 15.7077 50.5950 2.2216 -14.7605 36.5590 0.0664 1.6628 4.5746 0.0000 0.0000 0.0000 22.3009 14.3130 -29.5411 -2.5479 -9.9244 28.7324 0.0054 1.6579 -0.4823 -0.5475 4.7403 -13.1694 -1.9231 -1.3504 12.9496 1.5094 -1.9755 -1.0332 3.0894 -0.8334 -8.2672 -3.5722 -2.5151 -19.0653 3.2739 -2.9582 10.7023 1.3099 -1.2941 6.4580 -0.0000 -0.0000 0.0000 -84.9872 0.0571 40.1364 122.8165 -55.5115 -87.9917 -0.0000 0.0000 -28.3741 29.8433 3.1694 1.8168 -7.1250 0.0000 -0.0000 2.6470 33.6239 -0.7391 -0.0000 -0.0000 0.0000 88.9249 -36.1338 38.1308 -121.8916 55.7844 -87.2280 0.0000 -0.0000 -12.5936 -24.3514 35.7860 -14.8240 7.1250 -0.0000 -0.0000 4.8407 8.2509 5.5036
-0.0195 17.9133 47.4914 0.6306 -3.3660 1.3139 0.0000 0.0000 0.0000 -27.8027 -0.1273 12.3953 7.4604 15.7077 50.5950 2.2216 -14.7605 36.5590 0.0664 1.6628 4.5746 0.0000 0.0000 0.0000 22.3009 14.3130 -29.5411 -2.5479 -9.9244 28.7324 0.0054 1.6579 -0.4823 -0.5475 4.7403 -13.1694 -1.9231 -1.3504 12.9496 1.5094 -1.9755 -1.0332 3.0894 -0.8334 -8.2672 -3.5722 -2.5151 -19.0653 3.2739 -2.9582 10.7023 1.3099 -1.2941 6.4580 -0.0000 -0.0000 0.0000 -84.9872 0.0571 40.1364 122.8165 -55.5115 -87.9917 -0.0000 0.0000 -28.3741 29.8433 3.1694 1.8168 -7.1250 0.0000 -0.0000 2.6470 33.6239 -0.7391 -0.0000 -0.0000 0.0000 88.9249 -36.1338 38.1308 -121.8916 55.7844 -87.2280 0.0000 -0.0000 -12.5936 -24.3514 35.7860 -14.8240 7.1250 -0.0000 -0.0000 4.8407 8.2509 5.5036
-0.0195 17.9133 47.4914 0.6306 -3.3660 1.3139 0.0000 0.0000 0.0000 -27.8027 -0.1273 12.3953 7.4604 15.7077 50.5950 2.2216 -14.7605 36.5590 0.0664 1.6628 4.5746 0.0000 0.0000 0.0000 22.3009 14.3130 -29.5411 -2.5479 -9.9244 28.7324 0.0054 1.6579 -0.4823 -0.5475 4.7403 -13.1694 -1.9231 -1.3504 12.9496 1.5094 -1.9755 -1.0332 3.0894 -0.8334 -8.2672 -3.5722 -2.5151 -19.0653 3.2739 -2.9582 10.7023 1.3099 -1.2941 6.4580 -0.0000 -0.0000 0.0000 -84.9872 0.0571 40.1364 122.8165 -55.5115 -87.9917 -0.0000 0.0000 -28.3741 29.8433 3.1694 1.8168 -7.1250 0.0000 -0.0000 2.6470 33.6239 -0.7391 -0.0000 -0.0000 0.0000 88.9249 -36.1338 38.1308 -121.8916 55.7844 -87.2280 0.0000 -0.0000 -12.5936 -24.3514 35.7860 -14.8240 7.1250 -0.0000 -0.0000 4.8407 8.2509 5.5036
-0.0195 17.9133 47.4914 0.6306 -3.3660 1.3139 0.0000 0.0000 0.0000 -27.8027 -0.1273 12.3953 7.4604 15.7077 50.5950 2.2216 -14.7605 36.5590 0.0664 1.6628 4.5746 0.0000 0.0000 0.0000 22.3009 14.3130 -29.5411 -2.5479 -9.9244 28.7324 0.0054 1.6579 -0.4823 -0.5475 4.7403 -13.1694 -1.9231 -1.3504 12.9496 1.5094 -1.9755 -1.0332 3.0894 -0.8334 -8.2672 -3.5722 -2.5151 -19.0653 3.2739 -2.9582 10.7023 1.3099 -1.2941 6.4580 -0.0000 -0.0000 0.0000 -84.9872 0.0571 40.1364 122.8165 -55.5115 -87.9917 -0.0000 0.0000 -28.3741 29.8433 3.1694 1.8168 -7.1250 0.0000 -0.0000 2.6470 33.6239 -0.7391 -0.0000 -0.0000 0.0000 88.9249 -36.1338 38.1308 -121.8916 55.7844 -87.2280 0.0000 -0.0000 -12.5936 -24.3514 35.7860 -14.8240 7.1250 -0.0000 -0.0000 4.8407 8.2509 5.5036
-0.0195 17.9133 47.4914 0.6306 -3.3660 1.3139 0.0000 0.0000 0.0000 -27.8027 -0.1273 12.3953 7.4604 15.7077 50.5950 2.2216 -14.7605 36.5590 0.0664 1.6628 4.5746 0.0000 0.0000 0.0000 22.3009 14.3130 -29.5411 -2.5479 -9.9244 28.7324 0.0054 1.6579 -0.4823 -0.5475 4.7403 -13.1694 -1.9231 -1.3504 12.9496 1.5094 -1.9755 -1.0332 3.0894 -0.8334 -8.2672 -3.5722 -2.5151 -19.0653 3.2739 -2.9582 10.7023 1.3099 -1.2941 6.4580 -0.0000 -0.0000 0.0000 -84.9872 0.0571 40.1364 122.8165 -55.5115 -87.9917 -0.0000 0.0000 -28.3741 29.8433 3.1694 1.8168 -7.1250 0.0000 -0.0000 2.6470 33.6239 -0.7391 -0.0000 -0.0000 0.0000 88.9249 -36.1338 38.1308 -121.8916 55.7844 -87.2280 0.0000 -0.0000 -12.5936 -24.3514 35.7860 -14.8240 7.1250 -0.0000 -0.0000 4.8407 8.2509 5.5036
-0.0195 17.9133 47.4914 0.6306 -3.3660 1.3139 0.0000 0.0000 0.0000 -27.8027 -0.1273 12.3953 7.4604 15.7077 50.5950 2.2216 -14.7605 36.5590 0.0664 1.6628 4.5746 0.0000 0.0000 0.0000 22.3009 14.3130 -29.5411 -2.5479 -9.9244 28.7324 0.0054 1.6579 -0.4823 -0.5475 4.7403 -13.1694 -1.9231 -1.3504 12.9496 1.5094 -1.9755 -1.0332 3.0894 -0.8334 -8.2672 -3.5722 -2.5151 -19.0653 3.2739 -2.9582 10.7023 1.3099 -1.2941 6.4580 -0.0000 -0.0000 0.0000 -84.9872 0.0571 40.1364 122.8165 -55.5115 -87.9917 -0.0000 0.0000 -28.3741 29.8433 3.1694 1.8168 -7.1250 0.0000 -0.0000 2.6470 33.6239 -0.7391 -0.0000 -0.0000 0.0000 88.9249 -36.1338 38.1308 -121.8916 55.7844 -87.2280 0.0000 -0.0000 -12.5936 -24.3514 35.7860 -14.8240 7.1250 -0.0000 -0.0000 4.8407 8.2509 5.5036
-0.0195 17.9133 47.4914 0.6306 -3.3660 1.3139 0.0000 0.0000 0.0000 -27.8027 -0.1273 12.3953 7.4604 15.7077 50.5950 2.2216 -14.7605 36.5590 0.0664 1.6628 4.5746 0.0000 0.0000 0.0000 22.3009 14.3130 -29.5411 -2.5479 -9.9244 28.7324 0.0054 1.6579 -0.4823 -0.5475 4.7403 -13.1694 -1.9231 -1.3504 12.9496 1.5094 -1.9755 -1.0332 3.0894 -0.8334 -8.2672 -3.5722 -2.5151 -19.0653 3.2739 -2.9582 10.7023 1.3099 -1.2941 6.4580 -0.0000 -0.0000 0.0000 -84.9872 0.0571 40.1364 122.8165 -55.5115 -87.9917 -0.0000 0.0000 -28.3741 29.8433 3.1694 1.8168 -7.1250 0.0000 -0.0000 2.6470 33.6239 -0.7391 -0.0000 -0.0000 0.0000 88.9249 -36.1338 38.1308 -121.8916 55.7844 -87.2280 0.0000 -0.0000 -12.5936 -24.3514 35.7860 -14.8240 7.1250 -0.0000 -0.0000 4.8407 8.2509 5.5036
-0.0195 17.9133 47.4914 0.6306 -3.3660 1.3139 0.0000 0.0000 0.0000 -27.8027 -0.1273 12.3953 7.4604 15.7077 50.5950 2.2216 -14.7605 36.5590 0.0664 1.6628 4.5746 0.0000 0.0000 0.0000 22.3009 14.3130 -29.5411 -2.5479 -9.9244 28.7324 0.0054 1.6579 -0.4823 -0.5475 4.7403 -13.1694 -1.9231 -1.3504 12.9496 1.5094 -1.9755 -1.0332 3.0894 -0.8334 -8.2672 -3.5722 -2.5151 -19.0653 3.2739 -2.9582 10.7023 1.3099 -1.2941 6.4580 -0.0000 -0.0000 0.0000 -84.9872 0.0571 40.1364 122.8165 -55.5115 -87.9917 -0.0000 0.0000 -28.3741 29.8433 3.1694 1.8168 -7.1250 0.0000 -0.0000 2.6470 33.6239 -0.7391 -0.0000 -0.0000 0.0000 88.9249 -36.1338 38.1308 -121.8916 55.7844 -87.2280 0.0000 -0.0000 -12.5936 -24.3514 35.7860 -14.8240 7.1250 -0.0000 -0.0000 4.8407 8.2509 5.5036
-0.0195 17.9133 47.4914 0.6306 -3.3660 1.3139 0.0000 0.0000 0.0000 -27.8027 -0.1273 12.3953 7.4604 15.7077 50.5950 2.2216 -14.7605 36.5590 0.0664 1.6628 4.5746 0.0000 0.0000 0.0000 22.3009 14.3130 -29.5411 -2.5479 -9.9244 28.7324 0.0054 1.6579 -0.4823 -0.5475 4.7403 -13.1694 -1.9231 -1.3504 12.9496 1.5094 -1.9755 -1.0332 3.0894 -0.8334 -8.2672 -3.5722 -2.5151 -19.0653 3.2739 -2.9582 10.7023 1.3099 -1.2941 6.4580 -0.0000 -0.0000 0.0000 -84.9872 0.0571 40.1364 122.8165 -55.5115 -87.9917 -0.0000 0.0000 -28.3741 29.8433 3.1694 1.8168 -7.1250 0.0000 -0.0000 2.6470 33.6239 -0.7391 -0.0000 -0.0000 0.0000 88.9249 -36.1338 38.1308 -121.8916 55.7844 -87.2280 0.0000 -0.0000 -12.5936 -24.3514 35.7860 -14.8240 7.1250 -0.0000 -0.0000 4.8407 8.2509 5.5036
-0.0195 17.9133 47.4914 0.6306 -3.3660 1.3139 0.0000 0.0000 0.0000 -27.8027 -0.1273 12.3953 7.4604 15.7077 50.5950 2.2216 -14.7605 36.5590 0.0664 1.6628 4.5746 0.0000 0.0000 0.0000 22.3009 14.3130 -29.5411 -2.5479 -9.9244 28.7324 0.0054 1.6579 -0.4823 -0.5475 4.7403 -13.1694 -1.9231 -1.3504 12.9496 1.5094 -1.9755 -1.0332 3.0894 -0.8334 -8.2672 -3.5722 -2.5151 -19.0653 3.2739 -2.9582 10.7023 1.3099 -1.2941 6.4580 -0.0000 -0.0000 0.0000 -84.9872 0.0571 40.1364 122.8165 -55.5115 -87.9917 -0.0000 0.0000 -28.3741 29.8433 3.1694 1.8168 -7.1250 0.0000 -0.0000 2.6470 33.6239 -0.7391 -0.0000 -0.0000 0.0000 88.9249 -36.1338 38.1308 -121.8916 55.7844 -87.2280 0.0000 -0.0000 -12.5936 -24.3514 35.7860 -14.8240 7.1250 -0.0000 -0.0000 4.8407 8.2509 5.5036
-0.0195 17.9133 47.4914 0.6306 -3.3660 1.3139 0.0000 0.0000 0.0000 -27.8027 -0.1273 12.3953 7.4604 15.7077 50.5950 2.2216 -14.7605 36.5590 0.0664 1.6628 4.5746 0.0000 0.0000 0.0000 22.3009 14.3130 -29.5411 -2.5479 -9.9244 28.7324 0.0054 1.6579 -0.4823 -0.5475 4.7403 -13.1694 -1.9231 -1.3504 12.9496 1.5094 -1.9755 -1.0332 3.0894 -0.8334 -8.2672 -3.5722 -2.5151 -19.0653 3.2739 -2.9582 10.7023 1.3099 -1.2941 6.4580 -0.0000 -0.0000 0.0000 -84.9872 0.0571 40.1364 122.8165 -55.5115 -87.9917 -0.0000 0.0000 -28.3741 29.8433 3.1694 1.8168 -7.1250 0.0000 -0.0000 2.6470 33.6239 -0.7391 -0.0000 -0.0000 0.0000 88.9249 -36.1338 38.1308 -121.8916 55.7844 -87.2280 0.0000 -0.0000 -12.5936 -24.3514 35.7860 -14.8240 7.1250 -0.0000 -0.0000 4.8407 8.2509 5.5036
-0.0195 17.9133 47.4914 0.6306 -3.3660 1.3139 0.0000 0.0000 0.0000 -27.8027 -0.1273 12.3953 7.4604 15.7077 50.5950 2.2216 -14.7605 36.5590 0.0664 1.6628 4.5746 0.0000 0.0000 0.0000 22.3009 14.3130 -29.5411 -2.5479 -9.9244 28.7324 0.0054 1.6579 -0.4823 -0.5475 4.7403 -13.1694 -1.9231 -1.3504 12.9496 1.5094 -1.9755 -1.0332 3.0894 -0.8334 -8.2672 -3.5722 -2.5151 -19.0653 3.2739 -2.9582 10.7023 1.3099 -1.2941 6.4580 -0.0000 -0.0000 0.0000 -84.9872 0.0571 40.1364 122.8165 -55.5115 -87.9917 -0.0000 0.0000 -28.3741 29.8433 3.1694 1.8168 -7.1250 0.0000 -0.0000 2.6470 33.6239 -0.7391 -0.0000 -0.0000 0.0000 88.9249 -36.1338 38.1308 -121.8916 55.7844 -87.2280 0.0000 -0.0000 -12.5936 -24.3514 35.7860 -14.8240 7.1250 -0.0000 -0.0000 4.8407 8.2509 5.5036
-0.0195 17.9133 47.4914 0.6306 -3.3660 1.3139 0.0000 0.0000 0.0000 -27.8027 -0.1273 12.3953 7.4604 15.7077 50.5950 2.2216 -14.7605 36.5590 0.0664 1.6628 4.5746 0.0000 0.0000 0.0000 22.3009 14.3130 -29.5411 -2.5479 -9.9244 28.7324 0.0054 1.6579 -0.4823 -0.5475 4.7403 -13.1694 -1.9231 -1.3504 12.9496 1.5094 -1.9755 -1.0332 3.0894 -0.8334 -8.2672 -3.5722 -2.5151 -19.0653 3.2739 -2.9582 10.7023 1.3099 -1.2941 6.4580 -0.0000 -0.0000 0.0000 -84.9872 0.0571 40.1364 122.8165 -55.5115 -87.9917 -0.0000 0.0000 -28.3741 29.8433 3.1694 1.8168 -7.1250 0.0000 -0.0000 2.6470 33.6239 -0.7391 -0.0000 -0.0000 0.0000 88.9249 -36.1338 38.1308 -121.8916 55.7844 -87.2280 0.0000 -0.0000 -12.5936 -24.3514 35.7860 -14.8240 7.1250 -0.0000 -0.0000 4.8407 8.2509 5.5036
-0.0195 17.9133 47.4914 0.6306 -3.3660 1.3139 0.0000 0.0000 0.0000 -27.8027 -0.1273 12.3953 7.4604 15.7077 50.5950 2.2216 -14.7605 36.5590 0.0664 1.6628 4.5746 0.0000 0.0000 0.0000 22.3009 14.3130 -29.5411 -2.5479 -9.9244 28.7324 0.0054 1.6579 -0.4823 -0.5475 4.7403 -13.1694 -1.9231 -1.3504 12.9496 1.5094 -1.9755 -1.0332 3.0894 -0.8334 -8.2672 -3.5722 -2.5151 -19.0653 3.2739 -2.9582 10.7023 1.3099 -1.2941 6.4580 -0.0000 -0.0000 0.0000 -84.9872 0.0571 40.1364 122.8165 -55.5115 -87.9917 -0.0000 0.0000 -28.3741 29.8433 3.1694 1.8168 -7.1250 0.0000 -0.0000 2.6470 33.6239 -0.7391 -0.0000 -0.0000 0.0000 88.9249 -36.1338 38.1308 -121.8916 55.7844 -87.2280 0.0000 -0.0000 -12.5936 -24.3514 35.7860 -14.8240 7.1250 -0.0000 -0.0000 4.8407 8.2509 5.5036
-0.0195 17.9133 47.4914 0.6306 -3.3660 1.3139 0.0000 0.0000 0.0000 -27.8027 -0.1273 12.3953 7.4604 15.7077 50.5950 2.2216 -14.7605 36.5590 0.0664 1.6628 4.5746 0.0000 0.0000 0.0000 22.3009 14.3130 -29.5411 -2.5479 -9.9244 28.7324 0.0054 1.6579 -0.4823 -0.5475 4.7403 -13.1694 -1.9231 -1.3504 12.9496 1.5094 -1.9755 -1.0332 3.0894 -0.8334 -8.2672 -3.5722 -2.5151 -19.0653 3.2739 -2.9582 10.7023 1.3099 -1.2941 6.4580 -0.0000 -0.0000 0.0000 -84.9872 0.0571 40.1364 122.8165 -55.5115 -87.9917 -0.0000 0.0000 -28.3741 29.8433 3.1694 1.8168 -7.1250 0.0000 -0.0000 2.6470 33.6239 -0.7391 -0.0000 -0.0000 0.0000 88.9249 -36.1338 38.1308 -121.8916 55.7844 -87.2280 0.0000 -0.0000 -12.5936 -24.3514 35.7860 -14.8240 7.1250 -0.0000 -0.0000 4.8407 8.2509 5.5036
-0.0195 17.9133 47.4914 0.6306 -3.3660 1.3139 0.0000 0.0000 0.0000 -27.8027 -0.1273 12.3953 7.4604 15.7077 50.5950 2.2216 -14.7605 36.5590 0.0664 1.6628 4.5746 0.0000 0.0000 0.0000 22.3009 14.3130 -29.5411 -2.5479 -9.9244 28.7324 0.0054 1.6579 -0.4823 -0.5475 4.7403 -13.1694 -1.9231 -1.3504 12.9496 1.5094 -1.9755 -1.0332 3.0894 -0.8334 -8.2672 -3.5722 -2.5151 -19.0653 3.2739 -2.9582 10.7023 1.3099 -1.2941 6.4580 -0.0000 -0.0000 0.0000 -84.9872 0.0571 40.1364 122.8165 -55.5115 -87.9917 -0.0000 0.0000 -28.3741 29.8433 3.1694 1.8168 -7.1250 0.0000 -0.0000 2.6470 33.6239 -0.7391 -0.0000 -0.0000 0.0000 88.9249 -36.1338 38.1308 -121.8916 55.7844 -87.2280 0.0000 -0.0000 -12.5936 -24.3514 35.7860 -14.8240 7.1250 -0.0000 -0.0000 4.8407 8.2509 5.5036
-0.0195 17.9133 47.4914 0.6306 -3.3660 1.3139 0.0000 0.0000 0.0000 -27.8027 -0.1273 12.3953 7.4604 15.7077 50.5950 2.2216 -14.7605 36.5590 0.0664 1.6628 4.5746 0.0000 0.0000 0.0000 22.3009 14.3130 -29.5411 -2.5479 -9.9244 28.7324 0.0054 1.6579 -0.4823 -0.5475 4.7403 -13.1694 -1.9231 -1.3504 12.9496 1.5094 -1.9755 -1.0332 3.0894 -0.8334 -8.2672 -3.5722 -2.5151 -19.0653 3.2739 -2.9582 10.7023 1.3099 -1.2941 6.4580 -0.0000 -0.0000 0.0000 -84.9872 0.0571 40.1364 122.8165 -55.5115 -87.9917 -0.0000 0.0000 -28.3741 29.8433 3.1694 1.8168 -7.1250 0.0000 -0.0000 2.6470 33.6239 -0.7391 -0.0000 -0.0000 0.0000 88.9249 -36.1338 38.1308 -121.8916 55.7844 -87.2280 0.0000 -0.0000 -12.5936 -24.3514 35.7860 -14.8240 7.1250 -0.0000 -0.0000 4.8407 8.2509 5.5036
-0.0195 17.9133 47.4914 0.6306 -3.3660 1.3139 0.0000 0.0000 0.0000 -27.8027 -0.1273 12.3953 7.4604 15.7077 50.5950 2.2216 -14.7605 36.5590 0.0664 1.6628 4.5746 0.0000 0.0000 0.0000 22.3009 14.3130 -29.5411 -2.5479 -9.9244 28.7324 0.0054 1.6579 -0.4823 -0.5475 4.7403 -13.1694 -1.9231 -1.3504 12.9496 1.5094 -1.9755 -1.0332 3.0894 -0.8334 -8.2672 -3.5722 -2.5151 -19.0653 3.2739 -2.9582 10.7023 1.3099 -1.2941 6.4580 -0.0000 -0.0000 0.0000 -84.9872 0.0571 40.1364 122.8165 -55.5115 -87.9917 -0.0000 0.0000 -28.3741 29.8433 3.1694 1.8168 -7.1250 0.0000 -0.0000 2.6470 33.6239 -0.7391 -0.0000 -0.0000 0.0000 88.9249 -36.1338 38.1308 -121.8916 55.7844 -87.2280 0.0000 -0.0000 -12.5936 -24.3514 35.7860 -14.8240 7.1250 -0.0000 -0.0000 4.8407 8.2509 5.5036
-0.0195 17.9133 47.4914 0.6306 -3.3660 1.3139 0.0000 0.0000 0.0000 -27.8027 -0.1273 12.3953 7.4604 15.7077 50.5950 2.2216 -14.7605 36.5590 0.0664 1.6628 4.5746 0.0000 0.0000 0.0000 22.3009 14.3130 -29.5411 -2.5479 -9.9244 28.7324 0.0054 1.6579 -0.4823 -0.5475 4.7403 -13.1694 -1.9231 -1.3504 12.9496 1.5094 -1.9755 -1.0332 3.0894 -0.8334 -8.2672 -3.5722 -2.5151 -19.0653 3.2739 -2.9582 10.7023 1.3099 -1.2941 6.4580 -0.0000 -0.0000 0.0000 -84.9872 0.0571 40.1364 122.8165 -55.5115 -87.9917 -0.0000 0.0000 -28.3741 29.8433 3.1694 1.8168 -7.1250 0.0000 -0.0000 2.6470 33.6239 -0.7391 -0.0000 -0.0000 0.0000 88.9249 -36.1338 38.1308 -121.8916 55.7844 -87.2280 0.0000 -0.0000 -12.5936 -24.3514 35.7860 -14.8240 7.1250 -0.0000 -0.0000 4.8407 8.2509 5.5036
-0.0195 17.9133 47.4914 0.6306 -3.3660 1.3139 0.0000 0.0000 0.0000 -27.8027 -0.1273 12.3953 7.4604 15.7077 50.5950 2.2216 -14.7605 36.5590 0.0664 1.6628 4.5746 0.0000 0.0000 0.0000 22.3009 14.3130 -29.5411 -2.5479 -9.9244 28.7324 0.0054 1.6579 -0.4823 -0.5475 4.7403 -13.1694 -1.9231 -1.3504 12.9496 1.5094 -1.9755 -1.0332 3.0894 -0.8334 -8.2672 -3.5722 -2.5151 -19.0653 3.2739 -2.9582 10.7023 1.3099 -1.2941 6.4580 -0.0000 -0.0000 0.0000 -84.9872 0.0571 40.1364 122.8165 -55.5115 -87.9917 -0.0000 0.0000 -28.3741 29.8433 3.1694 1.8168 -7.1250 0.0000 -0.0000 2.6470 33.6239 -0.7391 -0.0000 -0.0000 0.0000 88.9249 -36.1338 38.1308 -121.8916 55.7844 -87.2280 0.0000 -0.0000 -12.5936 -24.3514 35.7860 -14.8240 7.1250 -0.0000 -0.0000 4.8407 8.2509 5.5036
-0.0195 17.9133 47.4914 0.6306 -3.3660 1.3139 0.0000 0.0000 0.0000 -27.8027 -0.1273 12.3953 7.4604 15.7077 50.5950 2.2216 -14.7605 36.5590 0.0664 1.6628 4.5746 0.0000 0.0000 0.0000 22.3009 14.3130 -29.5411 -2.5479 -9.9244 28.7324 0.0054 1.6579 -0.4823 -0.5475 4.7403 -13.1694 -1.9231 -1.3504 12.9496 1.5094 -1.9755 -1.0332 3.0894 -0.8334 -8.2672 -3.5722 -2.5151 -19.0653 3.2739 -2.9582 10.7023 1.3099 -1.2941 6.4580 -0.0000 -0.0000 0.0000 -84.9872 0.0571 40.1364 122.8165 -55.5115 -87.9917 -0.0000 0.0000 -28.3741 29.8433 3.1694 1.8168 -7.1250 0.0000 -0.0000 2.6470 33.6239 -0.7391 -0.0000 -0.0000 0.0000 88.9249 -36.1338 38.1308 -121.8916 55.7844 -87.2280 0.0000 -0.0000 -12.5936 -24.3514 35.7860 -14.8240 7.1250 -0.0000 -0.0000 4.8407 8.2509 5.5036
-0.0195 17.9133 47.4914 0.6306 -3.3660 1.3139 0.0000 0.0000 0.0000 -27.8027 -0.1273 12.3953 7.4604 15.7077 50.5950 2.2216 -14.7605 36.5590 0.0664 1.6628 4.5746 0.0000 0.0000 0.0000 22.3009 14.3130 -29.5411 -2.5479 -9.9244 28.7324 0.0054 1.6579 -0.4823 -0.5475 4.7403 -13.1694 -1.9231 -1.3504 12.9496 1.5094 -1.9755 -1.0332 3.0894 -0.8334 -8.2672 -3.5722 -2.5151 -19.0653 3.2739 -2.9582 10.7023 1.3099 -1.2941 6.4580 -0.0000 -0.0000 0.0000 -84.9872 0.0571 40.1364 122.8165 -55.5115 -87.9917 -0.0000 0.0000 -28.3741 29.8433 3.1694 1.8168 -7.1250 0.0000 -0.0000 2.6470 33.6239 -0.7391 -0.0000 -0.0000 0.0000 88.9249 -36.1338 38.1308 -121.8916 55.7844 -87.2280 0.0000 -0.0000 -12.5936 -24.3514 35.7860 -14.8240 7.1250 -0.0000 -0.0000 4.8407 8.2509 5.5036
