HIERARCHY
ROOT Hips
{
	OFFSET 0.00000 0.00000 0.00000
	CHANNELS 6 Xposition Yposition Zposition Zrotation Yrotation Xrotation 
	JOINT LHipJoint
	{
		OFFSET 0 0 0
		CHANNELS 3 Zrotation Yrotation Xrotation
		JOINT LeftUpLeg
		{
			OFFSET 1.62067 -1.77917 0.70989
			CHANNELS 3 Zrotation Yrotation Xrotation
			JOINT LeftLeg
			{
				OFFSET 2.34532 -6.44371 0.00000
				CHANNELS 3 Zrotation Yrotation Xrotation
				JOINT LeftFoot
				{
					OFFSET 2.74224 -7.53425 0.00000
					CHANNELS 3 Zrotation Yrotation Xrotation
					JOINT LeftToeBase
					{
						OFFSET 0.17032 -0.46794 2.08086
						CHANNELS 3 Zrotation Yrotation Xrotation
						End Site
						{
							OFFSET 0.00000 -0.00000 1.07476
						}
					}
				}
			}
		}
	}
	JOINT RHipJoint
	{
		OFFSET 0 0 0
		CHANNELS 3 Zrotation Yrotation Xrotation
		JOINT RightUpLeg
		{
			OFFSET -1.55811 -1.77917 0.70989
			CHANNELS 3 Zrotation Yrotation Xrotation
			JOINT RightLeg
			{
				OFFSET -2.33243 -6.40830 0.00000
				CHANNELS 3 Zrotation Yrotation Xrotation
				JOINT RightFoot
				{
					OFFSET -2.78798 -7.65993 0.00000
					CHANNELS 3 Zrotation Yrotation Xrotation
					JOINT RightToeBase
					{
						OFFSET -0.22707 -0.62388 2.04059
						CHANNELS 3 Zrotation Yrotation Xrotation
						End Site
						{
							OFFSET -0.00000 -0.00000 1.07030
						}
					}
				}
			}
		}
	}
	JOINT LowerBack
	{
		OFFSET 0 0 0
		CHANNELS 3 Zrotation Yrotation Xrotation
		JOINT Spine
		{
			OFFSET 0.02203 1.91565 0.07161
			CHANNELS 3 Zrotation Yrotation Xrotation
			JOINT Spine1
			{
				OFFSET 0.01740 1.90525 0.11636
				CHANNELS 3 Zrotation Yrotation Xrotation
				JOINT Neck
				{
					OFFSET 0 0 0
					CHANNELS 3 Zrotation Yrotation Xrotation
					JOINT Neck1
					{
						OFFSET -0.10841 1.83566 0.05067
						CHANNELS 3 Zrotation Yrotation Xrotation
						JOINT Head
						{
							OFFSET 0.06601 1.74760 -0.50505
							CHANNELS 3 Zrotation Yrotation Xrotation
							End Site
							{
								OFFSET 0.03102 1.85215 -0.17697
							}
						}
					}
				}
				JOINT LeftShoulder
				{
					OFFSET 0 0 0
					CHANNELS 3 Zrotation Yrotation Xrotation
					JOINT LeftArm
					{
						OFFSET 2.87059 1.35470 0.16111
						CHANNELS 3 Zrotation Yrotation Xrotation
						JOINT LeftForeArm
						{
							OFFSET 5.43592 -0.00000 0.00000
							CHANNELS 3 Zrotation Yrotation Xrotation
							JOINT LeftHand
							{
								OFFSET 3.25460 -0.00000 0.00000
								CHANNELS 3 Zrotation Yrotation Xrotation
								JOINT LeftFingerBase
								{
									OFFSET 0 0 0
									CHANNELS 3 Zrotation Yrotation Xrotation
									JOINT LeftHandIndex1
									{
										OFFSET 0.49824 -0.00000 0.00000
										CHANNELS 3 Zrotation Yrotation Xrotation
										End Site
										{
											OFFSET 0.40170 -0.00000 0.00000
										}
									}
								}
								JOINT LThumb
								{
									OFFSET 0 0 0
									CHANNELS 3 Zrotation Yrotation Xrotation
									End Site
									{
										OFFSET 0.40783 -0.00000 0.40783
									}
								}
							}
						}
					}
				}
				JOINT RightShoulder
				{
					OFFSET 0 0 0
					CHANNELS 3 Zrotation Yrotation Xrotation
					JOINT RightArm
					{
						OFFSET -2.86643 1.23488 0.45957
						CHANNELS 3 Zrotation Yrotation Xrotation
						JOINT RightForeArm
						{
							OFFSET -5.33830 -0.00000 0.00000
							CHANNELS 3 Zrotation Yrotation Xrotation
							JOINT RightHand
							{
								OFFSET -3.23148 -0.00000 0.00000
								CHANNELS 3 Zrotation Yrotation Xrotation
								JOINT RightFingerBase
								{
									OFFSET 0 0 0
									CHANNELS 3 Zrotation Yrotation Xrotation
									JOINT RightHandIndex1
									{
										OFFSET -0.46364 -0.00000 0.00000
										CHANNELS 3 Zrotation Yrotation Xrotation
										End Site
										{
											OFFSET -0.37380 -0.00000 0.00000
										}
									}
								}
								JOINT RThumb
								{
									OFFSET 0 0 0
									CHANNELS 3 Zrotation Yrotation Xrotation
									End Site
									{
										OFFSET -0.37951 -0.00000 0.37951
									}
								}
							}
						}
					}
				}
			}
		}
	}
}
MOTION
Frames: 93
Frame Time: 0.0166667
0.9052 15.8417 -43.9351 0.0000 0.0000 0.0000 0.0000 0.0000 0.0000 -21.0000 0.0000 0.0000 0.0000 0.0000 0.0000 0.0000 0.0000 0.0000 0.0000 0.0000 0.0000 0.0000 0.0000 0.0000 21.0000 0.0000 0.0000 0.0000 0.0000 0.0000 0.0000 0.0000 0.0000 0.0000 0.0000 0.0000 0.0000 0.0000 0.0000 0.0000 0.0000 0.0000 0.0000 0.0000 0.0000 0.0000 0.0000 -16.0000 0.0000 0.0000 21.0000 0.0000 0.0000 11.0000 0.0000 0.0000 0.0000 -8.0000 0.0000 0.0000 0.0000 0.0000 0.0000 0.0000 0.0000 0.0000 0.0000 0.0000 0.0000 0.0000 0.0000 0.0000 0.0000 0.0000 0.0000 0.0000 0.0000 0.0000 8.0000 0.0000 0.0000 0.0000 0.0000 0.0000 0.0000 0.0000 0.0000 0.0000 0.0000 0.0000 0.0000 0.0000 0.0000 0.0000 0.0000 0.0000
0.0889 15.8686 -28.2124 -7.9595 -0.4228 27.4786 0.0000 0.0000 0.0000 -8.3915 -18.8823 -58.5638 11.8211 18.3140 65.4206 2.5427 -0.9943 -29.9318 0.0037 0.3944 1.0838 0.0000 0.0000 0.0000 25.1359 13.5610 -32.5467 -17.2486 -19.8175 81.9318 0.7170 -14.9509 -7.8739 -0.9463 6.1953 -17.3521 10.3483 2.8555 -3.9139 1.4839 3.7560 -6.1734 -4.1816 1.4893 -3.7386 -5.7265 -4.8363 -15.6699 5.3146 -5.9820 9.4640 2.0315 -2.7284 5.7458 0.0000 -0.0000 0.0000 -77.2528 29.1874 34.1622 29.6628 -40.6026 -11.1895 -0.0000 0.0000 -6.8042 44.5675 -28.6775 -25.2996 -7.1250 0.0000 -0.0000 7.8446 -7.2236 -8.8472 0.0000 -0.0000 0.0000 77.1034 -1.7308 44.3660 -42.1774 49.3083 -20.0749 0.0000 0.0000 9.8743 -34.9939 -41.5168 24.8923 7.1250 -0.0000 -0.0000 3.4953 -77.1782 -2.6331
0.0203 15.7042 -27.6496 -5.5986 -0.7923 26.6623 0.0000 0.0000 0.0000 -11.6711 -19.4348 -55.4741 12.1777 18.4648 66.5511 2.9036 -0.6000 -32.1440 0.0039 -0.4046 -1.1118 0.0000 0.0000 0.0000 21.1388 14.0658 -38.2800 -19.6787 -19.9975 89.0607 0.6729 -15.7970 -12.9685 -0.9942 6.3458 -17.7911 7.3001 2.2172 -3.2961 0.9829 2.9594 -5.7488 -3.0534 1.2127 -3.8198 -5.7140 -4.6556 -15.0439 5.8080 -5.8097 8.7448 2.2179 -2.6231 5.4232 -0.0000 0.0000 0.0000 -76.7810 25.1448 35.9363 30.2285 -41.0885 -11.5595 -0.0000 0.0000 -5.5985 41.3452 -26.8787 -21.6934 -7.1250 0.0000 -0.0000 6.5120 -3.8497 -6.9786 -0.0000 0.0000 0.0000 77.9276 -3.3563 43.0167 -40.1044 48.1316 -18.5170 0.0000 0.0000 10.6433 -36.1590 -40.5630 25.4181 7.1250 -0.0000 -0.0000 -0.1944 -76.6529 0.1443
-0.0440 15.5353 -27.0762 -2.8118 -1.6996 25.6172 0.0000 0.0000 0.0000 -16.0931 -19.2972 -51.5450 12.2300 18.4862 66.7159 3.3048 0.3725 -34.6233 0.0674 -1.6751 -4.6086 0.0000 0.0000 0.0000 16.0613 14.8672 -44.2406 -21.7193 -19.9290 95.0327 0.6016 -15.7114 -14.2802 -0.1138 2.1749 -5.9893 3.7208 1.5609 -2.6346 0.4818 2.1000 -5.0998 -1.5953 0.9249 -3.6698 -6.1730 -4.3653 -14.2097 6.4376 -5.4037 7.7132 2.5465 -2.4188 4.9731 0.0000 0.0000 0.0000 -76.7192 20.8934 37.6302 30.8854 -41.6403 -11.9936 -0.0000 0.0000 -4.5662 44.6381 -32.5634 -27.9896 -7.1250 0.0000 -0.0000 6.7797 -11.6702 -8.0615 0.0000 0.0000 0.0000 78.2896 -4.9668 42.0354 -39.1885 47.5817 -17.8378 0.0000 0.0000 10.9750 -37.9679 -40.9561 27.0909 7.1250 -0.0000 -0.0000 -3.5974 -77.7096 2.7498
-0.1051 15.3805 -26.4752 -0.0944 -2.7501 24.6761 0.0000 0.0000 0.0000 -20.6193 -18.5979 -47.2881 12.0201 18.3991 66.0524 3.7970 1.0892 -37.3563 0.0467 -1.3953 -3.8373 0.0000 0.0000 0.0000 10.8358 15.6312 -50.5785 -23.1671 -19.7578 99.2960 0.3625 -15.0827 -16.9826 -0.1628 2.5993 -7.1650 0.4338 1.1020 -1.3971 -0.3230 1.4715 -4.8335 -0.6088 0.7126 -4.1733 -5.9899 -4.1414 -14.3003 6.6381 -5.1545 7.6713 2.6020 -2.2768 4.9604 0.0000 -0.0000 0.0000 -76.2076 16.7752 39.0058 32.2792 -42.7687 -12.9300 -0.0000 0.0000 -3.7829 43.5377 -32.7263 -27.1901 -7.1250 0.0000 -0.0000 6.1520 -11.3657 -7.2815 0.0000 -0.0000 0.0000 79.0862 -7.4427 40.3812 -39.5038 47.7732 -18.0709 0.0000 0.0000 11.9272 -38.7260 -43.8831 29.0683 7.1250 -0.0000 -0.0000 -1.0249 -80.9308 0.8505
-0.1809 15.2615 -25.8650 1.2789 -2.9432 23.9467 0.0000 0.0000 0.0000 -23.2893 -17.3368 -42.9433 11.6687 18.2471 64.9347 4.3404 1.6911 -40.1356 0.2402 -3.1543 -8.7085 0.0000 0.0000 0.0000 7.7572 16.6091 -56.9201 -23.7916 -19.6518 101.1479 0.3101 -15.4274 -18.3272 -0.2322 3.1014 -8.5612 -1.3818 0.5411 -0.0223 -0.6542 0.6668 -4.2733 0.0735 0.3708 -4.3971 -5.8835 -3.9495 -16.2238 6.9338 -4.8691 7.9640 2.6814 -2.0741 5.3521 -0.0000 -0.0000 0.0000 -75.7064 11.7619 40.2331 33.7756 -43.9178 -13.9572 -0.0000 0.0000 -2.6000 44.0539 -33.6004 -28.1653 -7.1250 0.0000 -0.0000 6.1629 -12.5560 -7.3932 -0.0000 -0.0000 0.0000 79.8196 -9.1672 38.8436 -40.3854 48.2966 -18.7264 0.0000 0.0000 13.2673 -39.5377 -43.9652 29.8144 7.1250 -0.0000 -0.0000 -3.1947 -81.3227 2.6765
-0.2316 15.1607 -25.2360 0.3542 -2.9122 24.0627 0.0000 0.0000 0.0000 -23.1304 -15.7661 -39.7553 11.2910 18.0746 63.7230 4.7980 2.1444 -42.3362 0.3269 -3.6747 -10.1632 0.0000 0.0000 0.0000 7.0157 18.6068 -63.0126 -23.6514 -19.6773 100.7315 0.0784 -14.9546 -20.3815 -0.0079 0.5732 -1.5750 -0.6114 0.3244 -0.9713 -0.4398 0.4131 -4.0241 -0.1189 0.2181 -3.5918 -5.9816 -3.5019 -14.2002 7.4355 -4.3361 6.5826 2.9278 -1.8360 4.5756 0.0000 -0.0000 0.0000 -75.3939 7.3215 41.3751 35.2396 -44.9825 -14.9825 -0.0000 0.0000 -1.4838 44.5728 -33.9262 -28.8048 -7.1250 0.0000 -0.0000 6.3335 -13.1457 -7.6489 0.0000 -0.0000 0.0000 80.5926 -11.9364 37.2060 -42.1081 49.2705 -20.0224 0.0000 0.0000 14.5400 -40.2275 -44.5103 30.6679 7.1250 -0.0000 -0.0000 -4.2790 -82.1243 3.6530
-0.2759 15.1263 -24.5465 0.7719 -3.3779 23.8981 0.0000 0.0000 0.0000 -24.6514 -14.1883 -35.4280 10.5809 17.7238 61.4128 5.2709 0.8719 -43.9935 0.1155 -2.1914 -6.0349 0.0000 0.0000 0.0000 4.9315 19.7758 -68.3282 -22.7255 -19.8210 97.9916 0.0980 -15.4010 -20.8235 -0.1045 2.0847 -5.7399 -1.4261 0.0777 0.2078 -0.4921 0.0424 -4.4542 0.2887 0.0660 -4.7096 -5.7277 -3.2144 -14.8076 7.2380 -3.9827 7.2600 2.8505 -1.6498 4.8497 -0.0000 0.0000 0.0000 -75.4409 3.5887 42.2601 37.2698 -46.3665 -16.4350 -0.0000 0.0000 -1.0761 44.5371 -34.6648 -29.2339 -7.1250 0.0000 -0.0000 6.0860 -13.9354 -7.4088 -0.0000 0.0000 0.0000 81.4418 -15.5427 35.2729 -45.4336 50.9792 -22.5752 0.0000 0.0000 13.6873 -40.6031 -46.2926 31.7844 7.1250 -0.0000 -0.0000 -1.0421 -84.0091 0.9276
-0.3104 15.1487 -23.7967 0.3365 -3.3682 24.3190 0.0000 0.0000 0.0000 -25.0291 -12.8984 -30.8171 9.4895 17.1126 57.7682 5.3244 1.3736 -44.3615 0.2143 -2.9802 -8.2235 0.0000 0.0000 0.0000 3.9782 20.7044 -72.8721 -21.0153 -19.9753 92.9697 0.0938 -15.1051 -20.4313 -0.2212 3.0274 -8.3551 -1.1938 -0.4548 -0.6739 -0.0163 -0.6352 -4.5002 0.6709 -0.2744 -4.2426 -5.6213 -2.6411 -15.4793 6.8082 -3.1814 7.8757 2.7673 -1.2657 5.0863 0.0000 0.0000 0.0000 -76.2377 0.0867 41.9852 39.1895 -47.5823 -17.8385 -0.0000 0.0000 -0.2360 44.5236 -34.2085 -28.9397 -7.1250 0.0000 -0.0000 6.2210 -13.4323 -7.5347 0.0000 0.0000 0.0000 81.3113 -18.1449 34.9252 -48.2577 52.2681 -24.7894 0.0000 0.0000 12.8777 -40.4302 -44.9368 31.0384 7.1250 -0.0000 -0.0000 -4.0598 -82.6231 3.5054
-0.3484 15.2080 -23.0149 -0.1236 -3.7114 24.6504 0.0000 0.0000 0.0000 -25.3811 -11.6668 -25.7655 8.1921 16.2587 53.2515 5.0176 1.8598 -43.2018 0.5836 -4.8916 -13.5997 0.0000 0.0000 0.0000 3.3439 21.7998 -75.9263 -18.7136 -19.9603 86.2363 -0.2077 -13.0668 -20.9192 -0.3612 3.8609 -10.6855 -1.1731 -0.9553 -1.1475 0.5708 -1.2844 -5.0212 1.2814 -0.5840 -4.4931 -5.2995 -1.8513 -15.2795 5.8902 -2.1125 8.5726 2.5245 -0.7965 5.1865 -0.0000 -0.0000 0.0000 -77.2076 -2.2166 41.6700 41.4572 -48.9099 -19.5305 -0.0000 -0.0000 0.3034 45.4851 -34.3358 -29.8418 -7.1250 0.0000 -0.0000 6.6769 -14.0125 -8.1428 -0.0000 -0.0000 0.0000 80.6758 -21.3211 34.9770 -51.4419 53.5607 -27.3299 0.0000 0.0000 11.9840 -39.7135 -44.9361 30.3992 7.1250 -0.0000 -0.0000 -1.6761 -82.3462 1.4380
-0.3937 15.3088 -22.1917 -0.7039 -3.6924 25.1574 0.0000 0.0000 0.0000 -25.3049 -11.0302 -20.5836 6.9459 15.2862 48.6695 4.4885 1.2680 -40.6814 0.6782 -5.2659 -14.6685 0.0000 0.0000 0.0000 3.3332 22.4736 -77.8795 -16.0610 -19.6239 78.4133 -0.4621 -10.7347 -20.8739 -0.4022 4.0716 -11.2781 -1.0114 -1.4786 -2.2387 1.2431 -1.9554 -5.8140 1.8869 -0.9071 -4.6687 -4.8128 -0.9425 -13.7934 4.9485 -0.9529 9.0725 2.2506 -0.2977 5.0232 0.0000 0.0000 0.0000 -78.0306 -3.6000 42.3246 44.2291 -50.3852 -21.6432 -0.0000 0.0000 -0.6600 45.6582 -32.7878 -28.9916 -7.1250 0.0000 -0.0000 7.2471 -12.3852 -8.6945 0.0000 0.0000 0.0000 79.7868 -24.4679 35.3656 -53.6440 54.3635 -29.1107 0.0000 0.0000 11.4875 -38.7542 -43.1082 28.7470 7.1250 -0.0000 -0.0000 -2.5181 -80.1733 2.0516
-0.4492 15.3722 -21.3688 -0.9974 -3.7796 25.8741 0.0000 0.0000 0.0000 -25.3605 -10.6639 -16.1392 5.9340 14.3640 44.7161 3.6919 -0.0458 -36.4883 1.0593 -6.5439 -18.3710 0.0000 0.0000 0.0000 3.1707 23.0672 -79.4099 -13.4711 -18.9457 70.5825 -0.5248 -8.7075 -19.5231 -0.8654 5.9319 -16.5870 -1.2505 -2.1890 -3.3425 2.0333 -2.8785 -6.3849 2.8214 -1.3400 -4.5607 -4.3110 0.0482 -14.1425 3.8081 0.4131 10.3191 1.9345 0.3092 5.4036 -0.0000 0.0000 0.0000 -78.9695 -4.8093 42.6390 47.3754 -51.8805 -24.0934 -0.0000 0.0000 -2.2361 45.2575 -31.3011 -27.6647 -7.1250 0.0000 -0.0000 7.4794 -10.5331 -8.7888 -0.0000 0.0000 0.0000 78.0580 -26.7130 36.6802 -56.3363 55.2519 -31.3112 0.0000 0.0000 10.2997 -39.0258 -40.3878 27.7080 7.1250 -0.0000 -0.0000 -6.6251 -77.5050 5.0388
-0.4898 15.4959 -20.4853 -1.9056 -3.4539 25.8071 0.0000 0.0000 0.0000 -24.7792 -10.1593 -11.2792 5.2040 13.6099 41.6967 2.6239 -1.5375 -30.2689 1.4472 -7.6046 -21.5194 0.0000 0.0000 0.0000 4.6752 23.3064 -78.5562 -11.2342 -18.0478 63.5397 -0.4603 -6.2989 -16.6588 -1.0620 6.5519 -18.3944 -0.3165 -2.7314 -4.2316 2.7675 -3.5940 -6.4066 3.0128 -1.7316 -4.0529 -3.3303 0.8838 -15.0602 2.4696 1.5430 11.3480 1.4674 0.7986 5.8512 0.0000 0.0000 0.0000 -79.5777 -5.9942 43.2462 51.8233 -53.7049 -27.6370 -0.0000 0.0000 -5.6480 46.5552 -33.1935 -30.0290 -7.1250 0.0000 -0.0000 7.5888 -13.2593 -9.1977 0.0000 0.0000 0.0000 76.5070 -27.9974 37.9121 -57.5135 55.6101 -32.2805 0.0000 0.0000 10.7943 -38.0502 -39.4211 26.4285 7.1250 -0.0000 -0.0000 -5.3393 -76.1584 3.9092
-0.5250 15.6278 -19.5824 -2.3042 -2.6199 24.3855 0.0000 0.0000 0.0000 -24.5882 -9.1031 -6.5358 4.9018 13.2724 40.3967 1.3586 -2.0454 -21.4632 1.9960 -8.8577 -25.3511 0.0000 0.0000 0.0000 6.6442 22.7107 -75.6911 -9.6627 -17.2158 58.3550 -0.3301 -4.4790 -13.4367 -1.6554 8.1082 -23.0431 0.5346 -3.5868 -4.3030 3.3757 -4.7394 -6.2873 3.1435 -2.3325 -3.8467 -2.6241 1.7251 -14.1114 1.1732 2.6896 11.5952 1.0370 1.2804 5.7652 0.0000 0.0000 0.0000 -79.8333 -6.4323 44.3682 55.6525 -55.0355 -30.7500 -0.0000 0.0000 -8.9592 48.0290 -34.0674 -31.9131 -7.1250 0.0000 -0.0000 8.0675 -14.9500 -9.9599 0.0000 0.0000 0.0000 74.4227 -29.1211 39.9541 -57.9243 55.7310 -32.6198 0.0000 0.0000 11.7737 -38.0516 -37.0236 25.2355 7.1250 -0.0000 -0.0000 -7.0805 -73.6414 4.8059
-0.5593 15.7370 -18.7146 -3.1103 -3.0069 23.5527 0.0000 0.0000 0.0000 -23.7558 -6.2675 -5.5502 5.2168 13.6239 41.7511 0.3272 -1.8846 -10.3134 0.9938 -6.3445 -17.7872 0.0000 0.0000 0.0000 8.8667 23.0415 -73.2049 -8.8452 -16.7071 55.5533 -0.3177 -3.6555 -12.6320 -1.9371 8.7338 -24.9662 1.6180 -3.7224 -4.0359 3.8433 -4.9126 -6.3629 3.0516 -2.4525 -4.1207 -2.4904 2.2214 -14.4395 0.4613 3.4536 12.4137 0.8720 1.5904 6.0807 -0.0000 -0.0000 0.0000 -80.0068 -7.2314 46.4159 58.4227 -55.8748 -33.0320 -0.0000 0.0000 -12.6896 50.0152 -34.5227 -34.0496 -7.1250 0.0000 -0.0000 8.9240 -16.4826 -11.2023 -0.0000 -0.0000 0.0000 72.7613 -29.7132 41.4735 -58.6879 55.9500 -33.2516 0.0000 0.0000 12.8739 -35.6707 -42.3905 25.8235 7.1250 -0.0000 -0.0000 3.5509 -78.2917 -2.7570
-0.6004 15.8055 -17.8302 -2.6201 -2.7469 23.1409 0.0000 0.0000 0.0000 -23.4182 -4.2286 -6.4677 6.0818 14.5072 45.3092 -0.0021 -1.5744 -0.8652 0.6379 -5.1098 -14.2220 0.0000 0.0000 0.0000 9.6024 22.5520 -71.4397 -8.8792 -16.7293 55.6713 -0.3560 -3.3403 -13.0011 -1.7370 8.2954 -23.6150 2.0523 -4.0322 -5.1431 3.7749 -5.3661 -6.7319 2.6706 -2.7033 -3.9190 -2.4585 2.6107 -13.0436 -0.0214 4.0113 12.8145 0.7470 1.8213 5.9756 -0.0000 0.0000 0.0000 -80.1300 -7.0985 48.5349 60.5985 -56.4673 -34.8396 -0.0000 0.0000 -15.2401 50.1031 -36.5660 -35.4731 -7.1250 0.0000 -0.0000 8.2478 -18.7407 -10.5477 -0.0000 0.0000 0.0000 71.7206 -30.7682 42.3935 -58.4566 55.8844 -33.0600 0.0000 0.0000 14.1386 -34.6277 -40.3712 24.0993 7.1250 -0.0000 -0.0000 2.5576 -75.9039 -1.8579
-0.6454 15.8144 -16.9599 -1.9185 -2.7950 22.1686 0.0000 0.0000 0.0000 -23.4875 -3.1691 -7.7046 7.5091 15.7460 50.7745 0.1382 0.2725 6.9286 0.0088 -0.6045 -1.6612 0.0000 0.0000 0.0000 10.5439 22.1057 -68.9945 -9.6118 -17.1857 58.1827 -0.4533 -3.5872 -14.5413 -0.9618 6.2446 -17.4957 2.0049 -3.9549 -5.4049 3.4813 -5.2843 -6.4431 2.3565 -2.6659 -3.4936 -2.1047 2.6073 -14.6097 -0.7325 4.1270 14.3858 0.5181 1.8017 6.7679 0.0000 -0.0000 0.0000 -80.4337 -7.7357 50.6302 61.9768 -56.8141 -35.9907 -0.0000 0.0000 -15.1596 48.8366 -36.2925 -34.0981 -7.1250 0.0000 -0.0000 7.7182 -17.7802 -9.7785 0.0000 -0.0000 0.0000 71.4824 -30.4165 42.5171 -56.8891 55.4223 -31.7658 0.0000 0.0000 15.2599 -36.6674 -36.5820 23.9267 7.1250 -0.0000 -0.0000 -4.8058 -72.7076 3.1621
-0.6960 15.7240 -16.1553 -0.8549 -3.5601 21.8753 0.0000 0.0000 0.0000 -24.3271 -2.6505 -10.8130 9.5941 17.1752 58.1228 0.0321 0.1864 3.3195 0.3782 -3.9494 -10.9345 0.0000 0.0000 0.0000 10.6855 22.0384 -67.3482 -10.8930 -17.8823 62.4335 -0.5832 -5.0361 -17.1398 -0.4299 4.2076 -11.6614 1.1767 -3.7156 -6.2831 3.1362 -4.9751 -6.3630 2.3942 -2.4879 -2.8860 -1.9719 2.6276 -15.1662 -1.2259 4.2533 15.3529 0.3694 1.8030 7.1923 0.0000 0.0000 0.0000 -81.0476 -7.7859 52.1116 63.3183 -57.1312 -37.1155 -0.0000 0.0000 -13.8842 46.2234 -35.1239 -30.9830 -7.1250 0.0000 -0.0000 6.8012 -15.2191 -8.3983 0.0000 0.0000 0.0000 70.9993 -29.6192 43.1810 -55.9337 55.1253 -30.9806 0.0000 0.0000 14.8647 -34.3891 -38.7389 23.1854 7.1250 -0.0000 -0.0000 1.0658 -74.1691 -0.7346
-0.7483 15.6214 -15.3720 0.1434 -4.4643 22.0158 0.0000 0.0000 0.0000 -24.9410 -2.5160 -15.2673 12.1733 18.4630 66.5371 -0.0107 1.8461 -0.8570 0.1602 -2.5787 -7.1079 0.0000 0.0000 0.0000 9.8440 22.6621 -66.4115 -12.1925 -18.4708 66.5976 -1.0644 -3.6543 -21.1274 -0.1865 2.7815 -7.6709 0.1509 -3.3069 -7.0908 2.8038 -4.4100 -6.2009 2.5823 -2.1778 -2.2354 -1.4324 2.5098 -16.0424 -2.1353 4.1577 15.3285 -0.0112 1.6960 7.3705 -0.0000 0.0000 0.0000 -81.9854 -7.9784 53.2670 63.9218 -57.2675 -37.6228 -0.0000 0.0000 -12.5345 44.9195 -34.5973 -29.5191 -7.1250 0.0000 -0.0000 6.3038 -14.0364 -7.6847 -0.0000 0.0000 0.0000 70.7351 -27.8744 43.6820 -54.8652 54.7787 -30.1059 0.0000 0.0000 15.2189 -34.5057 -40.5914 24.0981 7.1250 -0.0000 -0.0000 3.0855 -76.0794 -2.2530
-0.7835 15.5171 -14.5780 0.6188 -5.2038 21.8521 0.0000 0.0000 0.0000 -24.7150 -2.7325 -20.8930 15.1092 19.4166 75.5653 0.0153 3.2363 -5.3343 0.1346 -2.3646 -6.5144 0.0000 0.0000 0.0000 9.4929 23.5238 -64.4976 -13.1758 -18.8447 69.6706 -1.3163 -4.8097 -23.8868 -0.1552 2.5385 -6.9965 -0.3774 -3.0130 -7.2018 2.9491 -3.9888 -6.4453 3.0539 -1.9430 -2.4030 -1.6424 2.5636 -15.0417 -2.9001 4.3626 14.5825 -0.2221 1.7373 6.9720 -0.0000 -0.0000 0.0000 -84.0440 -6.7352 53.5160 63.8415 -57.2496 -37.5552 -0.0000 0.0000 -12.9532 43.7596 -35.5520 -29.1088 -7.1250 0.0000 -0.0000 5.4091 -14.5446 -6.6195 -0.0000 -0.0000 0.0000 69.4250 -26.2628 45.5621 -52.5053 53.9573 -28.1876 0.0000 0.0000 16.3375 -35.4625 -40.2694 24.7224 7.1250 -0.0000 -0.0000 0.8252 -76.1040 -0.6029
-0.8062 15.3929 -13.8086 -0.6023 -4.6506 21.5932 0.0000 0.0000 0.0000 -21.7612 -3.6427 -27.2841 18.2004 19.9222 84.7317 0.2532 3.4576 -11.4243 0.1880 -2.7922 -7.7007 0.0000 0.0000 0.0000 12.2390 23.4335 -61.4055 -13.9207 -19.0898 71.9621 -1.8419 -4.5569 -27.6032 -0.1008 2.0475 -5.6371 1.1444 -2.5540 -6.3498 3.3448 -3.4195 -6.2733 2.6818 -1.6993 -2.7909 -1.4810 2.3308 -16.0509 -3.5658 4.1547 14.5144 -0.4736 1.5745 7.1428 0.0000 -0.0000 0.0000 -85.8914 -6.0692 53.9580 62.8559 -57.0241 -36.7273 -0.0000 0.0000 -13.8483 44.2407 -35.7956 -29.6657 -7.1250 0.0000 -0.0000 5.5766 -15.0218 -6.8591 0.0000 -0.0000 0.0000 68.9717 -23.4629 47.2447 -50.1355 53.0500 -26.2824 0.0000 0.0000 17.4203 -37.3070 -39.3854 25.8041 7.1250 -0.0000 -0.0000 -3.8268 -75.8594 2.7768
-0.8315 15.2412 -13.0696 -3.5552 -4.1158 21.7362 0.0000 0.0000 0.0000 -16.6152 -4.4656 -34.7786 21.1974 19.9656 93.5029 0.6545 2.9554 -16.6365 0.0533 -1.4901 -4.0985 0.0000 0.0000 0.0000 17.0734 23.8222 -57.9947 -14.2957 -19.2013 73.1056 -2.2352 -6.1744 -30.9721 -0.2014 2.8899 -7.9725 4.1794 -1.9266 -5.3706 4.2744 -2.5975 -6.5103 2.0383 -1.3861 -3.7251 -1.4468 2.2080 -15.6451 -4.1888 4.0497 13.9479 -0.6984 1.4887 6.9047 0.0000 -0.0000 0.0000 -87.6703 -4.1361 53.8322 61.0464 -56.5824 -35.2131 -0.0000 0.0000 -13.9138 44.9122 -35.3281 -29.9629 -7.1250 0.0000 -0.0000 6.0680 -14.8250 -7.4543 0.0000 -0.0000 0.0000 68.2104 -21.0263 49.8959 -48.7435 52.4760 -25.1742 0.0000 0.0000 18.1011 -38.9818 -40.8611 27.8984 7.1250 -0.0000 -0.0000 -6.0573 -77.9777 4.6656
-0.8568 15.1102 -12.3080 -7.6762 -3.5642 20.8739 0.0000 0.0000 0.0000 -9.8894 -4.5513 -41.9444 23.5841 19.6892 100.5317 1.0389 2.9635 -20.5362 0.1197 -2.2303 -6.1426 0.0000 0.0000 0.0000 23.9594 23.7371 -52.1057 -14.2299 -19.1823 72.9054 -2.5756 -8.2504 -34.0937 -0.4267 4.1924 -11.6185 8.5161 -1.1332 -3.5929 5.1204 -1.4581 -5.8038 0.5755 -0.9690 -4.1268 -1.4731 1.9071 -16.6330 -4.0144 3.6190 13.3684 -0.6765 1.2973 6.8740 0.0000 -0.0000 0.0000 -88.3449 -2.6746 53.6745 60.3194 -56.3944 -34.6070 -0.0000 0.0000 -11.7344 45.8727 -35.4726 -30.8907 -7.1250 0.0000 -0.0000 6.5092 -15.4294 -8.0503 0.0000 -0.0000 0.0000 68.6409 -17.2990 51.9833 -47.3832 51.8840 -24.0996 0.0000 0.0000 18.4421 -39.6456 -42.6275 29.2995 7.1250 -0.0000 -0.0000 -5.6584 -80.0207 4.5942
-0.8940 14.9369 -11.5506 -11.1319 -3.0450 20.2866 0.0000 0.0000 0.0000 -3.6182 -4.7759 -49.9477 25.3149 19.3088 105.7138 1.3664 2.3164 -23.0252 0.0463 -1.3891 -3.8200 0.0000 0.0000 0.0000 29.6120 23.2322 -46.7173 -14.0904 -19.1412 72.4802 -3.1391 -8.8241 -37.3807 -0.4473 4.2909 -11.8964 11.8569 -0.5652 -2.0512 6.0228 -0.4842 -5.4014 -0.2830 -0.6052 -4.6106 -1.7916 1.6303 -16.4691 -3.8917 3.2288 12.0147 -0.6310 1.1399 6.3968 -0.0000 0.0000 0.0000 -88.7044 0.0212 53.5481 60.3793 -56.4102 -34.6569 -0.0000 0.0000 -8.8101 46.8452 -36.0466 -32.1132 -7.1250 0.0000 -0.0000 6.8087 -16.5147 -8.5131 -0.0000 0.0000 0.0000 68.6356 -14.2290 54.4357 -47.2005 51.8021 -23.9559 0.0000 0.0000 19.8787 -37.4153 -43.1761 27.6290 7.1250 -0.0000 -0.0000 1.0120 -79.7307 -0.8154
-0.9667 14.7746 -10.7736 -12.5756 -3.0302 20.1173 0.0000 0.0000 0.0000 0.1140 -5.9522 -58.4318 25.9795 19.1202 107.7330 1.4347 3.3162 -24.0323 0.2165 -2.9953 -8.2656 0.0000 0.0000 0.0000 32.7084 22.5725 -42.1797 -13.9666 -19.1039 72.1025 -3.7240 -9.1356 -40.3614 -0.5387 4.7028 -13.0628 12.7853 -0.0146 -1.0993 6.2126 0.4132 -5.1914 -0.6016 -0.1984 -4.8630 -1.8838 1.2082 -16.7676 -3.4515 2.5847 11.1672 -0.5407 0.8782 6.1581 -0.0000 0.0000 0.0000 -87.7841 3.1978 54.0662 61.4166 -56.6757 -35.5223 -0.0000 0.0000 -6.0719 47.9118 -35.3462 -32.6404 -7.1250 0.0000 -0.0000 7.5819 -16.2885 -9.4733 -0.0000 0.0000 0.0000 69.1714 -11.1426 56.9510 -47.7190 52.0331 -24.3640 0.0000 0.0000 22.1139 -34.1047 -41.3890 24.1192 7.1250 -0.0000 -0.0000 5.0261 -76.7203 -3.7390
-1.0390 14.6930 -9.9098 -12.0124 -3.9181 20.0150 0.0000 0.0000 0.0000 0.7877 -7.7598 -65.2346 25.4974 19.2594 106.2665 1.4432 4.4732 -24.6907 0.3268 -3.6744 -10.1625 0.0000 0.0000 0.0000 33.3452 21.5175 -37.2549 -13.6617 -19.0082 71.1685 -4.2110 -9.3510 -42.6562 -0.6639 5.2109 -14.5111 11.6464 0.6957 -1.1209 5.7856 1.2950 -4.9410 -0.4690 0.3009 -4.4747 -2.1632 0.8061 -17.4682 -2.7788 2.0264 11.0430 -0.3348 0.6482 6.2169 0.0000 -0.0000 0.0000 -86.5600 6.9746 54.3212 64.0230 -57.2900 -37.7079 -0.0000 0.0000 -4.6498 48.2410 -36.0852 -33.4127 -7.1250 0.0000 -0.0000 7.4940 -17.2521 -9.4457 0.0000 -0.0000 0.0000 69.5636 -7.9982 59.9895 -49.5327 52.8053 -25.8015 0.0000 0.0000 23.8609 -32.9580 -40.0600 22.6499 7.1250 -0.0000 -0.0000 5.1714 -74.9903 -3.6579
-1.1176 14.6334 -9.0525 -11.8977 -3.9530 21.0072 0.0000 0.0000 0.0000 2.8097 -9.9157 -72.8777 24.1737 19.5771 102.2864 1.4789 3.3869 -24.4074 0.1955 -2.8474 -7.8543 0.0000 0.0000 0.0000 34.2871 20.6606 -33.5619 -13.1334 -18.8298 69.5393 -4.6027 -9.3859 -44.3472 -0.7806 5.6406 -15.7451 10.9355 1.1785 -1.6326 5.5208 1.8761 -5.2657 -0.3643 0.6047 -4.4745 -2.2980 0.4705 -17.6989 -1.9898 1.4774 10.4008 -0.1169 0.4536 6.0367 -0.0000 0.0000 0.0000 -85.0174 11.1826 54.1787 68.5973 -58.1964 -41.5770 -0.0000 0.0000 -4.3431 46.3571 -35.1140 -31.0950 -7.1250 0.0000 -0.0000 6.8724 -15.2724 -8.4918 -0.0000 0.0000 0.0000 70.1492 -4.6213 63.5766 -51.6939 53.6562 -27.5328 0.0000 0.0000 25.3856 -31.8412 -37.5361 20.7249 7.1250 -0.0000 -0.0000 4.0737 -72.0713 -2.6231
-1.2019 14.5692 -8.1894 -11.7808 -3.0355 22.9603 0.0000 0.0000 0.0000 5.1667 -12.2657 -80.4590 22.0209 19.9018 95.9179 1.4315 2.1960 -23.4889 0.1350 -2.3681 -6.5241 0.0000 0.0000 0.0000 35.1345 19.7274 -30.8319 -12.3312 -18.5272 67.0349 -4.4257 -10.1191 -43.9555 -0.8190 5.7745 -16.1314 10.5049 1.4246 -3.1503 5.2483 2.0609 -6.2137 -0.3824 0.6813 -4.6071 -3.0889 0.1379 -18.0078 -0.3528 1.0039 10.9851 0.4887 0.3194 6.2594 -0.0000 0.0000 0.0000 -83.2558 16.1902 53.9624 74.6008 -59.0847 -46.7049 -0.0000 0.0000 -4.5037 44.5668 -35.6048 -29.8322 -7.1250 0.0000 -0.0000 5.8035 -14.9649 -7.1365 -0.0000 0.0000 0.0000 71.1702 -2.0615 66.9128 -54.6958 54.7223 -29.9675 0.0000 0.0000 28.7369 -30.9575 -34.0673 18.5732 7.1250 -0.0000 -0.0000 2.4736 -68.2220 -1.3796
-1.2616 14.6222 -7.2096 -13.0160 -4.4473 22.7323 0.0000 0.0000 0.0000 6.3774 -11.3745 -82.8553 19.1690 19.9834 87.5696 1.4820 0.6874 -23.2778 0.4738 -4.4144 -12.2456 0.0000 0.0000 0.0000 37.2794 18.9225 -23.6637 -11.0025 -17.9363 62.7896 -3.9202 -11.4620 -42.4819 -1.8149 8.4694 -24.1490 11.3468 2.3546 -3.3483 4.9450 3.2292 -5.9982 -1.1436 1.2438 -4.1209 -2.9400 -0.3457 -17.4420 0.0763 0.2234 10.1402 0.5198 -0.0048 5.9055 0.0000 0.0000 0.0000 -81.3826 21.0037 53.4592 81.4926 -59.7247 -52.6391 -0.0000 0.0000 -5.9965 44.6591 -32.7067 -28.0999 -7.1250 0.0000 -0.0000 6.7481 -11.8389 -8.0388 0.0000 0.0000 0.0000 72.8965 1.2022 69.8211 -59.1523 56.0798 -33.6367 0.0000 0.0000 25.8885 -24.4011 -35.6029 14.7937 7.1250 -0.0000 -0.0000 12.5905 -67.7620 -6.9325
-1.3456 14.6403 -6.2331 -13.1399 -5.7453 23.5111 0.0000 0.0000 0.0000 6.1605 -10.6000 -85.7705 16.0536 19.6224 78.3914 1.0885 -0.5980 -19.5358 0.7338 -5.4728 -15.2621 0.0000 0.0000 0.0000 37.6280 18.3457 -17.3885 -9.6037 -17.1809 58.1553 -3.3939 -11.4013 -40.0701 -2.7445 10.2695 -29.8538 10.6578 3.2459 -4.6859 4.4302 4.2404 -6.3868 -1.2269 1.7759 -3.6741 -3.5478 -0.9714 -16.6150 1.2980 -0.6785 9.8874 0.9189 -0.3674 5.7096 0.0000 0.0000 0.0000 -79.0928 25.9524 53.6936 88.7591 -59.9942 -58.9254 -0.0000 0.0000 -8.5046 44.0503 -31.9195 -27.0890 -7.1250 0.0000 -0.0000 6.6580 -10.6913 -7.8255 0.0000 0.0000 0.0000 74.9664 3.3023 72.1116 -62.5190 56.9447 -36.4449 0.0000 0.0000 25.9511 15.4718 -46.7554 -11.3995 7.1250 -0.0000 -0.0000 69.1993 -63.8552 -40.1875
-1.4067 14.7096 -5.2086 -11.4150 -5.6059 23.2695 0.0000 0.0000 0.0000 3.4495 -11.8347 -85.9078 12.8920 18.7428 68.7899 0.4240 -1.9745 -11.7753 0.5665 -4.8203 -13.3968 0.0000 0.0000 0.0000 36.1361 15.4856 -11.8722 -8.2676 -16.3126 53.5208 -2.8148 -9.7329 -36.2378 -3.3580 11.2532 -33.1387 9.1367 3.5268 -6.1476 3.4314 4.4569 -6.6667 -1.3521 1.9428 -3.1333 -3.9014 -1.7078 -15.3113 2.0243 -1.7396 9.6280 1.1107 -0.8457 5.4504 -0.0000 0.0000 0.0000 -76.2387 30.5987 54.2938 96.3005 -59.8495 -65.4536 -0.0000 0.0000 -10.3015 42.1308 -32.2096 -25.7405 -7.1250 0.0000 -0.0000 5.5538 -10.1986 -6.4771 -0.0000 0.0000 0.0000 77.2668 4.4319 73.7631 -65.8777 57.6829 -39.2719 0.0000 0.0000 25.5456 -20.2075 -33.1877 11.3914 7.1250 -0.0000 -0.0000 15.4414 -64.2189 -7.2725
-1.4654 14.8317 -4.1464 -9.7728 -4.9557 21.4829 0.0000 0.0000 0.0000 -0.0461 -13.0306 -83.4882 10.3407 17.5971 60.6213 0.0360 -4.9346 -4.5621 0.7083 -5.3790 -14.9928 0.0000 0.0000 0.0000 34.9420 11.4534 -5.5765 -7.1168 -15.4294 49.3146 -1.5754 -8.3749 -28.0282 -4.2171 12.4439 -37.3209 8.0192 3.6492 -6.5806 2.4782 4.5759 -6.3895 -1.6873 2.0538 -2.5732 -4.9365 -2.5611 -15.0289 3.5114 -2.8991 10.5100 1.6422 -1.3438 5.7558 -0.0000 -0.0000 0.0000 -72.4049 34.1533 56.0252 103.4636 -59.3039 -71.6325 -0.0000 0.0000 -10.0901 39.5955 -31.5044 -23.3757 -7.1250 0.0000 -0.0000 4.3802 -8.4189 -4.9879 -0.0000 -0.0000 0.0000 79.3062 4.9458 75.0549 -69.7729 58.3962 -42.5772 0.0000 0.0000 24.6361 -18.9373 -32.2243 10.3679 7.1250 -0.0000 -0.0000 16.0857 -62.9553 -7.1082
-1.5418 14.9727 -3.0995 -8.6260 -4.0649 19.5362 0.0000 0.0000 0.0000 -4.1014 -13.2767 -80.5410 8.7730 16.6594 55.3016 -0.1233 -6.5355 0.2316 0.3830 -3.9744 -11.0046 0.0000 0.0000 0.0000 34.3192 7.9105 -0.9619 -6.6416 -15.0225 47.5056 -0.3716 -6.8538 -16.0310 -4.0821 12.2689 -36.6900 6.9988 3.7564 -6.9258 1.7218 4.6979 -6.0257 -1.8657 2.1638 -1.9888 -5.5228 -3.5256 -14.3522 4.7083 -4.3165 11.5162 1.9866 -1.9722 6.0643 0.0000 -0.0000 0.0000 -67.7349 35.7784 58.7285 108.3250 -58.6923 -75.8002 -0.0000 0.0000 -9.6717 38.0787 -30.8340 -21.8797 -7.1250 0.0000 -0.0000 3.7215 -7.1241 -4.1626 0.0000 -0.0000 0.0000 81.0094 5.3742 76.3712 -73.6563 58.9662 -45.8951 0.0000 0.0000 24.5665 -17.6884 -32.0714 9.6111 7.1250 -0.0000 -0.0000 17.3623 -62.4870 -7.4982
-1.6021 15.0580 -2.0817 -9.1545 -2.9577 18.0695 0.0000 0.0000 0.0000 -6.4291 -12.8225 -77.9972 8.3077 16.3409 53.6634 -0.0430 -3.7696 2.2544 0.1396 -2.4078 -6.6341 0.0000 0.0000 0.0000 35.0347 5.6668 -0.0038 -7.1014 -15.4167 49.2568 0.0744 -5.5879 -5.0266 -3.4752 11.4272 -33.7347 7.6505 3.9888 -7.0346 1.4235 4.9389 -5.6236 -2.4891 2.2871 -1.4148 -5.7553 -4.2276 -14.1878 5.3703 -5.3546 12.1440 2.1323 -2.4331 6.3170 -0.0000 0.0000 0.0000 -63.6223 35.3286 61.0943 111.9252 -58.1033 -78.8668 -0.0000 0.0000 -10.1098 36.2509 -30.8236 -20.5921 -7.1250 0.0000 -0.0000 2.7153 -6.4812 -3.0077 -0.0000 0.0000 0.0000 82.5174 6.6178 77.0628 -77.4500 59.3964 -49.1534 0.0000 0.0000 23.9107 -14.7320 -31.2969 7.7780 7.1250 -0.0000 -0.0000 19.9603 -61.0205 -7.9715
-1.6565 15.0413 -1.0935 -11.0825 -1.6775 17.5203 0.0000 0.0000 0.0000 -6.4324 -12.1318 -76.6036 8.8071 16.6820 55.4207 -0.0165 -2.7924 2.7376 0.0072 -0.5496 -1.5101 0.0000 0.0000 0.0000 37.0274 3.6591 -1.7207 -8.5447 -16.5056 54.5018 0.0916 -5.5016 -0.6891 -4.4031 12.6783 -38.1760 9.5259 4.2944 -6.9224 1.3618 5.2946 -6.0822 -3.5776 2.3823 -1.7851 -5.7249 -5.0422 -14.2396 6.1093 -6.6561 13.5342 2.2218 -2.9870 6.8730 -0.0000 -0.0000 0.0000 -59.9230 33.6390 63.6191 113.8997 -57.7277 -80.5399 -0.0000 0.0000 -9.9109 35.8069 -31.0153 -20.3909 -7.1250 0.0000 -0.0000 2.4246 -6.5421 -2.6874 -0.0000 -0.0000 0.0000 84.4418 7.4785 77.1498 -79.8036 59.6035 -51.1814 0.0000 0.0000 26.1877 -10.3458 -30.2275 5.2510 7.1250 -0.0000 -0.0000 23.7003 -59.0136 -8.4115
-1.7226 14.9854 -0.1179 -12.6070 0.1178 16.7049 0.0000 0.0000 0.0000 -6.3724 -11.9266 -74.3436 9.9285 17.3695 59.2492 -0.0104 -3.8135 -2.1865 0.4203 4.1614 11.5311 0.0000 0.0000 0.0000 38.9259 2.1753 -5.9821 -10.9897 -17.9301 62.7482 0.1557 -7.6814 0.6189 -2.6412 10.0903 -29.2696 10.8679 4.2889 -7.7807 1.4285 5.0731 -5.6725 -4.1804 2.2913 -0.8240 -5.8866 -5.8049 -14.1442 7.0360 -7.8270 13.4921 2.4183 -3.4812 6.9628 -0.0000 -0.0000 0.0000 -58.0187 28.9963 64.4528 115.2037 -57.4582 -81.6408 -0.0000 0.0000 -8.3349 34.8107 -30.8765 -19.6373 -7.1250 0.0000 -0.0000 1.9040 -6.0667 -2.0957 -0.0000 -0.0000 0.0000 86.0120 9.9641 77.4188 -81.3460 59.7151 -52.5126 0.0000 0.0000 27.9925 -7.7364 -31.5598 4.0671 7.1250 -0.0000 -0.0000 27.4679 -59.6098 -10.2682
-1.7686 14.9384 0.7963 -13.6037 1.2198 16.6490 0.0000 0.0000 0.0000 -5.0600 -12.7045 -73.1364 11.3325 18.0940 63.8566 0.2296 -3.4527 -8.5208 0.2490 3.2107 8.8659 0.0000 0.0000 0.0000 39.7330 2.8594 -12.9498 -14.1376 -19.1552 72.6242 0.3553 -10.7707 -1.3811 -2.6882 10.1724 -29.5368 11.5543 4.3210 -9.4849 1.5035 4.7533 -4.8072 -4.3596 2.2383 1.0196 -5.8150 -6.2695 -14.1676 7.5275 -8.4755 12.2563 2.4969 -3.7663 6.6340 -0.0000 -0.0000 0.0000 -57.8054 21.7328 63.9390 116.2427 -57.2308 -82.5156 -0.0000 0.0000 -7.1046 33.7504 -30.0948 -18.5235 -7.1250 0.0000 -0.0000 1.4837 -4.8875 -1.6053 -0.0000 -0.0000 0.0000 87.0634 13.8122 77.2813 -82.2540 59.7721 -53.2969 0.0000 0.0000 28.0049 -5.7916 -31.2582 3.0127 7.1250 -0.0000 -0.0000 29.1557 -58.9075 -10.4674
-1.8208 14.9005 1.5824 -12.7879 2.9398 16.2824 0.0000 0.0000 0.0000 -4.2242 -15.6324 -72.2233 12.8386 18.7231 68.6236 0.4631 -2.9458 -12.1812 0.4089 4.1051 11.3727 0.0000 0.0000 0.0000 38.5206 4.0244 -22.0005 -17.6461 -19.8666 83.1030 0.5204 -12.7042 -3.5466 -2.0530 8.9756 -25.7190 10.6563 3.5485 -8.0867 1.1138 3.9936 -4.6697 -4.4481 1.8399 0.2556 -5.6351 -6.5641 -13.7233 8.0318 -8.8750 10.3384 2.6097 -3.9570 5.9945 -0.0000 0.0000 0.0000 -57.9402 12.6085 63.7974 116.4166 -57.1916 -82.6618 -0.0000 0.0000 -7.0816 33.7877 -29.7065 -18.3452 -7.1250 0.0000 -0.0000 1.5880 -4.4774 -1.7077 -0.0000 0.0000 0.0000 88.1656 17.3133 77.0691 -82.0430 59.7594 -53.1146 0.0000 0.0000 27.8124 -5.8104 -31.4857 3.0423 7.1250 -0.0000 -0.0000 29.3368 -59.1078 -10.6830
-1.9163 14.8164 2.3287 -8.5709 3.7203 13.4479 0.0000 0.0000 0.0000 -9.0898 -17.9412 -66.5145 13.6810 19.0144 71.2280 0.7924 -2.3128 -16.1945 0.2833 3.4230 9.4587 0.0000 0.0000 0.0000 32.8168 4.6977 -30.1359 -21.1328 -19.9692 93.3138 0.5539 -13.5525 -8.9440 -1.5297 7.8088 -22.1347 5.3585 2.1958 -3.9986 0.3663 2.7933 -3.5008 -2.5342 1.3054 -1.1347 -6.1755 -6.6765 -13.5672 8.9236 -8.9106 8.4170 2.9917 -3.9709 5.4379 -0.0000 -0.0000 0.0000 -58.9135 1.7365 63.3774 116.7226 -57.1218 -82.9188 -0.0000 0.0000 -5.9384 33.0098 -29.4163 -17.6967 -7.1250 0.0000 -0.0000 1.2080 -3.9297 -1.2882 -0.0000 -0.0000 0.0000 88.3739 20.8663 76.9036 -82.9006 59.8087 -53.8556 0.0000 0.0000 26.2691 -6.2599 -31.7977 3.3080 7.1250 -0.0000 -0.0000 29.1659 -59.4787 -10.8768
-2.0543 14.8475 3.0323 -3.4708 6.3678 12.3571 0.0000 0.0000 0.0000 -15.4078 -20.3585 -60.7035 13.5747 18.9799 70.9012 1.0872 -2.5962 -19.0123 0.1050 2.0893 5.7524 0.0000 0.0000 0.0000 25.4185 5.2745 -40.8291 -23.7035 -19.6679 100.8862 0.5859 -14.7485 -12.0447 -1.2648 7.1286 -20.0969 -0.9118 0.4342 -1.5021 -0.6591 0.5767 -2.4040 -0.1640 0.2985 -1.6227 -6.5629 -6.4981 -13.6406 10.3731 -8.6734 7.1631 3.5398 -3.7963 5.1339 0.0000 0.0000 0.0000 -58.7702 -10.1259 62.2453 117.1979 -57.0115 -83.3178 -0.0000 0.0000 -2.9113 31.4011 -29.0001 -16.4857 -7.1250 0.0000 -0.0000 0.3726 -3.0203 -0.3917 0.0000 0.0000 0.0000 87.8156 25.2587 76.4237 -85.1921 59.9125 -55.8374 0.0000 0.0000 25.0388 -9.0370 -32.8185 4.9267 7.1250 -0.0000 -0.0000 27.2857 -61.0190 -11.1183
-2.1494 14.9194 3.7210 0.9149 6.4570 11.9366 0.0000 0.0000 0.0000 -21.5783 -19.3152 -55.4653 13.2508 18.8708 69.9026 1.4326 -3.2291 -21.8050 0.0860 1.8918 5.2068 0.0000 0.0000 0.0000 16.6502 8.9894 -51.4573 -25.1423 -19.3538 105.1924 0.6752 -15.7778 -12.8556 -1.1977 6.9440 -19.5497 -6.3273 -0.3726 1.3798 -1.8353 -0.7256 -2.2144 1.6777 -0.2376 -3.0111 -6.6133 -5.8535 -13.0011 11.5166 -7.9333 6.8947 3.9978 -3.3936 4.9396 0.0000 -0.0000 0.0000 -57.1976 -20.4065 60.3810 118.0217 -56.8144 -84.0080 -0.0000 -0.0000 1.0394 26.3896 -27.6434 -12.9642 -7.1250 0.0000 -0.0000 -2.3062 -0.3125 2.3206 0.0000 -0.0000 0.0000 86.4106 29.2313 75.3633 -88.2442 59.9883 -58.4795 0.0000 0.0000 25.6341 -14.7004 -36.4724 8.8640 7.1250 -0.0000 -0.0000 25.0855 -65.7185 -12.9102
-2.1771 15.0668 4.4208 -2.2197 6.9366 12.2567 0.0000 0.0000 0.0000 -18.5162 -17.2573 -53.3082 13.1185 18.8245 69.4932 1.7897 -4.6574 -24.2370 0.0823 1.8506 5.0930 0.0000 0.0000 0.0000 15.3144 15.6914 -61.4792 -24.8046 -19.4373 104.1753 1.0431 -18.3907 -12.2140 -0.8807 5.9826 -16.7340 -3.4135 -0.9626 2.7556 -1.0544 -1.4876 -2.6521 0.9180 -0.6521 -4.2257 -6.1256 -5.3132 -13.3059 11.4173 -7.3385 7.6971 3.9385 -3.0660 5.1603 -0.0000 0.0000 0.0000 -54.8678 -30.1027 57.2220 117.2165 -57.0072 -83.3334 -0.0000 -0.0000 5.3280 18.8651 -21.8217 -7.2386 -7.1250 0.0000 -0.0000 -6.2477 7.1577 5.4539 -0.0000 0.0000 0.0000 84.0870 33.3628 72.1291 -90.6600 59.9984 -60.5716 0.0000 0.0000 25.5961 -21.4324 -37.4484 13.4246 7.1250 -0.0000 -0.0000 18.3884 -68.6031 -10.5452
-2.2201 15.3259 5.1423 -2.2004 6.8865 12.6912 0.0000 0.0000 0.0000 -19.1909 -15.0872 -49.3628 12.4171 18.5615 67.3049 2.1308 -5.8927 -26.3876 0.1301 2.3248 6.4040 0.0000 0.0000 0.0000 8.9895 20.4062 -70.7860 -23.4855 -19.7062 100.2392 1.2339 -19.2947 -9.3313 -0.7443 5.5108 -15.3715 -4.1012 -1.6690 4.1373 -0.9628 -2.5397 -2.7791 1.5107 -1.1321 -5.0714 -4.2451 -5.2073 -16.1487 9.0690 -7.4188 10.6181 2.8234 -3.0461 6.3849 0.0000 0.0000 0.0000 -51.0014 -39.8560 53.0212 113.4355 -57.8195 -80.1472 -0.0000 -0.0000 6.2194 16.9136 -21.6823 -6.4101 -7.1250 0.0000 -0.0000 -7.4722 7.5715 6.4793 0.0000 0.0000 0.0000 80.8908 38.4282 68.5723 -92.4653 59.9770 -62.1348 0.0000 0.0000 22.4521 -27.2023 -39.0311 17.9355 7.1250 -0.0000 -0.0000 12.8066 -71.9710 -8.2540
-2.2199 15.6900 5.8860 -4.1114 7.3017 15.1599 0.0000 0.0000 0.0000 -17.0643 -14.3738 -47.0560 11.1360 18.0010 63.2225 2.1776 -5.9490 -26.6825 0.1073 2.1123 5.8160 0.0000 0.0000 0.0000 3.1613 23.7860 -81.7126 -21.2324 -19.9635 93.6054 1.2647 -19.4558 -8.4572 -0.5011 4.5381 -12.5957 -2.5466 -2.2748 2.4429 -0.1148 -3.1658 -3.1056 1.5007 -1.4922 -4.4435 -3.8797 -4.8113 -17.1946 8.9428 -6.9316 10.7436 2.7627 -2.7740 6.5491 0.0000 0.0000 0.0000 -45.8370 -48.8625 47.6779 107.1434 -58.8599 -74.7898 -0.0000 -0.0000 4.0513 14.8698 -21.3406 -5.5190 -7.1250 0.0000 -0.0000 -8.7491 8.1778 7.5060 0.0000 0.0000 0.0000 75.4755 42.9847 62.5137 -92.0873 59.9835 -61.8076 0.0000 0.0000 15.7810 -29.4562 -41.6266 20.5640 7.1250 -0.0000 -0.0000 13.4885 -75.2203 -9.6404
-2.2369 16.1712 6.6655 -5.2142 7.6277 16.5900 0.0000 0.0000 0.0000 -16.1604 -14.1743 -41.8017 9.1732 16.9179 56.6873 2.0845 -3.4423 -26.4557 0.0047 -0.4410 -1.2116 0.0000 0.0000 0.0000 -2.7048 25.3395 -89.7147 -18.3912 -19.9378 85.2914 1.2803 -19.5447 -7.3006 -0.4477 4.2927 -11.9017 -2.5844 -2.7047 1.3038 0.9678 -3.6715 -3.0904 2.6010 -1.7408 -3.6884 -5.7080 -4.2668 -15.4556 11.6905 -5.9337 7.4783 4.0696 -2.2869 5.3216 -0.0000 -0.0000 0.0000 -38.9480 -56.3338 41.0650 100.9238 -59.5443 -69.4458 -0.0000 -0.0000 1.1522 11.4656 -26.9462 -5.2514 -7.1250 0.0000 -0.0000 -11.1054 3.0046 10.7142 -0.0000 -0.0000 0.0000 67.4846 48.1838 55.5186 -90.2960 59.9997 -60.2563 0.0000 0.0000 5.0216 -31.3685 -44.4097 23.1042 7.1250 -0.0000 -0.0000 16.4110 -78.4892 -12.8610
-2.2118 16.7021 7.4244 -5.9296 8.3590 16.6138 0.0000 0.0000 0.0000 -16.1122 -16.0000 -33.3642 6.9203 15.2644 48.5722 1.5504 1.5953 -24.1537 0.1263 -2.2912 -6.3111 0.0000 0.0000 0.0000 -6.6154 25.0757 -94.4593 -15.7234 -19.5557 77.4066 1.2168 -19.1551 -5.4000 -0.6658 5.2182 -14.5319 -2.3176 -3.3916 2.4565 1.9748 -4.5702 -2.7176 3.5862 -2.1838 -3.8369 -5.4291 -3.8871 -17.1358 11.1839 -5.3435 7.3171 3.9087 -1.9767 5.4684 0.0000 -0.0000 0.0000 -28.7839 -60.5536 30.4893 94.0418 -59.9382 -63.4995 -0.0000 0.0000 -2.2044 9.0039 -26.2401 -4.0075 -7.1250 0.0000 -0.0000 -12.5434 3.9928 11.9345 0.0000 -0.0000 0.0000 58.4562 52.4435 47.2949 -86.4141 59.9514 -56.8950 0.0000 0.0000 0.4205 -32.6052 -45.9423 24.6874 7.1250 -0.0000 -0.0000 18.8431 -80.3242 -15.4772
-2.1498 17.3350 8.2643 -9.5482 9.5348 17.0530 0.0000 0.0000 0.0000 -12.7117 -18.2055 -25.3894 4.8231 13.1818 40.0527 0.6475 6.3391 -18.8129 0.2188 -3.0109 -8.3091 0.0000 0.0000 0.0000 -5.6008 24.6202 -98.6156 -13.5243 -18.9634 70.7462 0.9883 -17.6741 -2.6069 -0.3871 3.9956 -11.0642 1.2806 -3.9276 2.6348 3.8831 -5.0377 -3.2804 3.6349 -2.4841 -4.6286 -5.3308 -3.4261 -17.7005 10.5057 -4.6890 7.9364 3.7437 -1.6732 5.6726 0.0000 0.0000 0.0000 -19.6875 -61.8769 22.0638 85.2167 -59.9134 -55.8588 -0.0000 0.0000 -3.1072 9.0347 -28.8453 -4.3867 -7.1250 0.0000 -0.0000 -12.6249 1.4397 12.6163 0.0000 0.0000 0.0000 48.9146 54.3850 38.3738 -80.3439 59.6447 -51.6475 0.0000 0.0000 5.2444 -22.4827 -48.3909 17.1941 7.1250 -0.0000 -0.0000 41.7663 -77.8408 -32.9750
-2.0797 17.9597 9.0858 -10.7121 9.3539 17.8227 0.0000 0.0000 0.0000 -12.6020 -19.8506 -18.5430 3.2797 11.1346 32.7352 -0.3551 12.3151 -11.4201 1.1511 -6.8123 -19.1605 0.0000 0.0000 0.0000 -6.2582 24.1421 -102.6379 -11.8922 -18.3447 65.6466 0.6985 -16.6915 2.4827 -0.4785 4.4362 -12.3071 2.5359 -4.0959 2.4614 4.8796 -5.1568 -3.5697 3.9902 -2.5680 -4.8526 -4.8570 -2.7557 -18.4160 9.5992 -3.7943 8.4814 3.4702 -1.2608 5.8529 0.0000 0.0000 0.0000 -9.1371 -62.2067 12.5924 75.9634 -59.2423 -47.8749 -0.0000 0.0000 -5.9695 3.3843 -21.2484 -1.2277 -7.1250 0.0000 -0.0000 -15.9615 9.3312 13.7202 0.0000 0.0000 0.0000 37.9766 55.1626 30.6767 -73.5191 58.9484 -45.7775 0.0000 0.0000 5.8793 -24.7911 -45.7811 18.3155 7.1250 -0.0000 -0.0000 30.2160 -76.9725 -23.0141
-1.9904 18.5789 9.9386 -12.1400 9.2154 18.6166 0.0000 0.0000 0.0000 -12.1560 -23.9093 -13.0404 2.4795 9.8006 28.3334 -1.5665 21.4944 -7.9866 0.1489 -2.4863 -6.8517 0.0000 0.0000 0.0000 -5.5312 23.7285 -105.9897 -10.7417 -17.8064 61.9399 0.3767 -15.6621 6.3938 -0.5861 4.9016 -13.6282 4.7999 -4.2347 2.3952 5.7693 -5.1476 -4.2753 3.7245 -2.6309 -5.6934 -4.3972 -2.1646 -19.8379 8.3015 -3.0345 10.6903 3.0747 -0.9105 6.6970 -0.0000 -0.0000 0.0000 -0.6035 -60.9649 6.2802 64.4901 -57.3923 -38.1012 -0.0000 0.0000 -8.0194 7.0037 -25.5217 -3.0298 -7.1250 0.0000 -0.0000 -13.7227 4.9032 12.8825 -0.0000 -0.0000 0.0000 27.9743 55.0319 24.0445 -64.6459 57.4260 -38.2325 0.0000 0.0000 6.2930 -23.0095 -44.2094 16.4948 7.1250 -0.0000 -0.0000 28.2337 -75.0501 -20.3564
-1.9343 19.1371 10.8025 -11.8617 9.1113 20.3627 0.0000 0.0000 0.0000 -15.8748 -40.5913 -2.5733 2.0481 8.9656 25.6877 5.3357 5.0789 -45.6064 7.1030 15.4180 49.2626 0.0000 0.0000 0.0000 -7.1416 22.7840 -110.0397 -9.8791 -17.3413 59.0836 0.1137 -15.5833 9.6858 -0.4994 4.5306 -12.5745 5.5432 -4.2633 1.3471 6.0116 -5.1483 -5.4809 3.5722 -2.6700 -6.4276 -3.5473 -1.7542 -19.5239 6.6726 -2.5397 12.2412 2.4697 -0.7664 7.0753 0.0000 0.0000 0.0000 6.1565 -59.2867 3.5239 52.1633 -53.8316 -27.9113 -0.0000 0.0000 -10.4453 18.2862 -32.2348 -9.9962 -7.1250 0.0000 -0.0000 -7.6184 -3.3454 8.1205 0.0000 0.0000 0.0000 20.1501 53.3442 19.6255 -56.4098 55.2748 -31.3715 0.0000 0.0000 4.7448 -25.8352 -42.6341 18.1564 7.1250 -0.0000 -0.0000 20.8676 -74.7887 -14.8100
-1.8643 19.7023 11.5944 -11.2955 10.6648 21.4404 0.0000 0.0000 0.0000 -14.6050 -25.0027 -5.4090 1.5311 7.8122 22.1452 -3.3419 31.6745 -23.0049 3.8224 11.9202 35.4503 0.0000 0.0000 0.0000 -7.6922 20.2251 -112.2603 -9.0939 -16.8677 56.4141 -0.0468 -16.2335 11.8791 -0.4364 4.2388 -11.7496 7.3246 -4.8573 1.3083 6.3515 -5.7778 -6.2368 3.0886 -3.0749 -7.3814 -3.3677 -1.5763 -20.6823 4.9115 -2.0633 13.5162 1.9241 -0.6697 7.6345 -0.0000 0.0000 0.0000 11.6911 -56.6091 1.7052 42.0448 -49.2357 -19.9744 -0.0000 0.0000 -13.7661 29.6175 -33.3669 -17.3627 -7.1250 0.0000 -0.0000 -1.5056 -7.1537 1.6819 -0.0000 0.0000 0.0000 12.1771 51.8314 14.7911 -49.3677 52.7373 -25.6701 0.0000 0.0000 2.2445 -27.0425 -41.2905 18.6156 7.1250 -0.0000 -0.0000 16.5489 -74.0283 -11.4340
-1.8028 20.2007 12.4336 -9.8795 12.2762 21.9184 0.0000 0.0000 0.0000 -15.9773 -12.0046 -4.0903 1.0436 6.4967 18.2325 -2.3245 33.5371 10.7152 0.6017 4.9656 13.8104 0.0000 0.0000 0.0000 -9.0536 17.3668 -113.2111 -8.3865 -16.3963 53.9431 -0.2172 -17.2436 14.1153 -0.3903 4.0117 -11.1095 8.2487 -5.1899 0.5280 6.2998 -6.2538 -6.4136 2.5160 -3.3639 -7.2475 -3.8055 -1.7706 -20.5501 3.8584 -2.0063 13.4221 1.6503 -0.7734 7.5689 -0.0000 -0.0000 0.0000 15.5639 -54.7880 -0.1095 33.6960 -43.8582 -13.9020 -0.0000 0.0000 -10.3921 36.3876 -33.4707 -22.1181 -7.1250 0.0000 -0.0000 2.1425 -9.3915 -2.4649 -0.0000 -0.0000 0.0000 5.8273 48.3659 10.3850 -44.5200 50.5311 -21.8676 0.0000 0.0000 0.2975 -25.0773 -39.4182 16.5487 7.1250 -0.0000 -0.0000 16.3100 -71.6147 -10.4168
-1.7822 20.6554 13.3003 -8.8562 13.6873 22.2065 0.0000 0.0000 0.0000 -16.7663 -5.5856 -1.2319 0.7744 5.6189 15.6826 1.7515 19.9161 25.7692 0.1066 -2.1050 -5.7958 0.0000 0.0000 0.0000 -11.1123 15.2751 -113.2012 -7.6529 -15.8579 51.3026 -0.3940 -18.5613 16.3339 -0.4100 4.1105 -11.3879 8.9004 -5.2825 -0.6248 6.2790 -6.4875 -6.5001 2.0459 -3.5113 -6.7688 -4.9994 -2.0240 -20.2280 3.9756 -2.0493 13.6971 1.8796 -0.8500 7.6218 -0.0000 0.0000 0.0000 17.4847 -53.0020 -1.9029 27.2742 -38.4395 -9.6691 -0.0000 0.0000 -6.6043 35.5411 -33.0240 -21.2724 -7.1250 0.0000 -0.0000 1.7978 -8.6220 -2.0480 -0.0000 0.0000 0.0000 1.6006 43.4332 8.0482 -40.8935 48.5904 -19.1067 0.0000 -0.0000 -0.9218 -23.0276 -38.2537 14.7439 7.1250 -0.0000 -0.0000 17.4052 -69.8555 -10.4548
-1.7644 21.0341 14.2073 -7.9314 15.3555 21.3728 0.0000 0.0000 0.0000 -17.2585 -2.9569 3.4232 0.7024 5.3569 14.9295 2.5774 11.7006 28.9454 0.2048 -2.9137 -8.0386 0.0000 0.0000 0.0000 -11.6666 13.2090 -111.5972 -6.9684 -15.3052 48.7546 -0.5516 -19.7114 18.1288 -0.4710 4.4017 -12.2097 9.6170 -5.6180 -1.6201 6.2042 -7.0754 -6.2025 1.4856 -3.8197 -6.0085 -5.7627 -2.0534 -19.5447 3.6612 -1.8732 14.7191 1.9276 -0.8522 7.8430 -0.0000 -0.0000 0.0000 17.3869 -50.3063 -1.5914 22.9520 -34.0363 -7.1114 -0.0000 0.0000 -8.5463 35.1660 -31.0927 -19.9933 -7.1250 0.0000 -0.0000 2.0518 -6.4158 -2.2696 -0.0000 -0.0000 0.0000 -1.0243 39.8613 5.4179 -35.5975 45.2341 -15.2361 0.0000 0.0000 0.0575 -26.7853 -41.6403 18.5427 7.1250 -0.0000 -0.0000 17.5562 -74.2538 -12.2245
-1.7660 21.3457 15.1173 -6.4279 16.0524 21.1224 0.0000 0.0000 0.0000 -18.2207 -0.7466 7.4536 0.7056 5.3689 14.9637 2.7299 8.8232 29.8001 0.2168 -2.9974 -8.2716 0.0000 0.0000 0.0000 -11.9635 11.8355 -110.2369 -6.2865 -14.7004 46.1211 -0.7461 -20.9247 20.0805 -0.6587 5.1908 -14.4535 9.4819 -5.9018 -2.5431 5.7647 -7.5433 -6.8223 1.0783 -4.0775 -6.2162 -6.8621 -1.7425 -17.5979 3.9628 -1.3708 16.5891 2.2877 -0.6852 8.1175 0.0000 0.0000 0.0000 14.1305 -47.1486 0.7772 20.4267 -31.1530 -5.7505 -0.0000 0.0000 -10.2096 32.0434 -29.6716 -17.2156 -7.1250 0.0000 -0.0000 0.6066 -3.9249 -0.6468 0.0000 0.0000 0.0000 -2.1948 36.7003 6.6032 -31.6046 42.2297 -12.4743 0.0000 -0.0000 -1.6622 -27.6082 -40.6517 18.8136 7.1250 -0.0000 -0.0000 14.6335 -73.6412 -9.9744
-1.7794 21.5868 16.0329 -2.9595 16.0966 21.4804 0.0000 0.0000 0.0000 -20.4244 2.6093 10.9260 0.7713 5.6077 15.6503 2.9272 8.8453 30.9042 0.1616 -2.5899 -7.1390 0.0000 0.0000 0.0000 -13.8617 10.1952 -108.9175 -5.7170 -14.1484 43.8350 -0.8642 -21.7374 21.2383 -0.6379 5.1097 -14.2218 6.8415 -6.3138 -3.6241 4.9525 -8.2225 -7.6283 1.5848 -4.3243 -6.2076 -7.6845 -1.3881 -14.8961 3.9458 -0.9028 17.8051 2.4835 -0.5597 8.0243 -0.0000 0.0000 0.0000 10.3439 -45.2788 -0.1060 17.3298 -27.2906 -4.2375 -0.0000 0.0000 -6.7330 30.9024 -30.8117 -17.0448 -7.1250 0.0000 -0.0000 -0.2684 -4.8218 0.2900 -0.0000 0.0000 0.0000 -2.2428 37.3684 2.4328 -24.2518 35.4293 -7.8520 0.0000 0.0000 1.8987 -27.7112 -41.6322 19.2367 7.1250 -0.0000 -0.0000 16.1798 -74.5839 -11.3668
-1.8094 21.7826 16.9652 0.8887 16.0220 22.0311 0.0000 0.0000 0.0000 -22.5020 5.6919 13.9566 0.9835 6.3125 17.6938 3.0911 9.7624 31.7608 0.1867 -2.7826 -7.6742 0.0000 0.0000 0.0000 -16.3156 8.6798 -107.5452 -5.3661 -13.7846 42.3814 -0.8326 -22.5305 21.4387 -0.5359 4.6907 -13.0286 3.6373 -6.6154 -4.9385 3.9221 -8.7471 -7.8993 2.0628 -4.4539 -5.4103 -8.0013 -1.3359 -13.3971 3.7132 -0.8432 18.2258 2.4674 -0.5949 7.8956 -0.0000 -0.0000 0.0000 7.9263 -39.3001 4.1476 18.0776 -28.2564 -4.5859 -0.0000 0.0000 -8.3727 33.1548 -31.0291 -18.6102 -7.1250 0.0000 -0.0000 0.9479 -5.7143 -1.0378 -0.0000 -0.0000 0.0000 -2.5691 30.2057 5.9268 -25.1174 36.3237 -8.3593 0.0000 -0.0000 -2.6796 -25.2444 -38.6707 16.4161 7.1250 -0.0000 -0.0000 15.0381 -70.9705 -9.3802
-1.8489 21.9658 17.8764 3.2421 15.7640 21.9804 0.0000 0.0000 0.0000 -22.6936 9.0096 15.0245 1.7104 8.2348 23.4296 3.0452 9.4453 31.5242 0.4448 -4.2791 -11.8634 0.0000 0.0000 0.0000 -17.5810 8.4769 -105.5498 -5.1431 -13.5432 41.4375 -0.8515 -22.9897 21.7875 -0.5164 4.6060 -12.7881 1.4563 -6.6584 -5.3770 3.3536 -8.8086 -8.0325 2.5826 -4.3912 -5.0535 -8.0816 -1.4481 -12.1602 3.2474 -0.9935 17.9224 2.3059 -0.7198 7.5856 0.0000 0.0000 0.0000 6.1875 -34.3717 6.5410 17.8977 -28.0260 -4.5011 -0.0000 0.0000 -8.8696 34.6624 -31.3357 -19.7784 -7.1250 0.0000 -0.0000 1.7172 -6.5161 -1.9018 0.0000 0.0000 0.0000 -2.1828 27.0935 1.5431 -22.8825 33.9600 -7.0725 0.0000 0.0000 1.1265 -25.7324 -39.6095 17.0810 7.1250 -0.0000 -0.0000 15.6928 -72.0158 -10.1540
-1.8822 22.1701 18.8045 3.6123 16.2168 21.7922 0.0000 0.0000 0.0000 -20.6269 10.9085 14.1622 3.0477 10.7719 31.5146 3.0551 6.1236 31.8459 0.5732 -4.8486 -13.4773 0.0000 0.0000 0.0000 -17.3449 8.9003 -102.9537 -4.9294 -13.3038 40.5168 -0.8941 -23.3826 22.2420 -0.5494 4.7486 -13.1928 1.2822 -6.7254 -6.5924 3.2979 -8.9188 -8.0219 2.4520 -4.4462 -4.3455 -8.0656 -1.4486 -10.7950 3.0088 -1.0703 17.4387 2.2138 -0.7770 7.1896 0.0000 0.0000 0.0000 4.7936 -28.2747 9.3140 18.4745 -28.7605 -4.7754 -0.0000 0.0000 -9.7213 34.8322 -30.3885 -19.3923 -7.1250 0.0000 -0.0000 2.0261 -5.5437 -2.2137 0.0000 0.0000 0.0000 -2.5894 22.1477 2.2935 -22.3952 33.4208 -6.8023 0.0000 -0.0000 -0.9452 -27.5152 -40.9394 18.8462 7.1250 -0.0000 -0.0000 15.2494 -73.8760 -10.4758
-1.9327 22.3373 19.7290 3.2138 16.9175 22.3574 0.0000 0.0000 0.0000 -17.6316 11.3067 12.6122 4.9113 13.2832 40.4382 2.8087 7.2037 30.3537 0.2897 -3.4615 -9.5663 0.0000 0.0000 0.0000 -17.1150 9.6570 -100.5396 -4.6589 -12.9891 39.3275 -0.5426 -25.2864 21.2139 -0.3654 3.8831 -10.7479 1.9667 -6.7301 -8.4114 3.5257 -8.9789 -8.2698 2.1036 -4.5070 -3.6772 -8.4252 -1.4517 -10.8706 3.2062 -1.0414 18.1845 2.3479 -0.7832 7.4484 -0.0000 0.0000 0.0000 4.2653 -22.1911 13.2268 18.5535 -28.8601 -4.8134 -0.0000 0.0000 -12.2838 34.9269 -30.0634 -19.2810 -7.1250 0.0000 -0.0000 2.1516 -5.2196 -2.3400 -0.0000 0.0000 0.0000 -3.0764 18.2089 2.7799 -20.9015 31.7132 -5.9981 0.0000 -0.0000 -2.2160 -28.8787 -41.4502 20.0574 7.1250 -0.0000 -0.0000 14.0768 -74.8442 -9.9524
-1.9616 22.4549 20.6641 1.6055 18.3123 22.0183 0.0000 0.0000 0.0000 -12.8355 11.9027 11.3463 7.1937 15.4928 49.6031 2.6481 6.6294 29.4844 0.2378 -3.1387 -8.6651 0.0000 0.0000 0.0000 -15.1621 10.5904 -97.0649 -4.3595 -12.6240 37.9769 -0.4830 -25.8542 21.2060 -0.3796 3.9570 -10.9558 4.2433 -6.6955 -10.2938 3.8579 -9.1325 -8.2635 0.9910 -4.6695 -2.9591 -8.9594 -1.3667 -9.1443 3.7273 -1.0892 17.6400 2.5991 -0.7980 6.9723 0.0000 0.0000 0.0000 2.9915 -17.3905 13.5922 17.2854 -27.2325 -4.2171 -0.0000 0.0000 -11.0707 35.0136 -29.8700 -19.2340 -7.1250 0.0000 -0.0000 2.2433 -5.0361 -2.4333 0.0000 0.0000 0.0000 -3.2286 14.1724 4.5530 -19.7320 30.3181 -5.3954 0.0000 -0.0000 -3.7706 -31.0713 -43.8942 22.6737 7.1250 -0.0000 -0.0000 15.6046 -77.9121 -12.0405
-1.9954 22.5158 21.6074 0.9214 19.3926 22.2745 0.0000 0.0000 0.0000 -9.1512 12.2049 9.6596 9.6116 17.1856 58.1821 2.7453 6.5654 30.0542 0.0662 -1.6605 -4.5684 0.0000 0.0000 0.0000 -14.0060 11.2948 -93.9824 -4.1122 -12.3083 36.8314 -0.2013 -26.9061 20.2262 -0.2717 3.3531 -9.2635 5.5904 -6.6438 -12.1647 3.9395 -9.2554 -8.6652 0.1571 -4.7809 -2.5975 -7.0706 -2.5930 -12.8870 0.6581 -2.1736 22.2891 1.1534 -1.5442 9.2399 -0.0000 -0.0000 0.0000 1.7828 -11.5604 16.0371 16.8852 -26.7062 -4.0356 -0.0000 0.0000 -10.7679 35.6596 -28.6586 -18.9888 -7.1250 0.0000 -0.0000 2.8751 -3.9099 -3.0683 -0.0000 -0.0000 0.0000 -3.0453 10.0273 6.8024 -18.6968 29.0402 -4.8828 0.0000 -0.0000 -3.9988 -31.8425 -44.7160 23.6039 7.1250 -0.0000 -0.0000 16.4079 -78.9507 -13.0117
-2.0085 22.5246 22.5819 1.2579 20.2756 22.5995 0.0000 0.0000 0.0000 -6.6916 12.3304 9.0144 11.7979 18.3039 65.3468 2.6162 7.5971 29.2136 0.0072 -0.5496 -1.5101 0.0000 0.0000 0.0000 -12.8690 11.3025 -91.0375 -3.9789 -12.1322 36.2014 0.2918 -28.3922 18.3642 -0.0736 1.7499 -4.8151 6.0118 -6.6903 -14.4771 3.7448 -9.5216 -8.5878 -0.5963 -4.9042 -1.4069 -7.5574 -2.7922 -12.5434 1.0341 -2.4612 22.3712 1.3327 -1.6814 9.2296 -0.0000 -0.0000 0.0000 0.4315 -5.9060 16.6829 16.2717 -25.8876 -3.7638 -0.0000 0.0000 -9.0900 35.8484 -28.3561 -18.9399 -7.1250 0.0000 -0.0000 3.0486 -3.6349 -3.2402 -0.0000 -0.0000 0.0000 -2.7338 6.0778 8.1467 -17.7775 27.8713 -4.4447 0.0000 -0.0000 -3.7288 -31.3770 -44.7431 23.2335 7.1250 -0.0000 -0.0000 17.3110 -78.7853 -13.6765
-2.0069 22.4967 23.5431 1.8129 20.6417 22.7894 0.0000 0.0000 0.0000 -4.8990 12.8632 8.9463 13.7146 19.0252 71.3308 2.3963 9.3720 27.8418 0.0017 0.2661 0.7311 0.0000 0.0000 0.0000 -11.3031 11.3194 -88.0484 -3.9236 -12.0581 35.9378 0.3132 -28.1252 18.0224 -0.0704 1.7120 -4.7103 6.3513 -6.4953 -16.3004 3.2481 -9.4147 -8.7535 -1.4889 -4.8548 -0.7721 -7.5697 -2.9131 -11.2429 0.7215 -2.6712 22.3932 1.2174 -1.8183 9.0028 0.0000 -0.0000 0.0000 -0.9466 -0.6606 17.5149 15.6604 -25.0580 -3.5009 -0.0000 0.0000 -7.8175 36.1266 -28.1198 -18.9845 -7.1250 0.0000 -0.0000 3.2588 -3.4609 -3.4551 0.0000 -0.0000 0.0000 -2.0645 1.7021 10.3713 -17.2513 27.1879 -4.2015 0.0000 -0.0000 -4.8241 -29.4009 -44.9125 21.6946 7.1250 -0.0000 -0.0000 21.0857 -78.1294 -16.4175
-2.0181 22.4082 24.4809 2.6638 20.3423 22.8515 0.0000 0.0000 0.0000 -3.5883 13.8288 9.3380 15.4406 19.4941 76.5605 2.1496 10.2315 26.3492 0.0980 2.0187 5.5574 0.0000 0.0000 0.0000 -10.3061 11.8058 -84.7041 -3.8336 -11.9357 35.5047 0.6207 -29.0076 16.8526 -0.0233 0.9860 -2.7102 6.0029 -6.1880 -17.0063 2.8353 -8.9936 -8.8570 -1.7545 -4.6338 -0.5003 -8.0503 -3.2341 -11.9075 0.8009 -2.9670 23.5330 1.2799 -2.0110 9.5536 -0.0000 -0.0000 0.0000 -2.8376 4.5756 16.7734 15.1415 -24.3428 -3.2840 -0.0000 0.0000 -6.5177 37.0122 -27.4458 -19.1610 -7.1250 0.0000 -0.0000 3.9129 -2.9923 -4.1212 -0.0000 -0.0000 0.0000 -1.4728 -2.3007 11.0453 -16.6090 26.3395 -3.9123 0.0000 -0.0000 -4.4007 -30.0178 -44.2107 21.9433 7.1250 -0.0000 -0.0000 18.1791 -77.7734 -13.9963
-2.0505 22.2645 25.4138 4.6667 19.2157 24.0690 0.0000 0.0000 0.0000 -4.0950 14.8954 8.6419 17.0659 19.7923 81.3926 1.8437 10.2314 24.3929 0.3306 3.6954 10.2214 0.0000 0.0000 0.0000 -12.0279 12.7992 -81.8694 -3.6834 -11.7268 34.7722 0.9009 -29.7580 15.7700 -0.0003 0.1103 -0.3032 3.9828 -6.0403 -18.3386 2.3529 -8.5281 -9.3894 -1.2251 -4.3405 -0.1195 -8.4195 -3.4808 -11.7040 0.4111 -3.1499 24.2265 1.1838 -2.1881 9.7784 0.0000 0.0000 0.0000 -4.7825 10.1668 16.2027 14.6739 -23.6899 -3.0937 -0.0000 0.0000 -5.8687 37.2302 -27.0884 -19.0866 -7.1250 0.0000 -0.0000 4.1164 -2.6609 -4.3140 0.0000 0.0000 0.0000 -0.9435 -6.1077 12.7138 -16.2543 25.8643 -3.7562 0.0000 -0.0000 -5.4005 -29.5521 -47.1397 22.5678 7.1250 -0.0000 -0.0000 28.3912 -79.9730 -23.2586
-2.0648 22.0771 26.3337 6.1299 18.4660 24.8668 0.0000 0.0000 0.0000 -3.7476 16.0146 8.3516 18.4758 19.9442 85.5396 1.4375 11.2523 21.7018 0.6700 5.2346 14.5789 0.0000 0.0000 0.0000 -12.4520 13.2889 -78.6806 -3.5009 -11.4649 33.8643 1.7359 -32.2681 13.0406 -0.1104 -2.1420 5.8983 2.8562 -5.8865 -19.8466 1.8579 -8.1738 -9.4303 -1.2376 -4.1176 0.7049 -8.9953 -2.9371 -9.9298 0.9424 -2.5857 23.2071 1.5541 -1.8971 9.0727 0.0000 0.0000 0.0000 -6.4901 15.9987 14.8678 14.3150 -23.1832 -2.9510 -0.0000 0.0000 -5.3190 37.0244 -28.5607 -19.8286 -7.1250 0.0000 -0.0000 3.6711 -4.2432 -3.9405 0.0000 0.0000 0.0000 -0.1197 -10.0528 13.8947 -16.2814 25.9007 -3.7680 0.0000 -0.0000 -6.3091 -31.0728 -48.5239 24.2982 7.1250 -0.0000 -0.0000 32.5161 -81.6333 -27.7390
-2.0719 21.8446 27.2513 7.6722 18.0955 25.4327 0.0000 0.0000 0.0000 -3.4529 16.8108 8.7822 19.5068 19.9942 88.5580 1.2492 12.7931 20.6106 1.7104 8.2349 23.4299 0.0000 0.0000 0.0000 -12.7683 13.2180 -75.3163 -3.3474 -11.2372 33.0840 0.8679 -30.3726 16.5524 -0.0009 0.1917 -0.5266 1.8091 -5.9737 -20.6997 1.4096 -8.0948 -9.5648 -1.2053 -4.0487 1.0690 -8.8599 -2.9407 -9.7646 0.3415 -2.4929 23.1298 1.3375 -1.9025 9.0045 0.0000 0.0000 0.0000 -8.3046 22.1433 12.9478 13.9710 -22.6933 -2.8169 -0.0000 0.0000 -3.8347 36.6948 -28.8445 -19.7749 -7.1250 0.0000 -0.0000 3.4204 -4.4500 -3.6819 0.0000 0.0000 0.0000 1.1248 -13.0301 12.7741 -15.6412 25.0317 -3.4928 0.0000 -0.0000 -4.7936 -31.7118 -46.3799 24.0996 7.1250 -0.0000 -0.0000 22.0180 -80.3066 -18.1068
-2.0890 21.5492 28.1874 9.2489 17.9268 26.0535 0.0000 0.0000 0.0000 -2.7907 17.5927 8.2864 20.6362 19.9903 91.8605 0.9965 12.6402 18.6649 1.8965 8.6472 24.6978 0.0000 0.0000 0.0000 -13.4141 13.2590 -71.8250 -3.2018 -11.0148 32.3298 2.9556 -35.1016 8.6375 -0.3590 -3.8492 10.6528 0.4725 -6.1700 -21.7965 0.9457 -8.0755 -9.6306 -1.0743 -3.9978 1.6552 -8.5275 -3.2737 -10.0532 -0.3227 -2.8315 23.5000 1.0118 -2.1115 9.1922 0.0000 0.0000 0.0000 -9.8252 27.8366 11.6042 13.2617 -21.6695 -2.5491 -0.0000 0.0000 -2.2113 37.3184 -29.1761 -20.3861 -7.1250 0.0000 -0.0000 3.6958 -5.0263 -4.0134 0.0000 0.0000 0.0000 2.5358 -16.3670 12.3934 -15.6188 25.0011 -3.4833 0.0000 -0.0000 -5.1045 -29.6728 -45.5757 22.1419 7.1250 -0.0000 -0.0000 22.6454 -78.7928 -17.9524
-2.0901 21.2545 29.1056 10.0258 18.7067 25.8654 0.0000 0.0000 0.0000 -0.7619 18.1111 8.6671 21.4659 19.9484 94.2894 0.7740 11.6517 16.5634 1.9815 8.8275 25.2572 0.0000 0.0000 0.0000 -11.8021 12.4530 -67.5390 -3.0688 -10.8056 31.6269 3.3757 -36.1798 7.4378 -0.3329 -3.7079 10.2564 0.1173 -6.2406 -21.7223 0.5833 -8.0593 -10.3802 -1.1912 -3.9951 0.7940 -8.3956 -3.5990 -9.0916 -0.9920 -3.2293 24.8775 0.7209 -2.3938 9.5060 0.0000 0.0000 0.0000 -9.9655 33.4669 15.3637 13.0802 -21.4047 -2.4825 -0.0000 0.0000 -4.8550 38.6227 -28.5424 -20.8939 -7.1250 0.0000 -0.0000 4.5774 -4.7661 -4.9573 0.0000 0.0000 0.0000 3.4294 -20.7294 14.0588 -16.0042 25.5263 -3.6478 0.0000 -0.0000 -7.0104 -29.8572 -47.0555 22.7921 7.1250 -0.0000 -0.0000 27.6033 -80.0406 -22.6364
-2.0821 20.9364 30.0215 10.3582 20.0489 25.2011 0.0000 0.0000 0.0000 2.1063 18.5681 9.4755 22.0028 19.9036 95.8649 0.5008 10.8362 13.7459 2.2672 9.4018 27.0604 0.0000 0.0000 0.0000 -9.1530 10.9775 -62.8403 -2.9430 -10.6022 30.9497 4.8059 -38.3685 0.8546 -0.7812 -5.6430 15.7520 0.3766 -6.0713 -21.1741 0.2480 -7.8658 -10.6869 -1.5590 -3.9209 0.1079 -9.3552 -3.7353 -8.1065 -0.1804 -3.5338 25.7026 1.1396 -2.5592 9.6668 0.0000 -0.0000 0.0000 -10.8043 37.3296 16.0845 12.5917 -20.6861 -2.3071 -0.0000 0.0000 -6.7605 40.1180 -28.4010 -21.8400 -7.1250 0.0000 -0.0000 5.4509 -5.1413 -5.9434 0.0000 -0.0000 0.0000 4.6807 -25.1454 13.5464 -15.6081 24.9864 -3.4788 0.0000 -0.0000 -7.3328 -30.2259 -45.4938 22.5633 7.1250 -0.0000 -0.0000 21.4979 -78.9535 -17.0986
-2.0995 20.5418 30.9670 10.6701 20.5656 25.5216 0.0000 0.0000 0.0000 4.5436 19.8885 8.7923 22.4281 19.8581 97.1154 0.3353 7.8419 10.9225 1.6954 8.2005 23.3248 0.0000 0.0000 0.0000 -7.2465 10.2351 -59.7133 -2.8692 -10.4803 30.5465 5.7680 -38.4370 -10.9922 -2.0796 -9.0299 25.8888 0.3041 -5.8184 -21.9884 -0.0876 -7.4814 -11.1199 -1.8458 -3.7305 0.0043 -9.1494 -4.2572 -9.4521 -0.7511 -3.9767 27.8659 0.8074 -2.8628 10.7326 -0.0000 -0.0000 0.0000 -11.4869 41.8830 16.4175 12.9670 -21.2388 -2.4413 -0.0000 0.0000 -10.6718 38.3351 -27.3648 -19.9747 -7.1250 0.0000 -0.0000 4.6872 -3.3387 -4.9685 -0.0000 -0.0000 0.0000 6.2665 -28.3937 11.1249 -14.6172 23.6101 -3.0710 0.0000 -0.0000 -5.8031 -27.9289 -44.6235 20.4243 7.1250 -0.0000 -0.0000 22.5464 -77.2963 -17.1937
-2.1039 20.0982 31.9015 11.0200 20.6287 26.0167 0.0000 0.0000 0.0000 5.8036 21.2995 7.9877 22.5953 19.8377 97.6079 0.1458 4.3736 6.9951 0.9785 6.2968 17.6481 0.0000 0.0000 0.0000 -4.7391 8.6720 -57.6972 -2.8928 -10.5195 30.6760 5.6666 -37.8936 -14.3004 -2.3498 -9.5595 27.5618 0.0567 -5.6835 -23.2328 -0.3054 -7.2172 -11.2463 -1.9992 -3.5832 0.4774 -9.1121 -4.3944 -8.9168 -0.7585 -4.2446 27.4485 0.7812 -2.9720 10.4823 0.0000 0.0000 0.0000 -13.0798 46.7507 14.4892 12.9355 -21.1927 -2.4299 -0.0000 0.0000 -12.7934 38.9129 -26.9565 -20.1000 -7.1250 0.0000 -0.0000 5.1103 -3.0715 -5.3978 0.0000 0.0000 0.0000 8.3315 -30.7154 6.9581 -13.8993 22.5906 -2.7893 0.0000 -0.0000 -4.5217 -24.8666 -43.4561 17.6811 7.1250 -0.0000 -0.0000 24.0050 -75.1318 -17.2632
-2.0829 19.6039 32.7937 10.1918 20.7513 25.7348 0.0000 0.0000 0.0000 7.6367 22.7076 8.0323 22.4708 19.8530 97.2412 0.0484 1.3411 3.9040 0.7469 5.5203 15.3986 0.0000 0.0000 0.0000 1.2958 4.5999 -56.9535 -3.0125 -10.7152 31.3254 4.2840 -37.2680 2.6145 -0.5728 -4.8468 13.4722 1.3300 -5.0858 -23.8756 -0.4340 -6.6928 -11.0749 -2.7900 -3.3652 0.8295 -8.8372 -4.5294 -8.2975 -0.7967 -4.5619 26.3546 0.7108 -3.0677 9.9624 -0.0000 0.0000 0.0000 -15.8527 51.2074 9.9666 12.6039 -20.7041 -2.3114 -0.0000 0.0000 -12.4858 39.3816 -28.7233 -21.5289 -7.1250 0.0000 -0.0000 4.9602 -5.2386 -5.4119 -0.0000 0.0000 0.0000 10.4956 -33.5468 5.7958 -14.2064 23.0290 -2.9084 0.0000 -0.0000 -6.6175 -26.2532 -44.5455 19.0845 7.1250 -0.0000 -0.0000 24.7631 -76.5708 -18.5552
-2.1012 19.0484 33.6586 9.7936 19.6337 26.0869 0.0000 0.0000 0.0000 7.6636 24.5525 7.2666 22.2873 19.8741 96.7010 -0.0065 -1.4375 0.6417 0.3188 3.6292 10.0358 0.0000 0.0000 0.0000 6.2027 1.6009 -57.5725 -3.2227 -11.0471 32.4388 0.4120 -29.4458 18.4907 -0.0652 1.6476 -4.5327 1.4600 -4.4482 -24.2403 -0.5854 -5.8903 -11.1967 -2.8636 -2.9728 0.8834 -8.2536 -5.3430 -10.4408 -1.4876 -5.4176 27.6083 0.1870 -3.5075 10.8412 -0.0000 0.0000 0.0000 -18.6530 55.8451 9.6424 12.7195 -20.8748 -2.3524 -0.0000 0.0000 -16.7503 40.5590 -24.5758 -19.5932 -7.1250 0.0000 -0.0000 6.5991 -0.8841 -6.7448 -0.0000 0.0000 0.0000 13.2919 -35.7778 3.0691 -14.1288 22.9186 -2.8781 0.0000 -0.0000 -6.7519 -28.9481 -43.7251 20.9229 7.1250 -0.0000 -0.0000 18.6857 -76.9271 -14.0672
-2.1669 18.3983 34.4814 9.2907 17.2103 26.5747 0.0000 0.0000 0.0000 6.9178 26.7319 6.2675 22.1910 19.8845 96.4179 0.0015 -3.7870 -2.7183 0.0625 1.6136 4.4388 0.0000 0.0000 0.0000 9.8966 1.2515 -58.2920 -3.6175 -11.6332 34.4466 -1.0816 -19.4456 21.5792 -0.8165 5.7659 -16.1068 0.7694 -3.6788 -24.4199 -0.6448 -4.7571 -11.2515 -2.2852 -2.3822 1.0277 -8.7443 -5.2719 -9.8768 0.0265 -5.6894 26.4948 0.8060 -3.4857 10.3843 -0.0000 -0.0000 0.0000 -22.8635 59.6200 6.6090 12.0380 -19.8617 -2.1152 -0.0000 0.0000 -19.2973 43.6062 -23.8474 -21.0615 -7.1250 0.0000 -0.0000 8.5326 -1.1162 -8.7946 -0.0000 -0.0000 0.0000 16.1430 -37.7123 2.3290 -14.3524 23.2362 -2.9657 0.0000 -0.0000 -7.5619 -30.6660 -44.8821 22.7053 7.1250 -0.0000 -0.0000 18.9287 -78.6162 -14.9035
-2.2557 17.6290 35.2258 8.4694 14.5575 26.5469 0.0000 0.0000 0.0000 6.2069 28.0024 5.3375 22.3858 19.8630 96.9909 0.0631 -5.6334 -5.5967 0.0067 0.5278 1.4504 0.0000 0.0000 0.0000 13.8955 1.8174 -58.7797 -4.5753 -12.8890 38.9544 -0.0578 -10.6041 8.3132 -2.2066 9.2838 -26.6871 0.2569 -2.9408 -23.1576 -0.6918 -3.7237 -11.5599 -1.7204 -1.8631 0.1543 -8.0636 -5.8635 -11.8540 -0.3397 -6.3954 27.1912 0.4013 -3.7863 11.0227 -0.0000 -0.0000 0.0000 -28.0329 63.0491 1.2661 11.1383 -18.4999 -1.8196 -0.0000 0.0000 -20.5563 43.8079 -23.0060 -20.5507 -7.1250 0.0000 -0.0000 8.8489 -0.1722 -8.9832 -0.0000 -0.0000 0.0000 19.5169 -38.3364 -0.5818 -13.9360 22.6432 -2.8034 0.0000 -0.0000 -6.2866 -29.7281 -46.6644 22.5552 7.1250 -0.0000 -0.0000 26.2970 -79.6866 -21.3645
-2.3605 16.9688 35.9794 8.2444 11.1099 27.8166 0.0000 0.0000 0.0000 1.9646 28.5321 1.1136 22.7610 19.8162 98.0964 0.1537 -5.8965 -7.5654 0.0172 -0.8457 -2.3242 0.0000 0.0000 0.0000 14.3673 5.1949 -60.7220 -6.2223 -14.6403 45.8674 0.3958 -11.4342 -7.2846 -0.4861 4.4707 -12.4048 -1.3723 -2.1081 -22.1210 -1.0016 -2.3640 -12.4133 -0.7742 -1.1208 -1.2029 -8.5337 -5.6672 -9.1118 1.8783 -6.8212 23.4495 1.3292 -3.7527 9.2456 0.0000 0.0000 0.0000 -34.8582 65.0500 -7.4095 10.1957 -17.0451 -1.5318 -0.0000 0.0000 -20.6039 42.8141 -17.6954 -15.7275 -7.1250 0.0000 -0.0000 9.4318 6.7374 -8.3773 0.0000 0.0000 0.0000 23.4293 -39.5822 -2.2276 -14.1447 22.9412 -2.8843 0.0000 -0.0000 -8.3453 -28.4185 -49.3628 22.3242 7.1250 -0.0000 -0.0000 40.0907 -80.9720 -33.9093
-2.3756 16.4522 36.6396 6.3243 9.6307 27.3024 0.0000 0.0000 0.0000 -0.4024 26.7179 -2.1567 23.2534 19.7443 99.5513 0.2681 -5.0445 -9.3335 0.0965 -2.0030 -5.5140 0.0000 0.0000 0.0000 15.4245 8.0865 -61.1100 -8.1035 -16.1948 52.9345 -1.0109 -7.4210 -23.0563 -1.2817 -7.1743 20.2327 -0.0079 -1.0950 -19.5680 -0.8002 -1.3408 -11.9601 -1.0751 -0.6765 -1.9855 -8.0576 -5.9772 -9.7679 2.4016 -7.3471 20.6987 1.3724 -3.8728 8.4451 0.0000 0.0000 0.0000 -47.9381 64.4460 -21.1923 9.8747 -16.5434 -1.4391 -0.0000 0.0000 -23.1146 44.9752 -16.1503 -15.5316 -7.1250 0.0000 -0.0000 11.0903 8.0540 -9.6137 0.0000 0.0000 0.0000 29.3975 -38.3395 -9.1721 -13.7317 22.3498 -2.7252 0.0000 -0.0000 -8.3053 -30.4472 -48.2805 23.6892 7.1250 -0.0000 -0.0000 32.1526 -81.1867 -27.1542
-2.4576 15.9347 37.2580 3.4975 6.3040 28.4870 0.0000 0.0000 0.0000 -2.8810 25.3157 -8.6432 24.3155 19.5475 102.7097 0.3437 -5.9097 -10.6026 0.1651 -2.6178 -7.2164 0.0000 0.0000 0.0000 16.8893 13.5624 -62.5738 -9.7399 -17.2610 58.6155 -2.0895 -5.6637 -29.7983 -2.0369 -8.9425 25.6157 0.8286 0.4182 -18.0569 -0.3388 0.5052 -12.5643 -0.7526 0.2163 -3.3841 -7.9180 -6.0754 -9.9651 3.1914 -7.6149 19.0094 1.5908 -3.9004 7.9510 0.0000 -0.0000 0.0000 -59.0727 63.1313 -27.5740 10.2483 -17.1270 -1.5473 -0.0000 0.0000 -30.9961 47.3433 -16.5091 -17.1406 -7.1250 0.0000 -0.0000 12.4543 6.8109 -11.1631 0.0000 -0.0000 0.0000 35.1492 -36.4609 -14.6744 -13.4877 21.9976 -2.6332 0.0000 -0.0000 -8.5161 -36.9084 -50.8383 30.2140 7.1250 -0.0000 -0.0000 43.7046 -85.7715 -40.7026
-2.4625 15.4071 37.6717 -2.7177 5.6737 27.6346 0.0000 0.0000 0.0000 1.2357 22.0463 -13.0357 25.8176 19.1684 107.2391 0.5445 -7.5522 -13.3803 0.3789 -3.9535 -10.9458 0.0000 0.0000 0.0000 23.2170 18.0868 -61.3621 -11.0557 -17.9623 62.9625 -2.3936 -8.0866 -32.9732 -1.1680 -6.8604 19.3026 6.7296 2.2782 -14.5882 1.0092 2.4157 -12.0437 -2.4476 0.8372 -4.4900 -7.3054 -6.3743 -10.7190 2.9078 -7.9487 16.5309 1.3663 -4.0215 7.2491 -0.0000 -0.0000 0.0000 -69.6409 58.3860 -35.3014 10.2344 -17.1053 -1.5432 -0.0000 0.0000 -31.2206 48.4864 -17.8561 -19.1068 -7.1250 0.0000 -0.0000 12.8175 4.6013 -12.0599 -0.0000 -0.0000 0.0000 41.1675 -34.4168 -15.1815 -14.7606 23.8115 -3.1286 0.0000 -0.0000 -12.6668 -39.2474 -52.9019 33.0887 7.1250 -0.0000 -0.0000 83.0612 -87.1591 -80.2293
-2.4621 14.9874 38.1043 -7.8585 5.1825 26.5725 0.0000 0.0000 0.0000 4.6690 17.0969 -18.5261 27.4030 18.6318 112.1311 0.7647 -8.3562 -15.7856 0.3749 -3.9328 -10.8876 0.0000 0.0000 0.0000 29.1657 21.2860 -58.7286 -11.8957 -18.3462 65.6578 -1.1725 -17.3794 -33.0148 -0.8464 -5.8681 16.4022 11.1241 3.7530 -12.0321 2.4032 4.1759 -10.4676 -3.2848 1.5642 -3.8971 -7.6990 -6.8008 -12.1666 3.3992 -8.3501 13.8214 1.5297 -4.1629 6.6827 -0.0000 0.0000 0.0000 -77.3148 51.0466 -37.6269 10.3478 -17.2818 -1.5767 -0.0000 0.0000 -30.6792 47.5779 -18.0963 -18.7730 -7.1250 0.0000 -0.0000 12.2219 4.6271 -11.4654 -0.0000 0.0000 0.0000 46.5711 -28.3615 -22.7288 -13.7569 22.3861 -2.7348 0.0000 -0.0000 -8.4634 -37.5202 -52.8878 31.4814 7.1250 -0.0000 -0.0000 74.6004 -86.4570 -71.1506
-2.5017 14.7535 38.6444 -10.9110 5.8552 26.1018 0.0000 0.0000 0.0000 6.4719 9.4990 -25.8962 28.4762 18.1820 115.5287 0.8413 -8.0799 -16.4786 0.2510 -3.2236 -8.9020 0.0000 0.0000 0.0000 33.9840 21.3148 -56.0359 -12.1098 -18.4367 66.3365 -1.7335 -16.5770 -35.4580 -0.1076 -2.1148 5.8231 13.0210 4.2891 -10.2446 3.4424 5.0268 -10.0497 -3.2259 1.9118 -4.3055 -7.6755 -7.3944 -12.5023 3.3330 -9.0874 12.5877 1.4324 -4.5126 6.3807 -0.0000 0.0000 0.0000 -81.8205 45.8002 -31.1660 11.1094 -18.4558 -1.8104 -0.0000 0.0000 -35.6707 42.0756 -18.6877 -16.1333 -7.1250 0.0000 -0.0000 8.7728 5.7224 -7.9503 -0.0000 0.0000 0.0000 50.2313 -23.4590 -23.3236 -13.1183 21.4603 -2.4964 0.0000 -0.0000 -7.3119 -35.3442 -51.5566 29.0504 7.1250 -0.0000 -0.0000 52.4041 -85.2740 -48.5587
-2.5390 14.6629 39.2036 -11.6715 8.1177 23.9355 0.0000 0.0000 0.0000 6.8219 -0.6057 -31.6808 28.9186 17.9747 116.9543 0.9046 -5.5170 -16.9691 0.4168 -4.1438 -11.4817 0.0000 0.0000 0.0000 37.4201 16.9648 -52.2870 -11.9918 -18.3872 65.9627 -1.6657 -18.1421 -36.5035 -0.0091 -0.6176 1.6972 13.8573 3.7415 -7.7098 3.8622 4.6235 -9.0296 -3.4016 1.6918 -4.6399 -7.5573 -7.7199 -11.9943 3.9054 -9.6287 11.0533 1.5808 -4.7301 5.8596 0.0000 0.0000 0.0000 -84.7726 40.3549 -23.4556 12.0691 -19.9082 -2.1258 -0.0000 0.0000 -38.6700 38.4832 -20.1352 -15.3045 -7.1250 0.0000 -0.0000 6.2827 5.0106 -5.7453 0.0000 0.0000 0.0000 54.0018 -19.5502 -15.6161 -14.7679 23.8218 -3.1316 0.0000 -0.0000 -11.3281 -36.0034 -50.7256 29.3579 7.1250 -0.0000 -0.0000 42.9599 -85.2713 -39.6368
-2.5678 14.5795 39.7475 -13.2516 11.2073 21.4976 0.0000 0.0000 0.0000 9.4990 -10.2640 -37.5835 29.1183 17.8767 117.6031 1.0283 -3.9130 -18.2565 0.6121 -5.0076 -13.9303 0.0000 0.0000 0.0000 41.3901 12.4050 -48.3109 -11.6329 -18.2311 64.8203 -2.5099 -16.7524 -39.5391 -0.0808 1.8341 -5.0475 16.3967 3.0963 -4.1333 4.0220 4.4975 -9.2538 -4.8046 1.3177 -6.8916 -7.7405 -8.2712 -10.7850 4.7027 -10.5719 11.5114 1.7983 -5.1582 5.9108 -0.0000 -0.0000 0.0000 -86.0089 38.3361 -11.2954 15.0951 -24.2784 -3.2649 -0.0000 0.0000 -41.0170 37.4492 -21.4782 -15.6656 -7.1250 0.0000 -0.0000 5.3941 3.7163 -5.0560 -0.0000 -0.0000 0.0000 57.1941 -15.0843 -11.8256 -14.5317 23.4897 -3.0368 0.0000 -0.0000 -8.1995 -32.8365 -50.1733 26.3642 7.1250 -0.0000 -0.0000 40.7074 -83.4610 -36.2513
-2.6430 14.5369 40.4001 -13.2090 12.3728 21.5078 0.0000 0.0000 0.0000 11.3324 -16.6564 -45.3222 28.8913 17.9879 116.8660 1.1115 -2.6114 -19.2283 0.4145 -4.1327 -11.4502 0.0000 0.0000 0.0000 42.6304 11.0307 -45.0676 -11.1048 -17.9860 63.1213 -2.8776 -16.8347 -41.3014 -0.1537 2.5266 -6.9633 15.4316 3.1040 -5.6579 4.2399 4.0954 -8.4581 -3.9763 1.3413 -5.2342 -8.8239 -8.6585 -9.6634 6.4109 -11.1800 9.9074 2.5016 -5.4098 5.4210 -0.0000 -0.0000 0.0000 -87.3501 34.7690 -4.0767 18.2470 -28.4722 -4.6664 -0.0000 0.0000 -38.4411 27.9757 -40.7097 -19.1082 -7.1250 0.0000 -0.0000 -4.0368 -14.1781 4.9132 -0.0000 -0.0000 0.0000 59.9386 -8.3624 -7.7649 -15.0091 24.1588 -3.2297 0.0000 -0.0000 -4.3359 -35.0988 -54.0706 29.6429 7.1250 -0.0000 -0.0000 82.7574 -85.2923 -78.0475
-2.6682 14.5503 41.0350 -13.1739 13.0961 22.2665 0.0000 0.0000 0.0000 13.8029 -21.2237 -54.0610 28.4762 18.1820 115.5287 1.0472 0.3583 -19.4787 0.3312 -3.6987 -10.2306 0.0000 0.0000 0.0000 43.3747 10.1954 -42.2075 -10.4736 -17.6677 61.0599 -3.1352 -16.5057 -42.2076 -0.2355 3.1232 -8.6219 15.7393 3.3829 -7.5018 3.8792 4.0123 -8.1149 -4.4250 1.3864 -3.7951 -9.4617 -9.1050 -9.2250 7.4893 -11.8596 9.6687 2.8829 -5.7083 5.4323 -0.0000 -0.0000 0.0000 -87.2486 32.3229 6.7010 23.9377 -35.0983 -7.6707 -0.0000 0.0000 -33.1811 37.8852 -33.7073 -23.3541 -7.1250 0.0000 -0.0000 2.8817 -10.1811 -3.3496 -0.0000 -0.0000 0.0000 62.9115 -2.3997 -0.1067 -15.7517 25.1828 -3.5396 0.0000 -0.0000 -3.5334 -37.2321 -48.8596 29.7825 7.1250 -0.0000 -0.0000 23.7835 -84.7322 -21.5708
-2.7416 14.6230 41.7547 -12.4079 11.8244 22.0564 0.0000 0.0000 0.0000 14.0779 -22.3670 -59.4522 27.5565 18.5719 112.6123 0.9061 5.2095 -20.5954 0.2157 -2.9900 -8.2509 0.0000 0.0000 0.0000 43.1680 10.3708 -36.3758 -9.5975 -17.1772 58.1344 -3.1704 -16.6217 -42.4434 -0.3174 3.6215 -10.0142 14.6407 4.0514 -6.7723 3.0926 5.1295 -8.6308 -4.6546 1.9047 -4.5365 -10.1219 -9.8649 -8.5803 7.5899 -12.9441 10.7881 2.9063 -6.2635 5.8183 -0.0000 0.0000 0.0000 -85.3213 31.7458 15.3142 29.8856 -40.7952 -11.3348 -0.0000 0.0000 -27.0627 40.5773 -24.3816 -19.4705 -7.1250 0.0000 -0.0000 6.6534 -0.6624 -6.7755 -0.0000 0.0000 0.0000 66.5038 1.0892 6.4691 -16.9745 26.8242 -4.0758 0.0000 -0.0000 -2.3716 -34.7313 -48.0401 27.2713 7.1250 -0.0000 -0.0000 23.8954 -82.9511 -20.8821
-2.8279 14.7783 42.5048 -10.3193 9.1438 22.2359 0.0000 0.0000 0.0000 12.2500 -22.2486 -64.2654 26.3143 19.0159 108.7576 0.9411 8.3913 -23.1942 0.1694 -2.6514 -7.3096 0.0000 0.0000 0.0000 41.1308 11.7832 -29.9314 -8.5374 -16.5006 54.4761 -2.6179 -16.9004 -40.1616 -0.7199 5.4218 -15.1156 11.9684 4.8410 -7.1221 2.0389 6.1332 -8.2822 -4.2158 2.5689 -3.8243 -11.1829 -9.7139 -6.7870 9.2546 -12.9008 9.2213 3.6938 -6.2442 5.2102 0.0000 0.0000 0.0000 -84.1048 29.5906 19.6424 36.4915 -45.8482 -15.8741 -0.0000 0.0000 -16.6629 34.9666 -27.1446 -17.6961 -7.1250 0.0000 -0.0000 2.7987 -2.0182 -2.8989 0.0000 0.0000 0.0000 69.5282 5.8171 14.4033 -18.0829 28.2632 -4.5884 0.0000 -0.0000 -1.0720 -33.5558 -49.4875 26.7606 7.1250 -0.0000 -0.0000 34.9069 -83.4056 -30.9524
-2.7929 14.9547 43.2257 -10.4955 8.9451 21.7023 0.0000 0.0000 0.0000 13.0191 -23.1096 -69.1978 24.9840 19.3937 104.7152 1.1095 8.8481 -24.9355 0.0694 -1.6991 -4.6747 0.0000 0.0000 0.0000 41.6080 9.3145 -24.5548 -7.4545 -15.7030 50.5730 -1.5626 -18.0429 -35.8628 -1.6082 7.9972 -22.7056 14.3984 5.2822 -7.7878 1.3217 6.3876 -7.4835 -6.1570 2.6906 -2.2886 -11.9182 -9.6748 -6.2549 10.5244 -12.8956 8.0980 4.2387 -6.2248 4.9109 0.0000 -0.0000 0.0000 -83.0846 27.2551 22.4356 44.9492 -50.7436 -22.1994 -0.0000 0.0000 -8.1171 34.9888 -30.1875 -19.3890 -7.1250 0.0000 -0.0000 2.1587 -5.3746 -2.3530 0.0000 -0.0000 0.0000 71.5448 11.3094 26.2098 -18.9701 29.3815 -5.0162 0.0000 -0.0000 -2.2111 -36.4742 -45.9013 27.9637 7.1250 -0.0000 -0.0000 10.4110 -81.9303 -8.8561
-2.9434 15.2203 44.1440 -7.2945 5.6673 21.8078 0.0000 0.0000 0.0000 8.5805 -20.9703 -70.6833 22.7239 19.8212 97.9869 1.0564 7.7434 -23.6751 0.1058 -2.0970 -5.7738 0.0000 0.0000 0.0000 38.8243 11.0813 -18.1153 -6.5213 -14.9152 47.0397 -0.3330 -17.3227 -27.3020 -0.7028 5.3583 -14.9335 9.6289 5.7790 -7.1784 -0.2206 7.4404 -8.9437 -5.2401 3.2389 -4.2252 -12.1939 -10.2552 -6.3747 9.9060 -13.8646 11.8803 3.9224 -6.7094 6.1906 0.0000 0.0000 0.0000 -79.8960 28.8660 26.8756 54.6917 -54.7210 -29.9642 -0.0000 0.0000 -4.3258 35.3422 -30.8755 -19.9972 -7.1250 0.0000 -0.0000 2.1995 -6.2373 -2.4272 0.0000 0.0000 0.0000 75.8642 11.8930 33.1751 -21.2576 32.1278 -6.1864 0.0000 0.0000 2.3332 -29.4969 -46.5128 22.3148 7.1250 -0.0000 -0.0000 26.0918 -79.4708 -21.0847
-2.9070 15.3465 44.5514 -7.3683 6.4680 21.4193 0.0000 0.0000 0.0000 8.5777 -21.8781 -71.8554 21.7248 19.9285 95.0487 0.8625 7.5494 -21.8467 0.1374 -2.3894 -6.5832 0.0000 0.0000 0.0000 38.9559 8.4710 -16.2054 -6.0412 -14.4682 45.1469 0.0085 -16.1780 -22.8649 -0.5209 4.6257 -12.8439 11.3485 5.6371 -7.9411 -0.4814 7.0427 -8.5409 -6.3806 3.0097 -3.2484 -12.5399 -10.0682 -6.2776 10.4148 -13.6596 11.9199 4.1636 -6.5975 6.2243 0.0000 0.0000 0.0000 -79.5102 27.9017 27.4759 59.7991 -56.2562 -34.1740 -0.0000 0.0000 -3.4070 35.3324 -30.2103 -19.6311 -7.1250 0.0000 -0.0000 2.3458 -5.5095 -2.5623 0.0000 0.0000 0.0000 77.4596 14.3750 37.4105 -21.9478 32.9180 -6.5574 0.0000 0.0000 2.6774 -28.5934 -45.6586 21.2971 7.1250 -0.0000 -0.0000 24.5710 -78.4159 -19.3215
-2.9070 15.3465 44.5514 -7.3683 6.4680 21.4193 0.0000 0.0000 0.0000 8.5777 -21.8781 -71.8554 21.7248 19.9285 95.0487 0.8625 7.5494 -21.8467 0.1374 -2.3894 -6.5832 0.0000 0.0000 0.0000 38.9559 8.4710 -16.2054 -6.0412 -14.4682 45.1469 0.0085 -16.1780 -22.8649 -0.5209 4.6257 -12.8439 11.3485 5.6371 -7.9411 -0.4814 7.0427 -8.5409 -6.3806 3.0097 -3.2484 -12.5399 -10.0682 -6.2776 10.4148 -13.6596 11.9199 4.1636 -6.5975 6.2243 0.0000 0.0000 0.0000 -79.5102 27.9017 27.4759 59.7991 -56.2562 -34.1740 -0.0000 0.0000 -3.4070 35.3324 -30.2103 -19.6311 -7.1250 0.0000 -0.0000 2.3458 -5.5095 -2.5623 0.0000 0.0000 0.0000 77.4596 14.3750 37.4105 -21.9478 32.9180 -6.5574 0.0000 0.0000 2.6774 -28.5934 -45.6586 21.2971 7.1250 -0.0000 -0.0000 24.5710 -78.4159 -19.3215
